"","formatted_address","name","place_id","lat","lng"
"1","Meibergdreef 2, 1105 AX Amsterdam, Netherlands","Coffee 2 go","ChIJdwi0Sn4LxkcRrRxDjI3pBTg",52.2972835,4.9600854
"2","Tegenover ingang parkeergarage P2 Volg borden P2, 1105 AZ Amsterdam, Netherlands","Eerste Hulp bij Fietsreparaties","ChIJ3fPYgH4LxkcRECfekC_ylLM",52.2933707,4.9557583
"3","Paasheuvelweg 34 H, 1105 BJ Amsterdam, Netherlands","Coffeemania","ChIJ2TjaKSHixUcRbyYhUIV-VIs",52.2973092,4.9531406
"4","Bijlmerdreef 138, 1102 AB Amsterdam, Netherlands","C&A","ChIJa_0vRI4LxkcRP9uMf0ofqHk",52.314543,4.953945
"5","Oudenrijnlaan 78, 1105 AZ Amsterdam, Netherlands","Coffee To Go","ChIJdyiFLX4LxkcRABEToFlGwnI",52.2970649,4.9610024
"6","Meibergdreef 9, 1105 AZ Amsterdam, Netherlands","Hairtrends Haarwerk","ChIJ2zlQFK91xkcRNcHF7DTja9A",52.294629,4.957973
"7","Stekkenbergweg 8, 1105 AJ Amsterdam, Netherlands","Metal Shop Amsterdam","ChIJv6TU-p4LxkcRfjhXoNsspjY",52.29588,4.947319
"8","Reigersbos 184, 1107 ES Amsterdam, Netherlands","Junior Afro Shop","ChIJbacmv4gMxkcRv800JtLEBF8",52.2950575,4.9760892
"9","Hoogoorddreef 80, 1101 BG Amsterdam, Netherlands","Würth shop Amsterdam Arena","ChIJd-VXDKILxkcR_ot4t69_IZ4",52.307512,4.93677
"10","Centraal plein, Meibergdreef 9, 1105 AZ Netherlands","Kai's office en gift shop","ChIJ3fPYgH4LxkcR_cGfGD5fsbQ",52.2947195,4.9586863
"11","Bijlmerplein 354, 1102 DK Amsterdam, Netherlands","Holland & Barrett","ChIJI5zFOo4LxkcRzQnUMlAQjCg",52.314393,4.952504
"12","Sijsjesbergweg 10, 1105 AL Amsterdam, Netherlands","De Voordeelmarkt Amsterdam","ChIJ6T7VSnELxkcRaq0yq120b-A",52.295347,4.9430347
"13","ArenA Boulevard 177-187, 1101 AX Amsterdam, Netherlands","Esprit - Outlet Amsterdam","ChIJCb4KmJcLxkcRFjTVoGx4V3o",52.3130131,4.9457029
"14","Meibergdreef 9, 1105 AZ Amsterdam, Netherlands","Starbucks","ChIJR2WRgH4LxkcRceiIYcLexS8",52.2940851,4.9571149
"15","Bijlmerdreef 131-132, 1102 DB Amsterdam, Netherlands","JD Sports Fashion Plc","ChIJ5-5MFo4LxkcRJH3f2ggNvek",52.3145349,4.9533465
"16","Keienbergweg 13, 1101 EZ Amsterdam, Netherlands","Calumet Photographic bv","ChIJ5ZWGU6ILxkcRvp_A3CtvPXw",52.3076702,4.9362504
"17","Amsterdam Bijlmerplein, Bijlmerplein 870, 1102 MG Netherlands","Specsavers","ChIJSxh2L44LxkcR6tlH5kG4csk",52.3140728,4.9534901
"18","Brugstraat 7, 1391 GH Abcoude, Netherlands","Barbanero Barber & Shop","ChIJ0X52e7sMxkcRdIHskF8X4Yc",52.2723684,4.973295
"19","Heesterveld 3, 1102 SB Amsterdam, Netherlands","Oma Ietje","ChIJV-z1Y4QLxkcR1PSpzU_9CH0",52.3064887,4.9539307
"20","ArenA Boulevard 618, 1011 DS Amsterdam, Netherlands","Starbucks","ChIJ9xUTPZcLxkcRL6QHAEXnrsE",52.3121749,4.947705
"21","Twellostraat 46, 1107 PH Amsterdam, Netherlands","Colin's Woning- en Projectstoffering","ChIJEbjN-4MMxkcRE7rVV4Gjamk",52.2938463,4.9673637
"22","Bijlmerplein 82 Amsterdamse Poort, 1102 DA Amsterdam, Netherlands","CeX","ChIJHcVVMZALxkcRXEclOxgMDDA",52.313382,4.950158
"23","Hoekenrode 6, 1102 BR Amsterdam, Netherlands","Lebkov & Sons Bijlmer Arena","ChIJp2EWRJALxkcRs756_B_kVgc",52.31269,4.949346
"24","Kralenbeek 67-68, 1104 KJ Amsterdam, Netherlands","Alpha Afro Shop","ChIJ7SB4n3EMxkcR3kaNyZXqv9U",52.3140058,4.974975
"25","Bijlmerplein 129, 1102 DB Amsterdam, Netherlands","Vodafone shop","ChIJKW1UOI4LxkcRL4vMYS4aOO0",52.3142969,4.9526269
"26","Anton de Komplein 158, 1102 CW Amsterdam, Netherlands","Mobi shop / HTC repair","ChIJ4-nAvI4LxkcROm3gz43npEE",52.3157413,4.9550724
"27","Bijlmerplein 993, 1102 MK Amsterdam, Netherlands","Primera Amsterdamse Poort","ChIJn9kvLJALxkcRtKxQOZCHzug",52.3133893,4.9508587
"28","Herikerbergweg, 1101 CM Amsterdam-Zuidoost, Netherlands","St. Ives Crocus B.V.","ChIJ8Qo1EZkLxkcRPAUriVzwMrM",52.3077682,4.9414794
"29","Diemerplein 122-124, 1111 JD Diemen, Netherlands","Holland & Barrett","ChIJxXDKFk0LxkcRr-f1d9BvjQc",52.33067,4.954992
"30","Kuyerpad 21, 1391 RT Abcoude, Netherlands","Cable Soolutions Shop","ChIJHwlQrn8sxEcRDyP6a2qO32A",52.2731943,4.9625519
"31","Komijnstraat 27, 1104 HP Amsterdam, Netherlands","Studio Happy Story","ChIJyb1f7GsMxkcRpHAuYxByrKc",52.31603,4.98621
"32","De Flinesstraat 1, 1114 AL Amsterdam, Netherlands","Staples","ChIJOyObN8YLxkcR8PngbsDjUy4",52.3258967,4.9286135
"33","Kruitberghof 65, 1104 BC Amsterdam, Netherlands","African Beauty Shop","ChIJ-Y_GqW0MxkcRpk1zGQZ578o",52.316697,4.978362
"34","Bijlmerplein 159, 1102 DB Amsterdam, Netherlands","Beans","ChIJ62rhLo4LxkcRjwWxWz4bgCY",52.3141142,4.9521063
"35","Bijlmerplein 88, 1102 DA Amsterdam, Netherlands","Palais De Fromage","ChIJPUyCLZALxkcR4SJkLcnkHdQ",52.3135141,4.9506653
"36","Snijdersbergweg 97, 1105 AN Amsterdam, Netherlands","Drax Europe BV","ChIJt2bOpFzbxUcRBvGfEeYAK-Y",52.29832,4.9457718
"37","Reigersbos winkelcentrum, Reigersbos 98A, 1107 ES Amsterdam, Netherlands","Chocolaterie en noten Pitto","ChIJ7UYOlIgMxkcRvdTTnXUgnoA",52.2956673,4.9758767
"38","Handelsplein 3, 1181 WC Amstelveen, Netherlands","MANGO","ChIJBzgEAIcKxkcRt1z9SlMaN-g",52.3012282,4.866369
"39","Ruiseveenpad 30, 1106 AM Amsterdam, Netherlands","Slagerij Dirk van der Vliet B.V.","ChIJ1brG1YcMxkcRadXcjwIP56I",52.2969467,4.9748986
"40","Efua Sutherlandstraat 5, 1103 MP Amsterdam, Netherlands","Cash And Glory Tattoos and Piercing","ChIJa1qBq28MxkcRiB8LYKzkhlo",52.3212613,4.9679846
"41","Korte Dwarsweg 9A, 1191 LE Ouderkerk aan de Amstel, Netherlands","the Melktap","ChIJjZLsqKcLxkcRHv9ZfCSbwqQ",52.3034761,4.9261689
"42","Vinkenkade 75, 3645 AP Vinkeveen, Netherlands","Koffiehuis De Goede Morgen","ChIJO_6-RFFzxkcRA0mnYfHy0yk",52.2514181,4.9613066
"43","ArenA Boulevard 2- 4, 1101 DJ Amsterdam, Netherlands","Auping Plaza Amsterdam","ChIJbxlZp6ILxkcRmFnFA03hCJs",52.3120516,4.938396
"44","Rembrandthof 11, 1181 ZL Amstelveen, Netherlands","MANGO","ChIJqYrHfYAKxkcR1mrm27yFePQ",52.3036658,4.8599763
"45","Bijlmerdreef 1148, 1103 JV Amsterdam, Netherlands","GSM shop Bijlmerdreef","ChIJK09bFQsMxkcRiwQyaowFrLM",52.3221879,4.9711657
"46","Hollandse Kade 36, 1391 JM Abcoude, Netherlands","Bosch Car Service Abcoude / Garage Abcoude BV","ChIJU8_lspcMxkcRFD2vFj1SuTk",52.2798998,4.9752455
"47","Hoogstraat 17, 1391 BR Abcoude, Netherlands","Ter Stege Food Boutique","ChIJF2_7r7sMxkcRB3c5lnJQewY",52.2706826,4.9744241
"48","Heesterveld 18, 1102 SB Amsterdam, Netherlands","Fallé Studio's","ChIJ85MiYoQLxkcRUY5ZabTMRe0",52.306533,4.953637
"49","Rembrandtweg 41 A, 1181 GE Amstelveen, Netherlands","Zara","ChIJfbhe6YAKxkcRxAUyjIxI7hQ",52.3024834,4.8612558
"50","Hoogoorddreef 9, 1101 BA Amsterdam, Netherlands","Hout Coatings","ChIJtSqKO5oLxkcRC1VTSzJlBkQ",52.3094649,4.9455009
"51","Gelderlandplein 155-157, 1082 LW Amsterdam, Netherlands","Esprit","ChIJK1-08REKxkcRrGX76R5wRlw",52.3307211,4.8776108
"52","Pampusweg 7, 1398 PT Muiden, Netherlands","C&A","ChIJ3zc8nNQNxkcRDLKnihQUz-I",52.3343774,5.0209169
"53","Leeuwenveldseweg 1, 1382 LV Weesp, Netherlands","The Body Shop Belgium B.V.","ChIJfw19bZYNxkcRv1pB8j-81ew",52.3116523,5.045942
"54","Binnenhof 12, 1181 ZG Amstelveen, Netherlands","G-Star RAW Store","ChIJCzf-6oAKxkcRHc-0Alyxbqc",52.3025808,4.8614703
"55","Pampusweg 20, 1398 PV Muiden, Netherlands","Sports World","ChIJZ04PVNMNxkcR3KBhXOorg8M",52.3343647,5.0220141
"56","Gallerij 152 ZS, 1181 Amstelveen, Netherlands","Ralph Lauren","ChIJC_1pgIAKxkcRXIywOjB3MSI",52.3040058,4.8603691
"57","Wisseloord 97, 1106 MA Amsterdam, Netherlands","Primera Vlaskamp","ChIJGVxu2YoMxkcRKAfoAlmIUp8",52.2964448,4.9870155
"58","Bijlmerplein 149, 1102 DB Amsterdam, Netherlands","T-Mobile","ChIJd8z1No4LxkcRRwtIyuZCsoo",52.314091,4.953099
"59","Binnenhof 24, 1184 ZH Amstelveen, Netherlands","Levi's® Store Amstelveen Binnenhof","ChIJ0ZX5bqsLxkcRI7So9X9817Q",52.302242,4.862431
"60","Galerij 152, 1181 ZS Amstelveen, Netherlands","Maje Corner Debijenkorf","ChIJi7qm45sLxkcR5yDV9PAWAts",52.3040058,4.8603691
"65","Ruiseveenpad 58, 1106 AN Amsterdam, Netherlands","Tedmers World Changers","ChIJ59Hx6ogMxkcRxCX6mBsmhM4",52.2970917,4.9758941
"71","Hollandse Kade 16, 1391 JD Abcoude, Netherlands","Just Headphones","ChIJ-5Lpv5cMxkcRsJkzRMTMNPE",52.279524,4.973609
"72","Reigersbos 139, 1107 EW Amsterdam, Netherlands","Slagerij Pouw","ChIJFY0X64gMxkcRCgkMEtlYH3Q",52.2954874,4.9765393
"77","Reigersbos 113, 1107 EW Amsterdam, Netherlands","Kaas Paleis","ChIJD-hG64gMxkcR9z9uRPnXf0s",52.2955771,4.9764945
"79","ArenA Boulevard 1-3, 1101 AX Amsterdam, Netherlands","Official Ajax Fanshop ArenA","ChIJc5HKtJcLxkcR0QSdwjhbVWA",52.313948,4.9404839
"87","Reigersbos 98B, 1107 ES Amsterdam, Netherlands","Cheers","ChIJJVPTlogMxkcRZLBgXgTMgbo",52.2956384,4.9758619
"90","Wisseloord 164-A, 1106 MC Amsterdam, Netherlands","New King Telecom","ChIJmfsnxooMxkcRCXJdqFV9-E8",52.2972687,4.987532
"104","Burgemeester Mulstraat 10, 1109 AP Amsterdam, Netherlands","Retro Baby Shop","ChIJaw-yZKwNxkcRiaDncoXDtms",52.3034581,5.0198342
"111","Gein Noord 62, 1391 HW Abcoude, Netherlands","Kaasboerderij Gein Genoegen","ChIJ-f51MfoMxkcR-3QMu1pnyb0",52.2919713,5.0035084
"113","Sandbergstraat 21, 1391 EK Abcoude, Netherlands","La Maison du Champagne","ChIJN35F47rjxUcRTdCHLrsrRus",52.267986,4.976804
"115","72, Nieuwstad, 1381 CD Weesp, Netherlands","'T HOEKJE","ChIJgUJYuKINxkcR1ckJvHLH_cM",52.3063489,5.0416323
"121","Kuiperbergweg 18, 1101 AG Amsterdam-Zuidoost, Netherlands","Kroon Banden B.V. Amsterdam Zuidoost","ChIJAQBwwJ8LxkcRPrbWgCAmGhw",52.3021842,4.9379791
"124","Klokkenbergweg 3, 1101 AK Amsterdam, Netherlands","Renault en Dacia dealer Arend Auto Amsterdam Zuid-Oost","ChIJcQSMXS0KxkcRP16e9jv0LBc",52.3034175,4.9354285
"130","Kuiperbergweg 38, 1101 AG Amsterdam, Netherlands","Ksd Carpoint, Uw Volkswagen Specialist","ChIJwfghhHULxkcRhhZ0HijONjE",52.3004793,4.9397311
"135","Lemelerbergweg 29 Unit B, 1101 AH Amsterdam, Netherlands","GoldVish International B.V.","ChIJPUzoELYLxkcRmnHOXwj-DPc",52.3040721,4.9397617
"138","Kollenbergweg 78, 1101 AV Amsterdam, Netherlands","Refero Textiel Bedrukken","ChIJX5tD3qELxkcRy7mGnXajOrA",52.3048954,4.9364398
"142","Kollenbergweg 2, 1101 AR Amsterdam, Netherlands","Nawaaz","ChIJO05eUZ8LxkcRcl4K0H9TG9Q",52.3059054,4.9373386
"143","Laarderhoogtweg 20, 1101 EA Amsterdam, Netherlands","Greetz","ChIJaQAgwp0LxkcRIlWY02F73lc",52.3019395,4.9434517
"155","De Entree 59, 1101 BH Amsterdam, Netherlands","Alliance Tire Europe BV","ChIJ4bZ9CmprxEcRXfdzMroDSes",52.3117752,4.9396921
"156","Hoogoorddreef 78, 1101 BG Amsterdam, Netherlands","Klik Electro- en Klimaattechniek","ChIJWTbRCqILxkcRXGxG-vteSh8",52.3075732,4.9369484
"158","ArenA Boulevard 96, 1101 DJ Amsterdam, Netherlands","DFS Villa Arena","ChIJLcv1jpcLxkcRLhJa7eV7C8U",52.3119557,4.9401076
"160","ArenA Boulevard 148, 1101 DJ Amsterdam, Netherlands","Goossens slapen - Amsterdam","ChIJM7GwhugLxkcRxiTGCE4OMhE",52.3119286,4.9400492
"165","Hoogoorddreef 9, 1101 BA Amsterdam, Netherlands","Vloeren Coatings","ChIJtSqKO5oLxkcRRQgxLANCe_s",52.3094517,4.9455368
"166","ArenA Boulevard 101, 1101 DM Amsterdam, Netherlands","Decathlon","ChIJtSJSK_MLxkcRQEAKt6XGh4Q",52.3133836,4.9439654
"167","Bijlmerplein 80, 1102 DA Amsterdam, Netherlands","Cinnabon Amsterdamse Poort","ChIJtfdaNpALxkcR7IyY6LNzdEc",52.3133322,4.9500951
"172","Hoger Einde-Zuid 23, 1191 AH Ouderkerk aan de Amstel, Netherlands","De Haan Cycling","ChIJheHFQPkKxkcRQIXkgOPgFK8",52.2984288,4.9009756
"175","Gelderlandplein 136, 1082 LV Amsterdam, Netherlands","MANGO","ChIJ99YclBEKxkcR4OIMxQ3HrO0",52.3315469,4.8778874
"176","Bijlmerplein 687A, 1102 DZ Amsterdam, Netherlands","Vicky's Beauty Shop","ChIJa1pQX44LxkcR1xgul67zHtA",52.3145454,4.9549227
"177","Berkenstraat 2, 1115 AW Duivendrecht, Netherlands","Set Gear Shop","ChIJXbGvhucLxkcRSfPw2T4k5qU",52.335,4.9423992
"196","Bijlmerplein 401, 1102 DL Amsterdam, Netherlands","Used Products Bijlmer","ChIJa4G0FI4LxkcR5-3X6P_Y35A",52.3151108,4.9538221
"202","Holendrechtplein 2, 1106 LN Amsterdam, Netherlands","De Tabakker","ChIJaVQ1438MxkcRvKwS4jS3Xng",52.3000868,4.9631558
"207","Holendrechtplein 10, 1106 LN Amsterdam, Netherlands","Sahin Islamitische Slagerij","ChIJwYxL4X8MxkcRUlkTxnHL8lM",52.3000796,4.9636397
"213","Heesterveld 73, 1102 SB Amsterdam, Netherlands","Kitchen for fashion","ChIJxenPZ4QLxkcR27l53W_PJYE",52.3067418,4.9543388
"234","Bijlmerplein 863, 1102 ME Amsterdam, Netherlands","Nico's Slagerij & Traiteur","ChIJDUXyUY4LxkcRgkVI1SFcPyw",52.3139132,4.9541076
"239","Hullenbergweg 2, 1101 BL Amsterdam, Netherlands","IKEA","ChIJu0Vo1JwLxkcRhzKUgdqok4E",52.302803,4.949825
"248","Leusdenhof 60, 1108 CV Amsterdam, Netherlands","Taarten van Maureen","ChIJoVFJQmUMxkcRf147etsu7oo",52.30895,4.978673
"264","Leusdenhof 196, 1108 DG Amsterdam, Netherlands","Deekman Woninginrichting","ChIJXYH5GWUMxkcR6P7fsAhjscM",52.3078003,4.9790355
"289","Kralenbeek, 1104 KH Amsterdam, Netherlands","Divine-Hair","ChIJ__8_n3EMxkcRJys6vt0nJbI",52.3140795,4.975107
"293","Treubweg 15, 1112 BA Diemen, Netherlands","SKIPOINT - Ski en Snowboard Shop","ChIJNYkTnggMxkcRjURMYkCDEJM",52.3310317,4.9728628
"295","Bijlmerdreef 1172, 1103 JV Amsterdam, Netherlands","Mobile shop","ChIJoUbFdgsMxkcRE0DN19cLZOw",52.3225564,4.9716514
"297","Hogevecht 228B, 1102 HM Amsterdam, Netherlands","Gracia-bijoux","ChIJqYgQJYYLxkcRPqnymUULZ_I",52.3100872,4.9598197
"300","IJburglaan 559, 1087 BS Amsterdam, Netherlands","Holland & Barrett","ChIJVScsoLkOxkcRLbO-emOzhi4",52.35876,4.989312
"312","Lange Stammerdijk 31, 1109 BL Amsterdam, Netherlands","De Haan Glashandel","ChIJe3oJs1MMxkcREcrA_1Hliow",52.3056176,5.0120015
"339","Slijkstraat 4a, 1381 BA Weesp, Netherlands","Tinustattoos","ChIJReDsdzISxkcRdk0PG8O7AD4",52.3084866,5.0426027
"345","Verrijn Stuartweg 48, 1112 AX Diemen, Netherlands","Drukkerij Van Ravensberg","ChIJSSUliJMJxkcRHGNrQfp4uLg",52.3315169,4.9676764
"351","Amstellandlaan 12, 1382 CE Weesp, Netherlands","Primera Weesp","ChIJ3boUq7sNxkcRu4NJ9NWb6Mw",52.3105154,5.0341818
"352","Atlantisplein 1, 1093 NE Amsterdam, Netherlands","KEYMUSIC Amsterdam","ChIJCzQGsXEJxkcRwQBfft77wGc",52.357661,4.930521
"353","Nieuwstraat 39, 1381 BB Weesp, Netherlands","TopSkincare Organic Beauty Shop & Day Spa","ChIJzZeIjpsNxkcRBw3gF-lvG7E",52.306852,5.042577
"354","Achtergracht 26-30, 1381 BN Weesp, Netherlands","De Kringloper Weesp","ChIJux1_zLwNxkcRH_rnWEgL944",52.3074783,5.0387963
"356","Flevolaan 58, 1382 JZ Weesp, Netherlands","Allwelove.nl","ChIJFbB3pVANxkcR6gJEE7jJYyI",52.3152169,5.0236527
"357","Nieuwstad 42, 1381 CC Weesp, Netherlands","Swatch","ChIJlceu06INxkcRxWSwGrMuf9g",52.3069718,5.0404941
"360","Waldenlaan 129, 1093 NH Amsterdam, Netherlands","Holland & Barrett","ChIJh4sos3EJxkcRLSOE3-W5P8Y",52.3570058,4.9288833
"363","Bijlmerplein 719A, 1102 MA Amsterdam, Netherlands","La Palazzo Coffee & Lunch","ChIJFfVL9o4LxkcR1dbmqJU6rkc",52.314375,4.9550417
"364","Anton de Komplein 157, 1102 DR Amsterdam, Netherlands","Scuba Education Amsterdam","ChIJ-5FTAowLxkcR0lY2fquev5k",52.3154623,4.9582651
"369","70, Bijlmerplein 689-L UNIT 68, 1102 DZ Amsterdam, Netherlands","Agnes Bijoux","ChIJTT7F9o4LxkcRn5y1T2aV9hs",52.3143757,4.9552889
"370","Anton de Komplein 156A, 1102 CW Amsterdam, Netherlands","Gelato Mio","ChIJcSTcSuALxkcR9CMe9ElaiMI",52.315028,4.9577671
"371","1102 CW Amsterdam, Netherlands","Warsi Tel & Computers","ChIJh8eCBPsLxkcRFLn0tbJPtNk",52.3159844,4.9556081
"378","Bijlmerplein 100, 1102 DA Amsterdam, Netherlands","FD-printing center Amsterdam (formerly webdrukdesign)","ChIJayw62pELxkcRrWjgJ1HHqWA",52.3145219,4.950978
"380","1102 DJ Amsterdam, Netherlands","Zaibunissa Slagerij","ChIJQRajX44LxkcRI9DMcAKFXtE",52.314716,4.9548732
"384","Bijlmerplein 555, 1102 DS Amsterdam, Netherlands","Ringfoto de Boer","ChIJs9Q2YY4LxkcRr3Es4_0oNiI",52.3150837,4.9546828
"387","Bijlmerdreef 250A, 1102 AB Amsterdam, Netherlands","DISTUDIOS - Fotografie","ChIJOWqg2Y0LxkcRvJOEQ9JV4y4",52.3164484,4.9542735
"399","Harriët Freezerstraat 106, 1103 JP Amsterdam, Netherlands","Bonita's Cigars BV","ChIJb_o-ewsMxkcRbeBrJBbvaTM",52.3228642,4.9725726
"401","Anna Blamansingel 251, 1102 SX Amsterdam, Netherlands","Pouchi","ChIJWQgsMJILxkcR9o4-OjhRiIU",52.3170957,4.9494275
"411","1101 DJ Amsterdam, Netherlands","Ziggo Shop In Shop Arena","ChIJ7eacYG0LxkcReC5PGWnqifw",52.313161,4.944893
"413","Kruidenhof 2, 1112 PS Diemen, Netherlands","Avondverkoop Diemen","ChIJ0Zgt_foLxkcRY-O5FxXLwmA",52.3345291,4.9579116
"415","Bijlmerplein 355, 1102 DK Amsterdam, Netherlands","TK Maxx","ChIJdTbDOo4LxkcRPfgDlbP9nE0",52.3144019,4.9525338
"418","Amsterdamse Poort, Bijlmerplein 508, 1102 CP Amsterdam, Netherlands","Coffee Fellows","ChIJMVjLaY4LxkcRTRtMu12guNI",52.3149366,4.9539623
"436","Bijlmerdreef 1169 hs, 1103 TT Amsterdam, Netherlands","Beauty & Health Ganzenhoef","ChIJBShFnwwMxkcR1IQU-9ENZYA",52.3221158,4.9732716
"442","Harriët Freezerstraat 107, 1103 JP Amsterdam, Netherlands","Al-Mekka Slagerij","ChIJOWEcewsMxkcRGlPYzs40ztE",52.322892,4.972473
"454","Sniep 77, 1111 AJ Diemen, Netherlands","3dprints.amsterdam","ChIJ93EPVbHjxUcRhBSYIOoCW-E",52.332623,4.9772162
"465","Bijlmerdreef 1188, 1103 JW Amsterdam-Zuidoost, Netherlands","Electronica Ganzenpoort","ChIJbyVJagsMxkcRbJqDkEDNx40",52.3222804,4.9715794
"466","Kruidenhof 10, 1112 PS Diemen, Netherlands","Hengelsport 2000","ChIJmVhAr2YJxkcRAyJoT6Z2Bps",52.3342851,4.9577121
"472","Harriët Freezerstraat 95, 1103 JP Amsterdam, Netherlands","Kay's Shop","ChIJS8MHcQsMxkcRjRrERjuFqvQ",52.3229651,4.9719876
"477","Verrijn Stuartweg 6, 1112 AX Diemen, Netherlands","Monta Juniors","ChIJfTWL4_kLxkcRrE2vrHjDNk0",52.3321711,4.9625854
"480","61b Kruitberghof, 1104 BC, 1104 Amsterdam, Netherlands","Nieuwkoop's Dierenspeciaalzaken","ChIJRYLiom0MxkcR7mr9HyWEqU0",52.316399,4.9774386
"483","Ottho Heldringstraat 31, 1066 AZ Amsterdam, Netherlands","Phone accessory shop","ChIJ4xWxqCDixUcRcJ2gOaeVvI8",52.3486073,4.8326461
"490","Binnenhof 17, 1181 GE Amstelveen, Netherlands","TIMBERLAND Amstelveen","ChIJ8V7OYoAKxkcR4MBbQ_qEiA0",52.3034952,4.8600579
"491","Evert van de Beekstraat 202, 1118 CP Schiphol, Netherlands","Hermès","ChIJIcnESSjhxUcRjv4rZQCS3AI",52.3101481,4.7652264
"492","Gelderlandplein 169, 1082 LW Amsterdam, Netherlands","Holland & Barrett","ChIJQXWy8REKxkcR9_3eGi0vBkM",52.330669,4.875956
"493","Amstelveenseweg 974, 1081 JR Amsterdam, Netherlands","MijnFietsReparatie.nl | Mobiele fietsenmaker bij je op locatie","ChIJo2bQf-DhxUcRTMMSfMF-3W8",52.3256918,4.8571865
"494","Binnenhof 31, 1181 ZH Amstelveen, Netherlands","Foot Locker","ChIJuXlYwoAKxkcRGO5kb7sAzsU",52.3022234,4.8617537
"496","Binnenhof 6J, 1181 ZG Amstelveen, Netherlands","Holland & Barrett","ChIJ-_fAk4AKxkcRF6FqV-vUCdw",52.3029655,4.8613173
"497","Amsterdamseweg 132, 1182 HJ Amstelveen, Netherlands","Braaaf Ruitersport","ChIJS3vTJdLhxUcR6Q3urcbsEpE",52.3096032,4.8471056
"498","Johan Huizingalaan 181, 1065 JA Amsterdam, Netherlands","Bulgaria Shop B.V.","ChIJEazybiXixUcREx65JnoYAVo",52.356992,4.827651
"499","Amsterdamseweg 162, 1182 HK Amstelveen, Netherlands","Bink Cycling","ChIJkfh6kNHhxUcRrW5-3zQ7VrU",52.310778,4.847341
"500","Willemsparkweg 37-41, 1071 GP Amsterdam, Netherlands","Suitsupply Amsterdam","ChIJ_5ad2OQJxkcRohRwD3FtuKU",52.3574718,4.8764852
"501","Surinamestraat 7, 1058 GJ Amsterdam, Netherlands","Coffeeshop De Prijs","ChIJv3tp9w_ixUcRNPZG1hfZ3mQ",52.3579042,4.8540336
"502","Osdorpplein 390, 1068 EV Amsterdam, Netherlands","Holland & Barrett","ChIJv2w23tHjxUcROg80-kCI1T8",52.359499,4.805262
"503","Beethovenstraat 33, 1077 HM Amsterdam, Netherlands","Holland & Barrett","ChIJsVujLPgJxkcRtySsk28oxlA",52.348661,4.877612
"504","Cornelis Schuytstraat 21, 1071 JD Amsterdam, Netherlands","Superdry™","ChIJB6hQkfwJxkcRr48rjrHNZkA",52.3553098,4.8714474
"505","Galerij 152, 1181 ZS Amstelveen, Netherlands","Sunglass Hut","ChIJhSGIhasLxkcRs2s3NArHIgw",52.30404,4.86024
"506","Rembrandthof 27, 1181 ZL Amstelveen, Netherlands","Superdry™","ChIJtxDNZIAKxkcRi2BiIKYYCD4",52.3034221,4.8596542
"507","Jan Pieter Heijestraat 96, 1053 GT Amsterdam, Netherlands","Shop 96","ChIJX3pgzwvixUcROyRPGUq8TaE",52.3635633,4.8632737
"508","Zuidermolenweg 60, 1069 CG Amsterdam, Netherlands","G-Star Outlet","ChIJOc1jI-bjxUcR0fqcbwHxSFM",52.3603924,4.7826102
"509","Koninginneweg 224, 1075 EM Amsterdam, Netherlands","Specsavers","ChIJG2BHjQPixUcRUv1DVa62Xck",52.3517669,4.8568854
"510","Havenstraat 3b, 1075 LA Amsterdam, Netherlands","Kilo Shop","ChIJAQgzXgLixUcR5Yf3T--cHXM",52.3486192,4.8552757
"511","Leidseplein 17, 1017 PS Amsterdam, Netherlands","The Bulldog Souvenir Shop","ChIJZeVR8OgJxkcRlaI2PwwplYQ",52.3639744,4.8833402
"512","Pieter Lastmanweg 1-3, 1181 XG Amstelveen, Netherlands","C&A","ChIJ_WxinYAKxkcRluzDwdeQK88",52.3035442,4.8613543
"513","Binnenhof 61-A, 1181 ZJ Amstelveen, Netherlands","Esprit Store","ChIJZ5t7xIAKxkcR4qP4ye0LJ5c",52.3020921,4.861532
"514","Binnenhof 29, 1181 ZH Amstelveen, Netherlands","Specsavers","ChIJZ33Bv4AKxkcROA3k1sedSAo",52.302155,4.862908
"515","Pieter Calandlaan 17, 1065 KH Amsterdam, Netherlands","Avondwinkel UNO","ChIJYcDN-CTixUcRGt_SnIJVgy8",52.3561311,4.8300694
"516","Kalverstraat 66-72, 1012 PG Amsterdam, Netherlands","ZARA","ChIJ83WkIcEJxkcRqu-3v5A_p0o",52.370956,4.891687
"517","Cornelis Schuytstraat 36, 1071 JK Amsterdam, Netherlands","French Connection","ChIJ7x1MjvwJxkcRGYb8_sS4Ir8",52.354735,4.871274
"518","Evert van de Beekstraat 202, 1118 CP Schiphol, Netherlands","Victoria's Secret terminal 3","ChIJfSCFDCnhxUcRL6cMxr1z_Go",52.3111979,4.7607481
"519","32-34 Leidsestraat Metz Building, 1017 PB Amsterdam, Netherlands","Abercrombie & Fitch","ChIJa0zo7ukJxkcR3tryAQh8izU",52.3662668,4.8867073
"520","Leidsestraat 1-3, 1017 NS Amsterdam, Netherlands","BOSS Store","ChIJI4xu08EJxkcRo6BKnAwLi10",52.3665327,4.8879652
"521","Kinkerstraat 155, 1053 DN Amsterdam, Netherlands","CeX","ChIJtRyQJuAJxkcREPc7Jee0C10",52.3659831,4.8682228
"522","Pieter Cornelisz Hooftstraat 63, 1071 BN Amsterdam, Netherlands","Prada Amsterdam","ChIJDaRpae8JxkcREQTct8DKzmU",52.3603159,4.8813876
"523","Binnenhof 5G, 1181 ZJ Amstelveen, Netherlands","The Body Shop","ChIJS-INw4AKxkcRzYfGV6n0nAY",52.3029538,4.8607002
"524","Winkelcentrum Stadshart Amstelveen, Nieuw Loopveld 14, 1181 ZK Amstelveen, Netherlands","T-Mobile Shop Amstelveen","ChIJTxwCvIAKxkcRVoEijfTgN8c",52.303257,4.8615484
"525","Osdorpplein 805, 1068 TD Amsterdam, Netherlands","C&A","ChIJn185vtHjxUcRrsFOKKMc2jM",52.3585173,4.805107
"526","Pieter Calandlaan 812, 1060 TZ Amsterdam, Netherlands","Easy shop de aker","ChIJQS0nHWDhxUcR0TMujw6mxMI",52.3496519,4.7863435
"527","Stadionweg 291, 1076 PD Amsterdam, Netherlands","Solid","ChIJZ-CW9Uo4ZUERCZPUWC_hcoI",52.3447768,4.8584977
"528","Cornelis Schuytstraat 50, 1071 JL Amsterdam, Netherlands","JOE & THE JUICE","ChIJ0W6ciPwJxkcRwCdU38kynj4",52.3540991,4.8717428
"529","Amstelveenseweg 274, 1075 XW Amsterdam, Netherlands","José Mollura BV","ChIJKaVdPALixUcRnhsUmlL8AZ8",52.3484807,4.8570674
"530","Beethovenstraat 57, 1077 HN Amsterdam, Netherlands","T-Mobile Shop Amsterdam Beethoven","ChIJVeq_JPgJxkcRsa3R-xF2Xm8",52.3478197,4.8772655
"531","Marie Heinekenplein 28, 1072 MH Amsterdam, Netherlands","The Read Shop Express","ChIJh6QgFe0JxkcRPxaTlpKPGzI",52.3571546,4.8917226
"532","Willem Kraanstraat 14, 1063 MG Amsterdam, Netherlands","C&A","ChIJ7Rrj-E3ixUcRdxeRwU6COkY",52.3800448,4.8233424
"533","Johan Huizingalaan 763A, 1066 VH Amsterdam, Netherlands","Wanaka","ChIJubJG4PoJxkcRxYKWUGjT2H8",52.3431438,4.8291689
"534","Korte Leidsedwarsstraat 103, 1017 PX Amsterdam, Netherlands","Internet coffe shop get down","ChIJ6aiqHekJxkcR4z_WlIi67_E",52.3636473,4.8842959
"535","Osdorpplein 373, 1068 EV Amsterdam, Netherlands","Specsavers","ChIJ7SGUEtDjxUcRUyCnMokWv6k",52.3592963,4.8042514
"536","Gelderlandplein 171, 1082 LW Amsterdam, Netherlands","Pingouin Buitenveldert","ChIJc2NNkhEKxkcRirSQb4gLcmA",52.3307007,4.8766713
"537","Binnenhof 4, 1181 ZG Amstelveen, Netherlands","Guess","ChIJOQ4zlYAKxkcRNymW7Ta2IFs",52.302742,4.8615274
"538","Uilenstede 356, 1183 DB Amstelveen, Netherlands","Het Wiel Uilenstede","ChIJNwtLuG0KxkcREgJNqxz8YGQ",52.3210836,4.8745931
"539","Eerste van der Helststraat 11C, 1073 AA Amsterdam, Netherlands","Penny Lane Vintage","ChIJ6QOpUu0JxkcRfWONnBoF_dU",52.3567603,4.8928004
"540","Rembrandthof 55, 1181 ZL Amstelveen, Netherlands","Leonidas","ChIJRa6FZYAKxkcRHmulGbJBjLs",52.3033232,4.8593581
"544","158c, Buitenveldertselaan 1081, 1081 AB Amsterdam, Netherlands","Kaashuis Tromp","ChIJw4lhrAwKxkcRUR3fDvoIGQI",52.3253445,4.8681785
"545","Buitenveldertselaan 176-A, 1081 AC Amsterdam, Netherlands","De Tabakker","ChIJMSQtUnMKxkcR8QLWdsCs1y8",52.3248097,4.8678381
"547","Gelderlandplein 143, 1082 LV Amsterdam, Netherlands","Tabakspeciaalzaak Van Lookeren","ChIJs2IPvhEKxkcR_erM5_Qe2Do",52.3314576,4.8770658
"548","Van Leijenberghlaan 212, 1082 DC Amsterdam, Netherlands","MultiVlaai","ChIJDxuTvxMKxkcRghtdGCHEsF0",52.330918,4.8789137
"549","Gelderlandplein 61, 1081 LV Amsterdam, Netherlands","Leonidas bonbons","ChIJd_xexxEKxkcRwxzQl5Bon0o",52.331832,4.876749
"550","Kastelenstraat 111-A, 1082 EB Amsterdam, Netherlands","Slagerij Marcus","ChIJ6efpr4kJxkcRVkfThL_1Lug",52.325958,4.8786311
"551","Gelderlandplein 52, 1082 LB Amsterdam, Netherlands","Lincherie","ChIJWdjf7REKxkcRFt5FfFPDE2g",52.3308679,4.8761882
"553","Laan van Kronenburg 14, 1183 AS Amstelveen, Netherlands","De Huismeesters","ChIJHTs1ZWwKxkcRte5OzQsd-04",52.3212959,4.8788715
"554","Gelderlandplein 143, 1082 LV Amsterdam, Netherlands","Van Lookeren","ChIJs2IPvhEKxkcRz6wCc9KxnSo",52.331456,4.877076
"555","Uilenstede 314, 1183 DB Amstelveen, Netherlands","SubLub Amstelveen","ChIJkc7y7W0KxkcRwZYXn8Kso5Y",52.320448,4.875602
"556","Gelderlandplein 8, 1082 LA Amsterdam, Netherlands","Pauw","ChIJ3V1Z6xEKxkcR6FtCqIgS4io",52.3311214,4.876566
"557","Gelderlandplein 141, 1082 LV Amsterdam, Netherlands","Bles Concept","ChIJ1SF_mBEKxkcRiDLjen64agg",52.3311657,4.8773228
"558","Van Leijenberghlaan 8H, 1082 GM Amsterdam, Netherlands","Golu Game Point","ChIJ0aTUAREKxkcRMnWoJicut4E",52.3326586,4.878779
"559","Gelderlandplein 135, 1082 LV Amsterdam, Netherlands","Rick Moorman Mannenmode","ChIJ5bBsvhEKxkcRg-ah3oqeWQc",52.3317063,4.8774874
"560","Gelderlandplein 128, 1082 LB Amsterdam, Netherlands","Cotton Club","ChIJI6hPpxEKxkcRkrvtXJcJ6r0",52.3318681,4.8783162
"561","Buitenveldertselaan 158B, 1081 AB Amsterdam, Netherlands","Davids Nasjville","ChIJCR_1rAwKxkcRYmqrPMlNpT4",52.3254743,4.8682211
"563","Parnassusweg 400, 1081 LC Amsterdam, Netherlands","Vascobelo V-bar NoMa House","ChIJ_5KwRnILxkcRBWZiMuM6O4A",52.3367492,4.8682236
"564","Professor J.H. Bavincklaan 2, 1183 AT Amstelveen, Netherlands","Strauss Coffee","ChIJSQhqF03nxUcRLQ4biZA0oTc",52.3178796,4.8729585
"566","Barbara Strozzilaan 336, 1083 HN Amsterdam, Netherlands","Vascobelo V-point Eurocenter","ChIJC4En2FQLxkcRZcVLjr_Stsk",52.3357455,4.8889717
"571","De Boelelaan, 1083 HJ Amsterdam, Netherlands","Elemica International B.V.","ChIJH-Gk8xcKxkcReHgzqxXCEnE",52.3343989,4.8864323
"572","Gelderlandplein 223, 1082 LB Amsterdam, Netherlands","sandwich_","ChIJOf_CRZ4LxkcR0lQqiYXCtNg",52.3316895,4.8765033
"577","Scheldebuurt, 1078 GZ Amsterdam, Netherlands","Butcher shop","ChIJ4eDrhx8KxkcRK_sc9IA_tS8",52.3434685,4.890345
"580","Arent Janszoon Ernststraat 601, 1082 LE Amsterdam, Netherlands","Arie van de Raa","ChIJpU4_ZJ8LxkcRHHnT-zKkU9c",52.3319499,4.8747534
"582","Scheldestraat 37, 1078 GE Amsterdam, Netherlands","coffeecompany","ChIJ9XkQs4oJxkcRgatPlkumv54",52.3465184,4.8912844
"584","Albert Cuypstraat 100, 1072 CX Amsterdam, Netherlands","Kiloshop de Pijp","ChIJVVXhufIJxkcRvUX2txRrOYQ",52.3550846,4.8916282
"588","Scheldeplein 22, 1078 GN Amsterdam, Netherlands","Pisa IJs","ChIJn74Rix8KxkcRUUepGoaE1XA",52.344442,4.8903849
"591","Ferdinand Bolstraat 71-77, 1072 LC Amsterdam, Netherlands","JD Sports","ChIJMcjd6fIJxkcRy4sc5qMELr8",52.3544816,4.8906406
"593","Laan van Kronenburg 14, 1183 AS Amstelveen, Netherlands","Bundol","ChIJs0vKVoELxkcRjvYoab-PnxY",52.3213778,4.8790118
"599","Europaboulevard 17, 1079 KN Amsterdam, Netherlands","Babyshare","ChIJE7WYyYcJxkcRtYeJShzghRs",52.3396911,4.892998
"600","Beethovenstraat 88, 1077 JN Amsterdam, Netherlands","Hartman Cigars & More","ChIJtTphFvgJxkcRvKVMH__C-MI",52.347275,4.876659
"612","Joan Muyskenweg 14, 1096 CJ Amsterdam, Netherlands","Printcetera","ChIJcQSMXS0KxkcRyantgA0I3vE",52.3342699,4.9137355
"619","Ferdinand Bolstraat 114, 1072 LP Amsterdam, Netherlands","Holland & Barrett","ChIJ6UWj3_IJxkcROzEcdb3aNCo",52.353618,4.890724
"624","Van Woustraat 80, 1073 LP Amsterdam, Netherlands","Holland & Barrett","ChIJ_xl-GI4JxkcRi5jNlZq2yC0",52.355265,4.9007939
"640","Maasstraat 144, 1078 HP Amsterdam, Netherlands","Vakprint Amsterdam","ChIJt8cvUwsKxkcRniJq8MlnpSY",52.3431606,4.8961553
"643","Scheldestraat 104, 1078 GP Amsterdam, Netherlands","Isabel The Flower Shop","ChIJrWBB-B8KxkcRpNywU0GFjOQ",52.344959,4.8905692
"646","Van Woustraat 95, 1074 AE Amsterdam, Netherlands","berryshop","ChIJZUbASY4JxkcRFCk9_-xCTVs",52.3544023,4.9017619
"649","Kuipersstraat 55, 1074 EG Amsterdam, Netherlands","Mini Shopping Center of Cool","ChIJ5Wp2BMcJxkcRhHMuWWULa5c",52.353994,4.904479
"652","Ceintuurbaan 117-H, 1072 EZ Amsterdam, Netherlands","O My Bag","ChIJbQ0o6ffhxUcRVJtBK38Q5p0",52.3531302,4.8924554
"653","ground floor, Waverstraat 6, 1079 VL Amsterdam, Netherlands","RebelRelic Electric Guitars Amsterdam","ChIJ7wA9a_IJxkcRd05OKgtRGc8",52.3463416,4.9109723
"654","Europaplein 37, 1078 GV Amsterdam, Netherlands","Pauw BV","ChIJbZj5SSAKxkcRd4VriYa9NrQ",52.34338,4.8918399
"655","Van Woustraat 202A, 1073 NA Amsterdam, Netherlands","Friends & Foes Amsterdam","ChIJu9-4N48JxkcRyA8M7YxZaVY",52.3508895,4.9032426
"658","Amstelvlietstraat 119, 1096 GG Amsterdam, Netherlands","secondhandcamera.nl","ChIJd2aqmtMLxkcRZk4di7qH0lI",52.3380723,4.9202785
"659","Ferdinand Bolstraat 120, 1072 LS Amsterdam, Netherlands","Specsavers","ChIJQ8kNJPMJxkcR1WykpbRJbS8",52.3533187,4.8906703
"669","Verrijn Stuartweg 40, 1112 AX Diemen, Netherlands","WasteBoards BV","ChIJA_47Ri0IxkcR5k42mKBJMcw",52.3314352,4.9675778
"678","Sniep 55, 1112 AB Diemen, Netherlands","Sandalenshop","ChIJ_akPjgUMxkcRef0TlHntb2I",52.3318718,4.9767915
"681","Visseringweg 32, 1112 AS Diemen, Netherlands","Drukkerij Stolwijk B.V.","ChIJAaI-c_gLxkcR7ZPCOZ1N42M",52.3330599,4.9673451
"687","Verrijn Stuartweg 83, 1112 AW Diemen, Netherlands","Basnoe Food","ChIJQQilcAgMxkcRSZprMBWxpHs",52.3311443,4.9703541
"695","Verrijn Stuartweg 73, 1112 AW Diemen, Netherlands","Bandenservice Diemen","ChIJ0_apCwgMxkcROYdOwdGCgRE",52.331423,4.9695612
"699","Visseringweg 40, 1112 AT Diemen, Netherlands","Pixel Palace Design B.V.","ChIJ29RB8wcMxkcR7tTI6_Zrtgg",52.3328028,4.9683305
"700","Stammerhove 1, 1112 VA Diemen, Netherlands","Claudia Sträter Hoofdkantoor","ChIJ81vtPhoMxkcRldyIMCx-1IE",52.3325601,4.9863495
"701","Verrijn Stuartweg 42, 1112 AX Diemen, Netherlands","Holland Optical Company B.V.","ChIJIUoSAggMxkcRIkkRvLRmtFg",52.3312252,4.9679803
"703","Verrijn Stuartweg 40, 1112 AX Diemen, Netherlands","Stichting Broedplaats Fenix","ChIJa0TW_vcLxkcRqAtqQpvMzq4",52.3314699,4.9675802
"705","Piersonstraat 11-15, 1112 AV Diemen, Netherlands","Meubelstoffeerderij Hillebrink","ChIJxeVlEfgLxkcRwczhN42HYio",52.332601,4.967133
"708","7, Burgemeester de Kievietstraat, 1111 GJ Diemen, Netherlands","Saf Souf","ChIJXUqDnv4LxkcRSRDKDlAVEMc",52.3388243,4.9628972
"711","Insulindeweg 478, 1094 MH Amsterdam, Netherlands","The Read Shop","ChIJ014wcGwJxkcRQRawhfVm6Io",52.3613819,4.9395968
"712","Middenweg 32, 1097 BP Amsterdam, Netherlands","Coffeecompany","ChIJtYrcg3oJxkcRIJqaKAYWsLs",52.3543542,4.9293707
"714","Linnaeusstraat 20, 1092 CK Amsterdam, Netherlands","All the Luck in the World","ChIJDyOHunYJxkcRV1s0biW1nyw",52.359243,4.925553
"719","Pedro de Medinalaan 89, 1086 XP Amsterdam, Netherlands","Kartell Shop Amsterdam","ChIJBYqvbLUOxkcRtwNv9w7ddKA",52.3622286,4.9753854
"720","Land van Cocagneplein 14-16, 1093 NB Amsterdam, Netherlands","Specsavers Amsterdam East Gate","ChIJWRRx5nAJxkcRZW_ziNYzTDs",52.3567279,4.9281658
"721","Slimmeweg 12A, 1066 EV Amsterdam, Netherlands","Dutch4green B.V - Urben Garden shop Amsterdam","ChIJ9X2Cl2ThxUcRu7jObKv_SZQ",52.343292,4.795759
"723","Hageland 107 109, 1066 SB Amsterdam, Netherlands","Keurslagerij Nieuw Sloten","ChIJPU2f0YHhxUcRqk_woffhvWw",52.3456722,4.8118856
"725","Sloterweg 1051, 1066 CD Amsterdam, Netherlands","Truck Care Amsterdam","ChIJeTejp3nhxUcRQ1KN2B4Xiyo",52.3408895,4.8061073
"728","Professor R. Casimirstraat 64, 1068 SK Amsterdam, Netherlands","Kitesurfschool COREkitesurf.nl","ChIJP7dI4tTjxUcRRz4O8vIPBm4",52.3516223,4.8100765
"730","Pieter Calandlaan 228-F, 1069 LA Amsterdam, Netherlands","Avondwinkel Calandlaan","ChIJgVylMtjjxUcRJ_UY5EfCwjA",52.351908,4.798062
"734","Sloterweg 89, 1171 CH Badhoevedorp, Netherlands","Foto & CD Shop Halsema","ChIJERlO1VzhxUcR2sVSjNjRUWw",52.3396758,4.7808053
"735","Osdorpplein 690, 1068 TC Amsterdam, Netherlands","Vitaminstore Osdorpplein shoperade","ChIJLwza3NHjxUcRr6uPUyZJM5E",52.3591898,4.8054036
"736","Vrije Geer 3, 1066 EG Amsterdam, Netherlands","Repairshop Amsterdam","ChIJVUrUm2ThxUcRGJCXs1qa45Q",52.343272,4.7953782
"737","Langsom 20, 1066 EW Amsterdam, Netherlands","Hal20design shop Pode en Koozo","ChIJSdgkjCzhxUcR5FDdofTTkII",52.342702,4.794941
"739","Osdorpplein 122, 1068 EN Amsterdam, Netherlands","T-Mobile Shop Amsterdam","ChIJ9y31_dHjxUcRbJbx_Op_Sqk",52.3596311,4.8065225
"740","Johan Huizingalaan 336, 1065 JP Amsterdam, Netherlands","Avondwinkel Ankido","ChIJW__kDSbixUcRWGBkCwrZagM",52.3528542,4.8270282
"741","Wolbrantskerkweg 112A, 1069 DA Amsterdam, Netherlands","Little Haakshop","ChIJtzWzrdvjxUcRsSYH7Ixaws8",52.354975,4.798448
"742","Johan Huizingalaan 186, 1065 JJ Amsterdam, Netherlands","Dirck III","ChIJVWfFeyXixUcRNgEGEfUWfis",52.3565824,4.8268788
"744","Hoekenes 9, 1068 ML Amsterdam, Netherlands","Adam Shop","ChIJK6B3PsXjxUcRJI1H9smm9Aw",52.3611739,4.7986187
"748","Evert van de Beekstraat 5, 1118 CL Schiphol, Netherlands","Montblanc","ChIJuT3SSijhxUcRBhmpaP7OQ7s",52.3104194,4.7649628
"749","Pelikaanstraat 51 a, 1171 DG Badhoevedorp, Netherlands","The Yarn Barn - creatief met garen","ChIJOb_6m2fhxUcRiKA589QT5xI",52.3416232,4.7852338
"750","Osdorperweg 31, 1066 EH Amsterdam, Netherlands","Office Consign B.V.","ChIJm-jToiTgxUcR3-giUDZ3zZA",52.342687,4.7970295
"751","Tussen Meer 96, 1069 DS Amsterdam, Netherlands","CAS-Computers","ChIJEfBMntvjxUcRTsgReIa2VjA",52.357341,4.794871
"752","Tussen Meer 102, 1069 DS Amsterdam, Netherlands","The Bridal Closet","ChIJs76PyeQIxkcRqGZol6r4Aec",52.357067,4.793322
"753","Osdorpplein 654, 1068 TC Amsterdam, Netherlands","Vodafone shop","ChIJjSp43NHjxUcRhyc7-HL_hlQ",52.3593464,4.8051007
"757","Hoekenes 13, 1068 ML Amsterdam, Netherlands","123 Fietswinkel","ChIJAR3HPsXjxUcRrtjwpuv1_h8",52.3610125,4.7986943
"760","Johan Huizingalaan 179, 1065 JA Amsterdam, Netherlands","Little India","ChIJm7S5biXixUcRa6ctgdHIHNU",52.3570634,4.8276356
"761","Jan Rebelstraat 2, 1069 CB Amsterdam, Netherlands","NachtShop AmsterDam","ChIJ4YGN_OfjxUcR8IwDKTA4kO4",52.3601877,4.7865792
"762","Slotermeerlaan 125A, 1063 JN Amsterdam, Netherlands","Serhan Night Shop/slijterij","ChIJH5iNfVLixUcR-aAT30iG3Os",52.3808033,4.8207562
"763","Sierplein 46, 1065 LN Amsterdam, Netherlands","Casa Deli","ChIJoxzbYS_ixUcRDxWb9keYLcg",52.3550608,4.8260903
"764","Osdorper Ban 108, 1068 MK Amsterdam, Netherlands","Rene's Doe Het Zelf Shop","ChIJdcdNG8XjxUcRCYJrYSc3m0Y",52.3619992,4.7979736
"765","Osdorpplein 669, Units 1, 1068 TC Amsterdam, Netherlands","Sanvir Toko","ChIJPStD5NHjxUcRAB7hEmoEQeg",52.3590484,4.8050035
"766","Akersluis 6, 1066 EZ Amsterdam, Netherlands","Liefde & Ambacht Amsterdam","ChIJ4Zp4W2ThxUcRx63YLo69MzY",52.3424716,4.7934958
"767","Tussen Meer 4, 1068 GA Amsterdam, Netherlands","Dirck III Osdorp","ChIJZbZ5OtDjxUcRsvsYnzorzuU",52.3589219,4.8027452
"771","Joop van Weezelhof 7, 1063 MK Amsterdam, Netherlands","Holland & Barrett","ChIJBXNX9E3ixUcRDWoJ_NUJPi0",52.380128,4.822439
"776","Pieter Cornelisz Hooftstraat 121, 1071 BS Amsterdam, Netherlands","Dsquared2 Store | Amsterdam","ChIJEc1hn-UJxkcRsAvZkQzUVb4",52.3595269,4.8784301
"777","Vertrekpassage 203, 1118 AV Schiphol, Netherlands","Suitsupply","ChIJgzNeOyjhxUcRP9O0_HC0mV4",52.3101549,4.7622987
"779","Jan Evertsenstraat 89 wkl, 1057 BS Amsterdam, Netherlands","T's","ChIJfbAYDW3ixUcRTRYKX_t61iE",52.3705228,4.8539701
"782","Haarlemmerweg 506, 1014 BL Amsterdam, Netherlands","KingCoffee","ChIJKXicV_HhxUcR8_9kTNdlD9Y",52.341502,4.8438341
"800","Postjesweg 106 bg, 1057 EG Amsterdam, Netherlands","Amsterdamse Fietswinkel","ChIJZ2bOahLixUcR4ZYzFpBVfL4",52.3644417,4.8527952
"807","Zeilstraat 40, 1075 SJ Amsterdam, Netherlands","Kokkes Avondverkoop","ChIJi6nmEgPixUcRB3GfzuOr_Js",52.3509889,4.8541984
"818","Heemstedestraat 24, 1058 NM Amsterdam, Netherlands","Schoenmakerij Majoor","ChIJ0_x2ZBzixUcR0gHNLpL1QGM",52.3517649,4.8483382
"819","Kinkerstraat 190-192, 1053 EL Amsterdam, Netherlands","Holland & Barrett","ChIJU5qLmgrixUcRkIGhcSoKU3E",52.365978,4.867112
"822","Jan Pieter Heijestraat 129, 1054 ME Amsterdam, Netherlands","Loenatix Shop","ChIJxTG6hQnixUcR3_KfIRSrj2c",52.3621624,4.8644979
"823","Amstelveenseweg 61II, 1075 VV Amsterdam, Netherlands","Basjoe 2","ChIJJW8zXwTixUcRgZlwcIkCF6w",52.3539459,4.8559165
"824","Overtoom 396 398, 1054 JS Amsterdam, Netherlands","Fabricati the furniture shop","ChIJa1RGtAnixUcRZWCFpi87IY0",52.3603332,4.8649629
"825","Kanaalstraat 62, 1054 XK Amsterdam, Netherlands","The Tonic Herb Shop","ChIJT4fg_mVvxkcROyewU8i9CBw",52.3626483,4.8647501
"826","Koninginneweg 141, 1075 CM Amsterdam, Netherlands","Chocolaterie ArtiChoc","ChIJr4YZPQfixUcRmJ4aIzkJY4U",52.3530879,4.8632591
"830","Zeilstraat 25, 1075 SB Amsterdam, Netherlands","Photobrandstore Solleveld","ChIJTRMnlwPixUcR9Bw2Gy-g0L4",52.3509202,4.8550143
"831","Hoofddorpweg 27, 1059 CT Amsterdam, Netherlands","The Cow Project","ChIJf6ArxxzixUcRQY44G0lx33k",52.3509312,4.8507011
"832","Kinkerstraat 251, 1053 ER Amsterdam, Netherlands","The Body Shop","ChIJQ2HEVQrixUcRaYfxf7nKbOU",52.365173,4.8646403
"833","Pieter Cornelisz Hooftstraat 111, 1071 BR Amsterdam, Netherlands","Michael Kors","ChIJB1bmm-UJxkcRfHJ3cxwFQds",52.35963,4.8788769
"836","Pieter Cornelisz Hooftstraat 24-28, 1071 BX Amsterdam, Netherlands","G-Star RAW Store","ChIJWf6eJu8JxkcR9pmrhJlj_DE",52.3610399,4.8830232
"839","Pieter Cornelisz Hooftstraat 94, 1071 CC Amsterdam, Netherlands","HERMÈS Amsterdam Store","ChIJC7QNhuUJxkcReAh82M1Ngl4",52.3601769,4.8798792
"840","Overtoom 431, 1054 KE Amsterdam, Netherlands","Midi Amsterdam","ChIJpy0EyQjixUcRierAu4XE0zs",52.3588229,4.8602271
"842","Stadionplein 250, 1076 CK Amsterdam, Netherlands","STACH Food","ChIJ9zE61f7hxUcR_EOvlw7nyvw",52.344107,4.8572942
"866","Helicopterstraat 4, 1059 CG Amsterdam, Netherlands","Autobanden Schinkel","ChIJQxefUvHhxUcRy_jvyh4EOnE",52.3419616,4.8445107
"867","Fred. Roeskestraat 115 c/o Epicenter, 1076 EE Amsterdam, Netherlands","Ananda Digital Technologies B.V.","ChIJ61yLqqzhxUcRILWunvB4_Go",52.3406297,4.858677
"870","Hoofddorpplein 23, 1059 CW Amsterdam, Netherlands","Nuts & Delights","ChIJOytE8hzixUcRAia_tRp0PSo",52.3509393,4.8491818
"873","Koninginneweg 129, 1075 CL Amsterdam, Netherlands","Lichtstudio van der Hee by Robbert Amsterdam","ChIJw7weawfixUcRSCv_T41Jqms",52.3533937,4.8640876
"885","Beethovenstraat 15, 1077 DR Amsterdam, Netherlands","Vandyck Experience Store Winkel","ChIJR3581_kJxkcRXoEWmze70XI",52.349343,4.877814
"890","86-88, Leidsestraat, 1017 VM Amsterdam, Netherlands","JD Sports","ChIJz7XxU-gJxkcRMgVTqv3DuL0",52.3648503,4.8838205
"891","Hendricksz Jacobsstraat, 1075 PH Amsterdam, Netherlands","De Snelle Slijter: De Biertaxi Van De Toekomst","ChIJk7_nGgHixUcR0zi0mX3aSq8",52.350155,4.861181
"893","Pieter Cornelisz Hooftstraat 136, 1071 CE Amsterdam, Netherlands","Paul Smith","ChIJhymRoeUJxkcRbCOFt5kGBYE",52.35975,4.87814
"894","Marathonweg 15, 1076 SX Amsterdam, Netherlands","Unknown Menswear","ChIJSX-rTADixUcR8afIm4RMlEg",52.3484104,4.8614565
"896","Leidsestraat 78, 1017 PD Amsterdam, Netherlands","Sunglass Hut - Leidsestraat","ChIJW7kssukJxkcRB1E0XGpJN1M",52.3652867,4.884766
"897","Kalverstraat 117, 1012 XB Amsterdam, Netherlands","Esprit","ChIJcWqFSsAJxkcRoe6pu-Mnn5U",52.3693571,4.891197
"899","Kalverstraat 172, 1012 XE Amsterdam, Netherlands","Mango Man","ChIJ1eBStMEJxkcRgkHXz_-pSr0",52.368339,4.8912618
"900","32-34 Leidsestraat Metz Building, 1017 PB Amsterdam, Netherlands","abercrombie kids","ChIJM8xiPEsJxkcRJhneG2RZ-8E",52.3662668,4.8867073
"901","Zuidplein 10, 1077 XV Amsterdam, Netherlands","Starbucks","ChIJKcZLagQKxkcRhJRSA5rKCb4",52.3396101,4.8731287
"902","Strawinskylaan 1149, 1077 XX Amsterdam, Netherlands","Sparkweave International","ChIJDaPOlwQKxkcR6olr74V1PZQ",52.3400295,4.8748208
"903","1077 XV Amsterdam, Netherlands","NS Tickets & Service","ChIJibM_-QQKxkcRvsRB-1uSK4U",52.3386465,4.8732901
"910","Beethovenstraat 84, 1077 JN Amsterdam, Netherlands","coffeecompany","ChIJC9EQFvgJxkcRLGqfce1sovE",52.34738,4.8766799
"912","Olympiaplein 111, 1077 CV Amsterdam, Netherlands","L'Amuse","ChIJqZ_U1QEKxkcRD0G_sP9Ria4",52.3462898,4.8680939
"914","Strawinskylaan 1131, 1077 XX Amsterdam, Netherlands","Bulgari International Corporation","ChIJbcDPkQQKxkcR52-RV4u6PKw",52.340354,4.874111
"917","Parnassusweg 851, 1081 LC Amsterdam, Netherlands","CoffeeConcepts Zuidas","ChIJY3uMEbMLxkcR_U2Itq6Rm50",52.3359112,4.8690898
"927","Beethovenstraat 103, 1077 HW Amsterdam, Netherlands","I Do I Do Amsterdam Luxury Bridal & Evening wear","ChIJgdX5d-ULxkcRhPgap-IXd2A",52.3455638,4.8768777
"929","Beethovenstraat 68, 1077 JL Amsterdam, Netherlands","Pauw","ChIJcwttOvgJxkcRml6GVGv23QA",52.3480362,4.8767629
"933","Beethovenstraat 40, 1077 JJ Amsterdam, Netherlands","IJscuypje","ChIJDb39zvkJxkcRZbkEoW3JnTI",52.3492406,4.8771049
"934","Ceintuurbaan 252, 1072 GH Amsterdam, Netherlands","studio JUX + co. flagship store","ChIJgezo-W0JxkcRStXY61MlqEk",52.3524094,4.8898065
"943","Beethovenstraat 28, 1077 JH Amsterdam, Netherlands","Lincherie","ChIJbYJQ2PkJxkcRwrKdR-jYueI",52.349604,4.877381
"950","Ferdinand Bolstraat 94, 1072 LN Amsterdam, Netherlands","Vodafone shop","ChIJK_sS6fIJxkcRv3icd6IMs5Y",52.3544034,4.8903259
"954","Ceintuurbaan 224HS, 1072 GE Amsterdam, Netherlands","MoneyGram","ChIJqWCBn_MJxkcRD8mkx5thbE4",52.3522573,4.8884766
"956","Beethovenstraat 82, 1077 JM Amsterdam, Netherlands","Pauw Luxury Denim","ChIJ6y5LPPgJxkcRkV-36eRduMI",52.3476167,4.8767384
"958","Leidsestraat 14, 1017 PA Amsterdam, Netherlands","Lush","ChIJR3N3G8EJxkcRPYvtQR6PvcY",52.366585,4.887425
"959","P.C. Hooftstraat 46, 1071 BZ Amsterdam, Netherlands","Mulberry Amsterdam Store","ChIJ6VTMP-8JxkcRjhL69WAeT1g",52.3607333,4.8819854
"960","Ceintuurbaan 266, 1072 GJ Amsterdam, Netherlands","Wereldwinkel Amsterdam","ChIJd9S_PfMJxkcRGv2u3K3PWW4",52.3525223,4.8905605
"970","Maasstraat 144, 1078 HP Amsterdam, Netherlands","Lijstenmakerij - Lijstenmaker - Inlijsterij","ChIJTdub2iAKxkcRCdkNu7RLy8c",52.3432038,4.8961766
"971","Maasstraat 22, 1078 HK Amsterdam, Netherlands","Kaashuis Tromp","ChIJzWv-ZooJxkcRh8IPwHo--Q8",52.3465242,4.8948565
"975","Scheldestraat 68, 1078 GM Amsterdam, Netherlands","Venetië IJs","ChIJRxGuASAKxkcR910Cb0Nse5o",52.3457325,4.8906926
"979","Maasstraat 98, 1078 HM Amsterdam, Netherlands","Zwiers & Zonen","ChIJcUMVlCAKxkcRzPGavrCuQQU",52.3442505,4.8952291
"980","Maasstraat 23, 1078 HB Amsterdam, Netherlands","Danny's Bike Shop","ChIJqZGgRYoJxkcRwYgntthmmPM",52.3472084,4.8953863
"981","Uiterwaardenstraat 171, 1079 CL Amsterdam, Netherlands","DrBeyk & De Mobiele Fietsenmaker","ChIJ-XG-ticKxkcR51C2rN7p0Wk",52.342785,4.90153
"988","Van Woustraat 243, 1074 AS Amsterdam, Netherlands","Avondwinkel Van Wou","ChIJ06g2pIgJxkcRwJ7ysw8w1rE",52.3494748,4.9043235
"991","Van der Helstplein 11, 1073 AR Amsterdam, Netherlands","The String Guitar Shop","ChIJmyccjIwJxkcRpOo-p98aGpo",52.3517231,4.8950821
"997","Maasstraat 7, 1078 HA Amsterdam, Netherlands","LIJSTENMAKERIJ inlijsterij LIJSTENMAKER VAN AMSTERDAM Art framer","ChIJkYVkTooJxkcRbxhKg2QPJ9Y",52.347581,4.8954475
"998","Trompenburgstraat 22, 1079 TX Amsterdam, Netherlands","Kringloopwinkel","ChIJvXkQ3CkKxkcRl9Z3aLEQ1-8",52.3444037,4.9084936
"999","Victorieplein 8-24, 1078 PD Amsterdam, Netherlands","DirckIII Victorieplein","ChIJR446dogJxkcR3a17u48H8Vg",52.3469473,4.9047565
"1000","Vrijheidslaan 98, 1078 PS Amsterdam, Netherlands","Suit Inc.","ChIJGdac4IcJxkcRSJ9xRy8HLlg",52.3464155,4.9045015
"1002","Ceintuurbaan 264A, 1072 GJ Amsterdam, Netherlands","Basic mobile","ChIJI8UJPvMJxkcRWJwTzs3HiCk",52.352526,4.89044
"1003","Van Woustraat 242, 1073 NC Amsterdam, Netherlands","Foto Booms","ChIJd6DZuogJxkcRHM3Zcnxg8kY",52.3494626,4.9037572
"1008","Ferdinand Bolstraat 43, 1072 LB Amsterdam, Netherlands","Foot Locker","ChIJw4HkmfIJxkcRw_3J7FG1-OI",52.3555512,4.8905993
"1009","Rijnstraat 123, 1079 HB Amsterdam, Netherlands","Moeder Natuur Voeding","ChIJWSlUNigKxkcRMOfpoxRhCOc",52.3436855,4.9064616
"1012","Ceintuurbaan 200, 1072 GC Amsterdam, Netherlands","Quick Lists","ChIJC6dylvMJxkcRzbdl4yrQRpg",52.3521063,4.8875379
"1014","Ceintuurbaan 39, 1072 ET Amsterdam, Netherlands","The Natural Special Vitamin Shop B.V.","ChIJf4Y7ofMJxkcRPt8JqmriYTY",52.3525893,4.8884589
"1015","Albertcuyp Straat 262, 1073 BE Amsterdam, Netherlands","Albertcuyp Gift Shop","ChIJPydzGpIJxkcRzoj0EOulldc",52.3567706,4.8986304
"1016","Utrechtsestraat 99, 1017 VK Amsterdam, Netherlands","Carhartt WIP","ChIJsWsFP5QJxkcRSSBo91-VmHs",52.3627027,4.8988911
"1021","Mr.Treublaan 18, 1097 DP Amsterdam, Netherlands","coffeecompany","ChIJT2ueqoEJxkcRm-cjH2oTNeI",52.347303,4.914348
"1023","Amstelvlietstraat 1, 1096 GG Amsterdam, Netherlands","Wattbike Benelux","ChIJXYcZktMLxkcRjgbDGc8t-qQ",52.3381246,4.9203695
"1027","Julianaplein 1, 1097 DN Amsterdam, Netherlands","Starbucks","ChIJK4fYhX8JxkcRnmEQGyN8QM4",52.3464775,4.9179861
"1028","Julianaplein 4, 1097 DN Amsterdam, Netherlands","Brazuca Coffee Amstel","ChIJkZOQoi0JxkcRn-WpLfQO2-s",52.3462098,4.9192996
"1031","James Wattstraat 71, 1097 DL Amsterdam, Netherlands","Bax Music","ChIJRdtPQXkJxkcRxILRE8-j6bg",52.3503052,4.9232525
"1043","Rijnstraat 58B, 1078 CH Amsterdam, Netherlands","YoYo's Ice Corner","ChIJqbDB3IcJxkcRlsz8xbuvP4Y",52.3465831,4.9048884
"1045","Uiterwaardenstraat 108, 1079 CG Amsterdam, Netherlands","Tabaksshop Lydia","ChIJU9YjsykKxkcRkjBqTS_5cBE",52.3430283,4.907031
"1046","1097 HN Amsterdam, Netherlands","Shop","ChIJs7iMN3wJxkcRWlEIQWlgiYo",52.3473647,4.9258639
"1048","Prins Bernhardplein, 1097 BK Amsterdam, Netherlands","CBD Care","ChIJj81QxBcJxkcROzbn_u342L4",52.3484191,4.9180508
"1061","1091 PN Amsterdam, Netherlands","Canoepolo.Shop","ChIJP_dYi4IJxkcRiVcKQFwYCsg",52.352752,4.917036
"1065","Rusthofstraat 37, 1097 NP Amsterdam, Netherlands","I AM BAZAAR","ChIJE8RP5n0JxkcROkE5Z_Xa7i0",52.3452408,4.9246128
"1067","Beukenplein 14, 1092 KG Amsterdam, Netherlands","Coffee Bru","ChIJd2X8c50JxkcRNsQhx9GbK18",52.3570875,4.9176981
"1068","Utrechtsestraat 82, 1017 VR Amsterdam, Netherlands","Holland & Barrett","ChIJ0QbHQJQJxkcRFSmyJGEqmEU",52.362803,4.898716
"1069","Tolstraat 88, 1073 SE Amsterdam, Netherlands","PowerPremiums","ChIJtW9RGY8JxkcRVKwhIGvTUrQ",52.3519739,4.9023322
"1074","Transvaalstraat 3, 1092 HA Amsterdam, Netherlands","Cheap Bike Shop","ChIJ3YyrfvQLxkcR5WofN8AMv2o",52.3555734,4.9275183
"1078","Waldenlaan 126A, 1093 NH Amsterdam, Netherlands","CeX","ChIJ2y2bwnAJxkcRmPLzESGQCbU",52.3569841,4.9294549
"1080","Nieuwezijds Voorburgwal 182 1, 1012 SJ Amsterdam, Netherlands","MANGO","ChIJnVxV0MYJxkcRRX1r5PBs--M",52.373621,4.890468
"1082","Duivendrechtsekade 87-88, 1096 AJ Amsterdam, Netherlands","Drukkerij Jacobson B.V.","ChIJM6NvFtwLxkcRAEWMZYLgJMQ",52.3372619,4.9368449
"1083","H.J.E. Wenckebachweg 49B, 1096 AK Amsterdam, Netherlands","GK Print & Sign","ChIJnxG-2tYLxkcRbK-prRt-WP0",52.3397,4.9258151
"1084","Rijksstraatweg 9, 1115 AG Duivendrecht, Netherlands","Biby's Bakery","ChIJ_TejsMQLxkcRWN1J7LoNAZo",52.334963,4.94215
"1094","Joop Geesinkweg 901, 1114 AB Amsterdam, Netherlands","Hoofdkantoor AKO","ChIJUcFGHQUKxkcRnSWvoutsuF8",52.335182,4.9346391
"1095","Middenweg 161, 1098 AL Amsterdam, Netherlands","Hyro Sports Amsterdam","ChIJA7VtV2QJxkcR71v0oZ9Vocs",52.35107,4.935208
"1097","Christiaan Huygensplein 2HS, 1098 RB Amsterdam, Netherlands","Tabakzaak Het Hoekje","ChIJ3fXrrWYJxkcRf7K9jF5zAVs",52.3491236,4.9386619
"1104","Middenweg 49, 1098 AC Amsterdam, Netherlands","Primera","ChIJA8dgnHoJxkcRvwZ35z3DBNI",52.354312,4.929963
"1105","Pieter Braaijweg 73, 1099 DK Amsterdam, Netherlands","Online Drone kopen","ChIJpfTXxM4LxkcRWIvIwuFnMlY",52.3289947,4.9234795
"1109","Land van Cocagneplein 46, 1093 NB Amsterdam, Netherlands","Vitaminstore Oostpoort","ChIJ97vo53AJxkcRXz68tp--4NU",52.3568111,4.9286542
"1110","Jupiter 204, 1115 TM Duivendrecht, Netherlands","Lilo Gifts","ChIJQyY6t8QLxkcR4hFUbrX55AY",52.3324365,4.9337371
"1111","Oudemanshof 3a, 1097 LK Amsterdam, Netherlands","Qift.Shop","ChIJNbVzcRwJxkcR3fgl9UNfx9U",52.3452875,4.9343714
"1113","Kamerlingh Onneslaan 1097, 1097 DE Amsterdam, Netherlands","At the ParQ","ChIJ72BsBXsJxkcRnH4zj-gm5-Y",52.3513635,4.9289951
"1114","Middenweg 79, 1098 AE Amsterdam, Netherlands","IJscuypje Middenweg","ChIJkSXRNGUJxkcR8Jlu628I-jQ",52.35298,4.9321909
"1128","Carolina MacGillavrylaan 1424, 1098 XA Amsterdam, Netherlands","ReCycle Science Park","ChIJxd4-40IJxkcRMmo9XdIAe9Y",52.355703,4.9487556
"1133","Javastraat 77, 1094 HB Amsterdam, Netherlands","Fred's Tobacco Shop","ChIJE-JWw6I5ZUER9vUGGaF6qQw",52.3638803,4.9346622
"1134","Zeeburgerdijk 55, 1094 AA Amsterdam, Netherlands","The Macbook Pro Stickers Shop","ChIJzed2tREJxkcRJicn6jQyzNw",52.3662518,4.9348174
"1141","Maroastraat 14, Amsterdam, Netherlands","Nicopure Labs B.V.","ChIJN3UMgv7jxUcR9iBDfRbEJZ0",52.3556432,4.765687
"1142","Hoofdweg Oostzijde 16B, 1175 LA Lijnden, Netherlands","Duikcentrum Moby Dick","ChIJBXCu18VlxkcRPGSaucg3kL0",52.3514217,4.7643442
"1144","Akerdijk 14, 1175 LE Lijnden, Netherlands","tools shop","ChIJ8UidikLhxUcRKboXOt1F9Ek",52.352882,4.761897
"1145","New Yorkstraat 3, 1175 RD Lijnden, Netherlands","Cheese Factory Volendam B.V.","ChIJYc2ZFlXhxUcRnCRD850nmuM",52.3491158,4.7607952
"1146","Maroastraat 22, Amsterdam, Netherlands","MY WORK","ChIJ9VHHFfzjxUcR5PUDq5QPQgA",52.3546466,4.7677604
"1148","San Franciscostraat 60, 1175 RE Lijnden, Netherlands","Drukkerij Anderson","ChIJoSMYOFXhxUcRtky5vY6G0F0",52.349623,4.759515
"1149","Melbournestraat 3, 1175 RM Lijnden, Netherlands","Voortman Keukens","ChIJ3b559XjhxUcR7Ndowc_6H2c",52.3495758,4.7669325
"1150","Madridstraat 13, 1175 RK Lijnden, Netherlands","A&A Glashandel","ChIJlSoKhlXhxUcRYJWs9DTvlCQ",52.3507362,4.762974
"1151","Madridstraat 11, 1175 RK Lijnden, Netherlands","Glashandel de Schinkel BV","ChIJ69f4hVXhxUcRvUq8CUzI_x8",52.3503688,4.7631845
"1152","Maroastraat 22, Amsterdam, Netherlands","Curvature","ChIJNe3GFfzjxUcRkNLNzEQu0A8",52.3551005,4.7677773
"1156","Dijkgraafplein 32, 1069 EW Amsterdam, Netherlands","Primera Dijkgraafplein","ChIJm_KzWOfjxUcR1AAL3OZJoUI",52.3560969,4.7865092
"1157","Sydneystraat 18, 1175 RN Lijnden, Netherlands","Autobedrijf Nieuwendijk Renault & Dacia Badhoevedorp","ChIJ9YX6AlfhxUcRWTzOA2UZeZM",52.347544,4.768447
"1158","Akerdijk 117 A, 1175 LK Lijnden, Netherlands","Bandorama BV","ChIJI9IRkFfhxUcR4pk9a2O3YRQ",52.3480297,4.7710758
"1162","14H, Jan Rebelstraat, 1069 CC Amsterdam, Netherlands","Two Wheels Service","ChIJD_fpJlLixUcRHDQ8ESL9i9A",52.3611394,4.7865177
"1164","Sloterweg 218-220, 1171 CX Badhoevedorp, Netherlands","Ottenhoff Engines","ChIJuzVPzHTixUcRRB8rpU9Y6tY",52.3354488,4.7759242
"1171","Jan Rebelstraat 26, 1069 CC Amsterdam, Netherlands","KwikFit Amsterdam-Osdorp","ChIJbac7YujjxUcRvLvKn_-WRjs",52.3615951,4.7845082
"1179","Osdorper Ban 56, 1068 MJ Amsterdam, Netherlands","Avondwinkel Atacan","ChIJPxzXfsXjxUcRew-Ht0Rpza0",52.3623558,4.8004839
"1182","Ookmeerweg 416, 1069 CG Amsterdam, Netherlands","Praxis Bouwmarkt Amsterdam Osdorp","ChIJr586H-bjxUcR5q1NxHBZTek",52.360572,4.782618
"1183","Pieter Calandlaan 800, 1060 TZ Amsterdam, Netherlands","V.O.F. De Kaasspecialist Dukaat","ChIJoR5_HWDhxUcR5OvkeY6NGwc",52.3497989,4.7870839
"1189","Dennenlaan 65, 1161 CL Zwanenburg, Netherlands","IJssalon ijspret","ChIJMbZfDm7kxUcRuOQdpsTs7BY",52.3784571,4.7495096
"1190","Ookmeerweg 416, 1069 CG Amsterdam, Netherlands","Arrow","ChIJE7QcMubjxUcRGmefNjkSTVM",52.3598527,4.7835148
"1191","Lambertus Zijlplein 27, 1067 JR Amsterdam, Netherlands","Terre des Hommes shop Amsterdam","ChIJC0TyV7rjxUcRvTzDRYVoyUQ",52.3784597,4.8011569
"1195","Randweg F-pier, 1118 CP Schiphol, Netherlands","Vizzit","ChIJxeR2S9jgxUcREZ8EBHcYQoY",52.3123573,4.7620837
"1196","Keurenplein 41, 1069 CD Amsterdam, Netherlands","PerfectBody.nl","ChIJx4-dPUYRxkcRbnvGVkKmmes",52.3601649,4.7847127
"1197","Osdorpplein 406, 1068 EV Amsterdam, Netherlands","The Butcher Palace","ChIJ4XdxL9DjxUcRtu-0NaEbgC4",52.3593167,4.8029153
"1198","Jan Rebelstraat 2, 1069 CB Amsterdam, Netherlands","B&T DESIGN","ChIJ4R6W_OfjxUcRXUB0_2hSF3A",52.3601919,4.7867341
"1199","Bos en Lommerplein 120, 1055 EK Amsterdam, Netherlands","Holland & Barrett","ChIJ57uZY2jixUcRRSVaY3mHlmA",52.378416,4.846473
"1200","Lorentzplein 49a, 1171 BB Badhoevedorp, Netherlands","De Lekkerste Apotheek","ChIJfZ0ONkPhxUcR9feUMIezKMM",52.3391158,4.7786296
"1204","Tussen Meer 315, 1069 DR Amsterdam, Netherlands","Avondwinkel & Slijterij Tussenmeer","ChIJwZVyj9vjxUcRpO-vegoRL7o",52.3567416,4.7938556
"1207","Langswater 41, 1069 TR Amsterdam, Netherlands","Ratan Leather Jacket Shop","ChIJrUTJZhvjxUcRag81ZB-M-dU",52.3537111,4.7908502
"1209","Langswater 199, 1069 TS Amsterdam, Netherlands","Nitin Furit Store","ChIJxfNSosfjxUcRXW_JwGJmOBw",52.3546081,4.7905005
"1210","Langswater 199AA, 1069 TS Amsterdam, Netherlands","Titu Medical House","ChIJgTpZm97jxUcRjE7AgNzc3HA",52.3546081,4.7905005
"1213","Keurenplein 4, 1069 CD Amsterdam, Netherlands","Van Werkhoven Drukkerij B.V.","ChIJ2d_ffejjxUcRxPkFTL7uQ_s",52.3609027,4.7838743
"1221","Pieter Calandlaan 228G, 1069 LA Amsterdam, Netherlands","BarCan","ChIJgVylMtjjxUcR-sVf3OjJ1Vo",52.351719,4.7974806
"1222","Pieter Calandlaan 798, 1060 TZ Amsterdam, Netherlands","Keurslager Post","ChIJi_zoit_jxUcRFnFwuO91YLI",52.3498691,4.7872395
"1228","Langswater 199AA, 1069 TS Amsterdam, Netherlands","Jogi Bag Shop","ChIJgTpZm97jxUcRQ8gs17GW8yU",52.3546081,4.7905005
"1229","Ecuplein 60, 1060 RN Amsterdam, Netherlands","HOLY! PANTY!","ChIJJ1l3YFThxUcREhOQp-VZM38",52.3492167,4.7854361
"1234","Tussen Meer 331, 1069 DR Amsterdam, Netherlands","Verona Gelati","ChIJZw2pdtzjxUcRLYuRSL4vN_Y",52.3565365,4.7928277
"1241","Osdorpplein 720, 1068 TC Amsterdam, Netherlands","Osdorper Slagerij Westmarket","ChIJL_KL3NHjxUcRxkYdsjp2bGk",52.3591831,4.8049722
"1248","Johan Hofmanstraat 60, 1234 AB Amsterdam, Netherlands","Sloopauto ophalen Amsterdam | opkoper van auto's","ChIJS2xixtnjxUcRxkjIIyP5BcM",52.3527053,4.7979807
"1252","Osdorpplein 667-668, 1068 TC Amsterdam, Netherlands","Pink Diamond","ChIJjz4J5NHjxUcRadNuRuenQlY",52.3590663,4.8049885
"1254","Tussen Meer 64, 1068 GC Amsterdam, Netherlands","De Linnenboom","ChIJGQ65dNDjxUcRHzUeta42K7g",52.3584938,4.8005408
"1257","11, Keurenplein, Amsterdam, Netherlands","Smartphone Factory","ChIJD1_IfujjxUcRv_x24koTYuc",52.3607761,4.7844092
"1262","Professor R. Casimirstraat, 1068 KC Amsterdam, Netherlands","Gamer's Dream","ChIJ9dqspmrjxUcRPfOvOPBYiBE",52.351912,4.8082037
"1276","Osdorpplein 630, 1068 TB Amsterdam, Netherlands","CIGO John & Wim","ChIJPz4Kw9HjxUcR5aiTMj96xZA",52.3589,4.8040658
"1284","Tussen Meer 56, 1068 GC Amsterdam, Netherlands","MultiVlaai","ChIJcasgE9DjxUcR6W51BO2Tkgs",52.358655,4.8012627
"1291","Louis Bouwmeesterstraat 18, 1065 KW Amsterdam, Netherlands","Slagerij Idsinga Amsterdam","ChIJgU0g7C7ixUcR2SrneEk9LhI",52.35542,4.821568
"1299","Osdorpplein 815, 1068 TD Amsterdam, Netherlands","Design Meubel Tasarim","ChIJx5Xfkw_jxUcRw0ypGm40TMw",52.3587465,4.805756
"1303","Osdorpplein 125, 1068 SR Amsterdam, Netherlands","Kungfu Milk Tea","ChIJUzBb49HjxUcRHTImJdJ_j2A",52.3593626,4.8060951
"1305","Jan Evertsenstraat 337, 1061 XT Amsterdam, Netherlands","Bike Shop West","ChIJj0CbeUDixUcRbD7JiAidb-k",52.3691375,4.839069
"1310","August Allebéplein 22, 1062 AC Amsterdam, Netherlands","Eethuis Burcu","ChIJMVqeKTzixUcRly4s9SWhja8",52.3635698,4.8370672
"1313","Burgemeester Rendorpstraat 11-15, 1064 EL Amsterdam, Netherlands","Looiedet Coffee & Toast","ChIJ5RCA2UjixUcRsA2BlR7_4Yk",52.3739982,4.8265332
"1320","Admiraal de Ruijterweg 462, 1055 NG Amsterdam, Netherlands","H shop Amsterdam","ChIJh2QVHGXixUcR6Xs4YsbRpos",52.384117,4.8481442
"1326","Maassluisstraat 2, 1062 GD Amsterdam, Netherlands","De Huismeesters","ChIJn3diryHixUcR8ESllsKqThU",52.3511146,4.8359704
"1331","Fashion House, Kon. Wilhelminaplein 8, 1062 HK Amsterdam, Netherlands","Alchemist Fashion","ChIJx1M7ZyLixUcRO3mtBq4SfYY",52.3552961,4.837933
"1342","Kon. Wilhelminaplein 13, 1062 HL Amsterdam, Netherlands","hartman textiles","ChIJW5oH7BjixUcRbCdDAwJyK_s",52.354554,4.841338
"1364","Mercatorplein 1, 1057 BX Amsterdam, Netherlands","Eddy's Bikeshop","ChIJzYgq0WzixUcR6aWahkiY69g",52.368975,4.851369
"1368","Kon. Wilhelminaplein 8, 1062 HK Amsterdam, Netherlands","Stellasstyle","ChIJPWCZYCLixUcRLufLCbIVzFw",52.3554646,4.8378412
"1376","Jan van Galenstraat 110, 1056 CE Amsterdam, Netherlands","Ohm The Miracle Shop Amsterdam","ChIJyYZhwtHjxUcR5vqy_0c5T4M",52.3749837,4.8598422
"1379","Kon. Wilhelminaplein 13, 1062 HH Amsterdam, Netherlands","LOFTY MANNER","ChIJOUD_6xjixUcRDCS83lsZf90",52.3545451,4.8413582
"1381","Warmondstraat 120, 1058 KZ Amsterdam, Netherlands","Caffènation Amsterdam","ChIJ1QrPqRvixUcRD5U-WFCujbE",52.354728,4.8492719
"1382","Warmondstraat 198, 1058 LC Amsterdam, Netherlands","Slagerij Aladdin","ChIJI5LogxzixUcRLa4zRoFKDHo",52.3522926,4.8493308
"1384","Aalsmeerweg 8, 1059 AJ Amsterdam, Netherlands","New Amsterdam Tattoo Studio","ChIJ_8b6lYvixUcRgqwv5_LPcnk",52.3506574,4.8493276
"1385","Heemstedestraat 28, 1058 NM Amsterdam, Netherlands","Charlotte's Haarmode","ChIJVxM1ZBzixUcRoA4YPNrE_aI",52.3517728,4.8481249
"1388","Zeilstraat 29/3, 1075 SB Amsterdam, Netherlands","Pietpraliné","ChIJCTdiCwPixUcRR_jgEuiu4XQ",52.350888,4.8548419
"1394","Amstelveenseweg 218, 1075 XT Amsterdam, Netherlands","IJscuypje Amstelveenseweg","ChIJd3c3lwPixUcRDQhCz3qhL3k",52.3511813,4.8564919
"1396","Bonairestraat 78, 1058 XL Amsterdam, Netherlands","Boerejongens Coffeeshop BIJ Amsterdam","ChIJL6IUEw7ixUcRlys6eB46GW8",52.3620517,4.8554721
"1397","Zeilstraat 8, 1075 SG Amsterdam, Netherlands","Van der Laan","ChIJMVOangPixUcR8s2GBvWzFDY",52.3513801,4.855611
"1398","Haarlemmermeerstraat 29hs, 1058 JN Amsterdam, Netherlands","El Flaco Tattooz","ChIJBTjbjxrixUcRTZNdGxldHbg",52.3570076,4.850536
"1401","Zeilstraat 64, 1075 SK Amsterdam, Netherlands","Bagels & Beans","ChIJwyRQOAPixUcRpyvrCRbI-6w",52.3510012,4.8529019
"1406","Paramaribostraat 18, 1058 VL Amsterdam, Netherlands","Baarsjes Avondverkoop","ChIJUW6pzQ_ixUcRQw7hbTgkl8M",52.3601626,4.8545642
"1417","Hoofddorpplein 7, 1059 CV Amsterdam, Netherlands","De Kaasspecialist","ChIJ60zOyubjxUcRSy86rTbcuKM",52.350914,4.850149
"1418","Overtoom 476-478, 1054 JZ Amsterdam, Netherlands","Avondwinkel Overtoom","ChIJIc_xzwjixUcRsvvOeYfM4cY",52.3593372,4.8609178
"1420","Amstelveenseweg 88-90, 1075 XJ Amsterdam, Netherlands","KwikFit Amsterdam Oud-Zuid","ChIJKSnvFgXixUcR6J_KLjuzNEc",52.3557454,4.8546027
"1423","Tweede Schinkelstraat 3, 1075 TN Amsterdam, Netherlands","Frissebips (geopend op afspraak)","ChIJX8i_8f8JxkcRMd9Jgj_ssH0",52.3534447,4.8553949
"1424","Bennebroekstraat 35, 1058 LK Amsterdam, Netherlands","Vila Güell Personal Shopping Styling Visagie Sara","ChIJFX_p9xvixUcRDKh5P-KD_60",52.3527336,4.8465272
"1426","Jan Pieter Heijestraat 119-A, 1054 MD Amsterdam, Netherlands","Trakteren","ChIJdSk9gQnixUcRJmrH5B12-Ks",52.362585,4.864273
"1433","Amstelveenseweg 79, 1075 VW Amsterdam, Netherlands","Toverknol","ChIJo4sUXX7jxUcRuEVcKc5utL0",52.349763,4.8515549
"1434","Amstelveenseweg 3, 1054 MB Amsterdam, Netherlands","Sticky Fingers","ChIJqZeMZAXixUcRBnJqURET2iQ",52.3572322,4.8553535
"1437","Koninginneweg 220I, 1075 EL Amsterdam, Netherlands","DasGaaf","ChIJq_Y-8wPixUcRgN756yAM87w",52.3518284,4.8571187
"1442","Johannes Verhulststraat 107, 1071 MX Amsterdam, Netherlands","IJsboutique","ChIJq2-DYvwJxkcRWnGF6hT6h5U",52.3543455,4.8721617
"1445","Johannes Verhulststraat 98, 1071 NK Amsterdam, Netherlands","van Avezaath-Beune","ChIJAVoCfvsJxkcRdP3FEcl6bjQ",52.3546504,4.8723057
"1446","Cornelis Schuytstraat 41-43, 1071 JE Amsterdam, Netherlands","SUISTUDIO Amsterdam","ChIJFe6HsOQJxkcR7tit6pLPwcU",52.3546935,4.8718781
"1447","Apollolaan 138/140, 1077 BG Amsterdam, Netherlands","Issimo","ChIJ4azLVPkJxkcRE0s_yPID1_I",52.3513967,4.8719473
"1448","Cornelis Schuytstraat 37, 1071 JE Amsterdam, Netherlands","Braez","ChIJpYN0hfwJxkcRE03678fR1C0",52.35482,4.871788
"1449","Johannes Verhulststraat 33, 1071 MR Amsterdam, Netherlands","Gentle Exclusive Gifts","ChIJn9_lHvsJxkcRJr7xtSJ69VA",52.3552402,4.875614
"1450","Willemsparkweg 153, 1071 GX Amsterdam, Netherlands","Nico van der Laan Photo Shop","ChIJSygFufwJxkcRzcaWISGbcqI",52.3560247,4.871324
"1452","Willemsparkweg 117, 1071 GW Amsterdam, Netherlands","Becker Antiques","ChIJadgSVvsJxkcRdm-nwJFDYf0",52.3564881,4.8730391
"1455","Van Baerlestraat 20, 1071 AX Amsterdam, Netherlands","THE SOCIETY SHOP","ChIJs6cSCOUJxkcRXgaLoa3l79o",52.3592902,4.8775057
"1459","Cornelis Schuytstraat 13, 1071 JC Amsterdam, Netherlands","Closed Shop Women","ChIJc95-lfwJxkcRMPGpgYZHR5c",52.3556413,4.8712034
"1464","Pieter Cornelisz Hooftstraat 119, 1071 BS Amsterdam, Netherlands","DIESEL Amsterdam PC Hooftstraat Store","ChIJ-bUDn-UJxkcRYUQl7Sx4_i8",52.3595514,4.8785114
"1467","Van Baerlestraat 118h, 1071 BC Amsterdam, Netherlands","Amsterdamse Fietswinkel","ChIJQW2KNqkJxkcRF7F9s0LFXio",52.3553502,4.8801624
"1470","Van Baerlestraat 48, 1071 AZ Amsterdam, Netherlands","Pauw","ChIJLUCzVuUJxkcR1pUo1zuIo6E",52.3582903,4.8781832
"1477","Pieter Cornelisz Hooftstraat 82, 1071 CB Amsterdam, Netherlands","Guess","ChIJQ6dmYe8JxkcRvegC_BHrabA",52.360283,4.8804667
"1479","Van Baerlestraat 9-11, 1071 AM Amsterdam, Netherlands","FOUR Amsterdam","ChIJn6KzP7s5ZUERgdjInA0arao",52.3598047,4.8776125
"1480","Koninginneweg 6, 1075 CX Amsterdam, Netherlands","Tonka Benelux","ChIJu9NVav0JxkcRBR1goA2b7wk",52.3556632,4.867477
"1485","Pieter Cornelisz Hooftstraat 125, 1071 BS Amsterdam, Netherlands","Tommy Jeans","ChIJEWCqoeUJxkcRGY5gZy-S0aY",52.3594793,4.8782089
"1487","Leidsestraat 19, 1017 NT Amsterdam, Netherlands","Palladium Boots","ChIJIVWV8OkJxkcRIGL6RkGwwdQ",52.3662363,4.8873092
"1489","Pieter Cornelisz Hooftstraat 101, 1071 BR Amsterdam, Netherlands","TOMMY HILFIGER Amsterdam Store","ChIJZ_U5m-UJxkcRpkykZdrY2vY",52.3597661,4.8793321
"1490","Pieter Cornelisz Hooftstraat 62, 1071 CA Amsterdam, Netherlands","Jimmy Choo","ChIJvYubae8JxkcRYm1Bxu9OHTM",52.3605145,4.8812928
"1491","Van Baerlestraat 18, 1071 AW Amsterdam, Netherlands","American Vintage","ChIJQck3z6oJxkcRSLRecA2PDJY",52.3594772,4.877399
"1492","Pieter Cornelisz Hooftstraat 62, 1071 CA Amsterdam, Netherlands","P.C. HOOFTSTRAAT","ChIJaUM0heUJxkcR9DyM2RUYCuE",52.360504,4.881294
"1494","Beethovenstraat 40A, 1077 JJ Amsterdam, Netherlands","Dunkin' Donuts","ChIJ_5_tzvkJxkcRs5mnBODcMGY",52.3491748,4.87707
"1496","Pieter Cornelisz Hooftstraat 115, 1071 BS Amsterdam, Netherlands","Marina Rinaldi Amsterdam","ChIJOfe7nuUJxkcRUL4Yf2mspFE",52.359589,4.8786938
"1497","Leidsestraat 30, 1017 PB Amsterdam, Netherlands","New Balance Amsterdam","ChIJg_qj-ukJxkcRxJpv9wockiE",52.366411,4.8870118
"1499","Leidsestraat 89-91, 1017 NZ Amsterdam, Netherlands","The Body Shop","ChIJ1YBpVOgJxkcRSKwU7YrAtvg",52.364693,4.883958
"1501","Sarphatipark 24, 1072 PB Amsterdam, Netherlands","NOT Not Only Tinto","ChIJ00vWGI0JxkcR2GJJtgy8-9A",52.353741,4.8941059
"1502","Van Ostadestraat 147, 1072 SW Amsterdam, Netherlands","Massimo Gelato","ChIJT49L8IwJxkcRWhqlI5a5H68",52.352627,4.894616
"1504","Ceintuurbaan 352, 1072 GP Amsterdam, Netherlands","Cups & Zo","ChIJW7Wg44wJxkcRAoZoscixncU",52.3530688,4.894429
"1505","Sarphatipark 1, 1073 CN Amsterdam, Netherlands","Bierbaum","ChIJY6MOP40JxkcRjsIR-bFQJIY",52.3546165,4.8938225
"1506","Ferdinand Bolstraat 113H, 1072 EW Amsterdam, Netherlands","JOE & THE JUICE","ChIJpc3UMrwJxkcRG9F9Muue3xo",52.3529771,4.8913111
"1508","Eerste Jan van der Heijdenstraat 116, 1072 VB Amsterdam, Netherlands","The Temple | Power Rituals","ChIJoQbJKo0JxkcRURxgC_CJcVY",52.3535494,4.8922492
"1509","Eerste Jan Steenstraat 109, 1072 EG Amsterdam, Netherlands","NINOUR","ChIJs4nkzvIJxkcRalzjgQ9cuOI",52.3543597,4.8917633
"1511","Eerste van der Helststraat 66, 1072 NZ Amsterdam, Netherlands","Cosy Coffee Bar","ChIJ3VWKSI0JxkcRjnfL9sxMg8c",52.3549248,4.8931952
"1512","Ferdinand Bolstraat 90, 1072 LN Amsterdam, Netherlands","ONLY","ChIJIbRa3fIJxkcRZQoxXthR0Ts",52.354587,4.890239
"1516","Ceintuurbaan 270, 1072 GJ Amsterdam, Netherlands","Supermarket Royal XL","ChIJU5k5PPMJxkcRbnXQzJ77LMA",52.3525402,4.8906439
"1520","Ferdinand Bolstraat 168, 1072 LT Amsterdam, Netherlands","Big en Belg","ChIJGaeWTvMJxkcRwBHpss9BbKM",52.3517446,4.8912087
"1521","Albert Cuypstraat 184, 1073 BL Amsterdam, Netherlands","Budget Souvenirs","ChIJk3SMfY0JxkcR6Rf9VUhhj5U",52.3558877,4.8954674
"1523","Albert Cuypstraat 89, 1072 CP Amsterdam, Netherlands","Matcha Bar","ChIJUf43vPIJxkcRacwsR9T6y2s",52.355243,4.891137
"1525","Ceintuurbaan 81, 1072 EW Amsterdam, Netherlands","bedroom Amsterdam","ChIJwc7rF_MJxkcRtqZYZH2bWO4",52.3528885,4.8903604
"1526","Ferdinand Bolstraat 25, 1072 LB Amsterdam, Netherlands","Primera","ChIJqwyZnvIJxkcR3hgEDYf6c0c",52.3559822,4.8907051
"1527","Gerard Doustraat 71, 1072 VM Amsterdam, Netherlands","Scotch & Soda","ChIJa2UUpPIJxkcRKuFDaqUzbf8",52.3557456,4.891439
"1528","Eerste van der Helststraat 74HS, 1073 VX Amsterdam, Netherlands","SETS AMSTERDAM","ChIJcz30R40JxkcR7tYoXdsjTfo",52.354758,4.893338
"1529","Albert Cuypstraat 86, 1072 CX Amsterdam, Netherlands","Islamic butchery Bades","ChIJZ4dvvvIJxkcRL02AOSVjnRk",52.3549997,4.8911152
"1530","Ferdinand Bolstraat 44H, 1072 LL Amsterdam, Netherlands","Café Blond","ChIJ-_j6nPIJxkcR4RY4IqZnBG0",52.3560132,4.8903867
"1532","Henrick de Keijserstraat 18, 1073 TH Amsterdam, Netherlands","Fietsenmakerij Love Cycle","ChIJi6sLF4wJxkcRm69fHAjlmFc",52.352172,4.8973023
"1535","Ferdinand Bolstraat 10, 1072 LJ Amsterdam, Netherlands","the cake of my aunt","ChIJYbXybO0JxkcRpyoj-eGEp2I",52.3572897,4.8905401
"1536","Albert Cuypstraat 187, 1073 BD Amsterdam, Netherlands","Thrift Shop Amsterdam","ChIJMadCK3kJxkcRi6VyrwMEboI",52.3559326,4.8947619
"1537","Ferdinand Bolstraat 53, 1065 XL Amsterdam, Netherlands","Dunkin’ Donuts","ChIJ-St4b7EJxkcRkZ7_uHXRWB4",52.3551665,4.8906573
"1538","Ceintuurbaan 248, 1072 GG Amsterdam, Netherlands","Sea Sick Surf Shop","ChIJ7S3xUMUJxkcR-9Bq54rsGgA",52.352475,4.889712
"1541","Quellijnstraat 90, 1072 XX Amsterdam, Netherlands","Fietswinkel Heinekenplein","ChIJQVdpW-0JxkcRn9OlfOy8tmI",52.3566616,4.8915161
"1542","Van Woustraat 16-HS, 1073 LL Amsterdam, Netherlands","Me Gorgeous","ChIJKRnA9ZEJxkcRXuzNH2zQkJQ",52.3568973,4.8994314
"1546","Albert Cuypstraat 240, 1073 BP Amsterdam, Netherlands","Lunchcafé Bozz","ChIJOZ9-cpIJxkcRaaEOajUK-pM",52.3565848,4.897904
"1547","Albert Cuypstraat 198-A, 1073 BL Amsterdam, Netherlands","Hachi.ink","ChIJyf3Yf40JxkcRJcbbXEdI_Qg",52.355964,4.8958185
"1548","Gerard Doustraat 74, 1072 VV Amsterdam, Netherlands","Lois Galería Uno","ChIJr6G5pPIJxkcRjUSt9WUsXnA",52.3555411,4.8914049
"1549","Gerard Doustraat 103A, 1073 VS Amsterdam, Netherlands","Ugga","ChIJ_0gLqJIJxkcR8a_lImPkgUc",52.356152,4.8934824
"1550","Albert Cuypstraat 225, 1073 BG Amsterdam, Netherlands","The Hair & Body Shop","ChIJh-zZe5IJxkcR-UtZHeQi7WM",52.3563621,4.8964361
"1551","Ceintuurbaan 17, 1072 NK Amsterdam, Netherlands","Apples Fix","ChIJj0L-vfMJxkcR3oCNdegYsMw",52.352351,4.887471
"1552","Ceintuurbaan 416, 1074 EA Amsterdam, Netherlands","Schiffmacher and Veldhoen","ChIJPe7VM44JxkcReiXuS89AVAc",52.3548527,4.9020175
"1553","Eerste Sweelinckstraat 14, 1073 CM Amsterdam, Netherlands","Kaassie-Kaassie","ChIJ-URLcpIJxkcRJ41O0pAi1VE",52.356324,4.8973984
"1554","Gerard Doustraat 942, 1072 VX Amsterdam, Netherlands","ANNA + NINA Store","ChIJrWVtrPIJxkcRw1Ibx2VziSw",52.3557426,4.892298
"1556","Ferdinand Bolstraat 139, 1072 LG Amsterdam, Netherlands","Kelly's Expat Shopping","ChIJM2ygeTQJxkcRs9vv5HoeJfE",52.3518162,4.8915622
"1558","Van Woustraat 18, 1073 LL Amsterdam, Netherlands","Vape Shop Amsterdam Van Wou","ChIJC-isISgJxkcRzJcKV8pmA5Q",52.356844,4.8994609
"1563","Beukenplein 6, 1091 KG Amsterdam, Netherlands","Primera","ChIJ67l3DJ0JxkcRVn_wKojpf6c",52.3574428,4.9175782
"1564","Wibautstraat 7, 1091 GH Amsterdam, Netherlands","coffeecompany","ChIJiXkCqpsJxkcRbLKfbm_UuVM",52.3580381,4.9102996
"1569","Wibautstraat 109h, 1091 GL Amsterdam, Netherlands","IJscuypje","ChIJMe4kfngJxkcRcLuNKYGBf-M",52.355985,4.911965
"1574","Eerste Oosterparkstraat 176, 1091 HJ Amsterdam, Netherlands","Avondwinkel Uno Oost","ChIJa0ai8ZwJxkcRjwJZbpE8Mi8",52.3573183,4.9149894
"1575","Eerste Oosterparkstraat 7, 1091 GT Amsterdam, Netherlands","Van Velze's Chocolaterie Amsterdam","ChIJu6Hsy5oJxkcRZ7z9YzvLMq8",52.355789,4.907945
"1576","Beukenplein 5, 1091 KC Amsterdam, Netherlands","the ijsboefje","ChIJu4MOdJ0JxkcR9Oiba_J1IWw",52.3575575,4.9181254
"1577","GV, Eerste Oosterparkstraat 451, Amsterdam, Netherlands","SpeakEasy coffeeshop","ChIJWWrQ0JoJxkcRSimOVWLnx58",52.3559803,4.9088671
"1578","Eerste Oosterparkstraat 33, 1091 GT Amsterdam, Netherlands","Velespit","ChIJ75zYYZsJxkcRpUw8LOOoyr4",52.3558987,4.9084137
"1579","Beukenplein 15 H, 1092 BA Amsterdam, Netherlands","Arti Plus","ChIJp3Ohcp0JxkcR0-zKdcqrlDg",52.357242,4.91844
"1581","Overamstelstraat 117, 1091 TM Amsterdam, Netherlands","Kmarie Cards","ChIJxXiWxIMJxkcRm9pE7in0GyI",52.3506535,4.9137687
"1587","Ruyschstraat 90-hs, 1091 CG Amsterdam, Netherlands","Winkel GOED - goedvantoen.nl","ChIJu749eJsJxkcR_NLgmrlOXnw",52.357874,4.912139
"1589","Weesperzijde 73-2h, 1091 EH Amsterdam, Netherlands","Master of the House design","ChIJJ25W7oQJxkcRc5nJHoVp8OE",52.3535499,4.9098775
"1591","1091 SV Amsterdam, Netherlands","DSGN Collectables","ChIJuS_d-oQJxkcRIhxocx_Bg2g",52.353333,4.909444
"1592","Tolstraat 186, 1074 VN Amsterdam, Netherlands","The ShoeCare-Shop | Office","ChIJBaGJjukJxkcR6HQ8go-p_n0",52.35288,4.906798
"1596","Plantage Kerklaan 33, 1018 CV Amsterdam, Netherlands","IJscuypje Plantage","ChIJ23BwZaIJxkcRS-xC_NhSH28",52.3668173,4.9119023
"1597","Utrechtsedwarsstraat 86, 1017 WH Amsterdam, Netherlands","Barber HIS Premium Barbershop Amsterdam Herenkapper Barbier Baardkapper Scheerwinkel","ChIJ-26JausJxkcR9o-1qIxsiBU",52.3615323,4.8997073
"1606","Staalstraat 3, 1011 JJ Amsterdam, Netherlands","Circus Shop Amsterdam","ChIJaU4ZvL8JxkcR_6hUWuC4_88",52.3683359,4.8969498
"1607","Nieuwe Kerkstraat 12-HS, 1018 EA Amsterdam, Netherlands","Souvenir Shop Duivis","ChIJed-zVZYJxkcRU6HkOp2KjXw",52.3637802,4.9037921
"1608","Pieter Aertszstraat 92, 1073 ST Amsterdam, Netherlands","Lijstenmakerij van Westerloo","ChIJExqKBI8JxkcRUUNdcF6_mQU",52.35251,4.902505
"1610","Van Woustraat 163, 1074 AK Amsterdam, Netherlands","Wine and Roses","ChIJid8CDo8JxkcRJB7ON6_82R8",52.3523222,4.9031731
"1612","Hudson's Bay, Rokin, 1012 GL Amsterdam, Netherlands","Paperchase","ChIJ10ffAwQJxkcRzDBgzv9NTag",52.3712773,4.8947143
"1613","Utrechtsestraat 145, 1017 VM Amsterdam, Netherlands","Essentiel Antwerp - Women and Men","ChIJzWndB5QJxkcRvJ1BLWaosS4",52.3612457,4.8994302
"1614","Staalstraat 26, 1011 JM Amsterdam, Netherlands","O Shop Amsterdam","ChIJsV3DRr4JxkcRV_lLMgTHukM",52.3681148,4.8980868
"1617","Heiligeweg 49-51, 1012 XP Amsterdam, Netherlands","AllSaints","ChIJtbksxcEJxkcROWKd3ttVtpM",52.367454,4.8903679
"1619","Kalverstraat 175, 1012 XB Amsterdam, Netherlands","G-Star RAW Store","ChIJX5_ezU8JxkcRAaCjkBi3VJg",52.3682325,4.8915862
"1621","Middenweg 125, 1098 AK Amsterdam, Netherlands","Adviesbureau A.J. Kemmenaar","ChIJG0KcHWUJxkcRBqi9BuihFlQ",52.3517934,4.9340556
"1627","Waldenlaan 206, 1025 PX Amsterdam, Netherlands","ONLY","ChIJ3XuzFPEIxkcRChkN8N6jIRM",52.3568996,4.9302344
"1634","Wakkerstraat 13, 1097 CB Amsterdam, Netherlands","Slagerij De Wit","ChIJ99dcfXoJxkcReM9JKulsZ18",52.3540022,4.9288075
"1635","Helmholtzstraat 37, 1098 LD Amsterdam, Netherlands","Tabakspecialist Kantoor en Schrijfwaren Sproet","ChIJea4EnGYJxkcRSO5hWaKvD1g",52.3505522,4.93853
"1636","Middenweg 45, 1098 AC Amsterdam, Netherlands","Gewoon Kaas","ChIJhxvdnHoJxkcRwQ1Zh8Nnszc",52.3543871,4.9297973
"1639","Eerste Van Swindenstraat 207, 1093 GB Amsterdam, Netherlands","T-Mobile Shop Amsterdam","ChIJC8wmfnQJxkcRY7I9S2I2qNs",52.3626579,4.9267829
"1641","Land van Cocagneplein 5, 1093 KS Amsterdam, Netherlands","Biolicious","ChIJuYBP4XAJxkcROIfV2nAwGqg",52.356962,4.9284471
"1642","Linnaeusstraat 76HS, 1092 CN Amsterdam, Netherlands","The Italian Bistrò Project","ChIJnTZG23AJxkcRDeEKxuhMokE",52.356719,4.9271354
"1643","Fraunhoferstraat 10HS, 1098 LR Amsterdam, Netherlands","Carmen & Co","ChIJQa-uOGQJxkcR-KQt1EFCad0",52.3506345,4.9365478
"1645","Waldenlaan 208, 1093 NH Amsterdam, Netherlands","Het Faire Oosten","ChIJ07skTHAJxkcRspuSGjbZLp8",52.3569067,4.9304453
"1649","Dapperstraat 281, 1093 BS Amsterdam, Netherlands","Abra Bike Shop","ChIJfQEJlnMJxkcRAfI7HgHXG2E",52.3616312,4.9284452
"1650","Linnaeusstraat 77, 1093 EK Amsterdam, Netherlands","Tabakshop Linnaeus","ChIJ9ekLp3YJxkcRGB77t5ruzL0",52.3599396,4.9257203
"1653","Pieter Nieuwlandstraat 95, 1093 XN Amsterdam, Netherlands","FietsKliniek","ChIJx2Kgq3MJxkcRbk3XoSO7kNc",52.3623118,4.930087
"1654","Middenweg 31 BG, 1098 AB Amsterdam, Netherlands","WAAR Amsterdam Middenweg","ChIJndcc5JsNxkcR9wZGgbk12So",52.354662,4.929467
"1655","Javastraat 23, 1094 KM Amsterdam, Netherlands","Hartje Oost","ChIJj0aJlXIJxkcRYOufPBsPUxw",52.363726,4.932521
"1656","Helmholtzstraat 32I, 1098 LK Amsterdam, Netherlands","1 uur Fotoservice","ChIJcdiComYJxkcRba5SBwDyh08",52.3501756,4.9387687
"1659","Molukkenstraat 75-77, 1095 AX Amsterdam, Netherlands","Jouw Marktkraam Amsterdam Oost","ChIJQ7tMmmwJxkcR10bixm98sP0",52.3630315,4.9397885
"1660","Javastraat 701, 1094 HK Amsterdam, Netherlands","Nour Shop","ChIJQ01zmfIJxkcRBnBtsJAFqtw",52.3636012,4.9345545
"1661","Javastraat 104, 1094 AT Amsterdam, Netherlands","Warda 2","ChIJPX9IIm0JxkcR77qNQffXvKU",52.36361,4.936666
"1662","Czaar Peterstraat 247, 1018 PL Amsterdam, Netherlands","THE Derby Shop","ChIJqa2i08gJxkcRIVDIN10UOSA",52.3716234,4.9316891
"1663","Christiaan Huygensplein 9, 1098 PZ Amsterdam, Netherlands","Mr & Mrs Frosty","ChIJT8Y-r2YJxkcRVK6fsZA9RNc",52.3495093,4.9384525
"1666","Sumatrastraat, 1094 NB Amsterdam, Netherlands","liquor store","ChIJA_X5P20JxkcR-TTaITWaITE",52.3635907,4.9353712
"1668","Eerste Van Swindenstraat 16, 1093 GD Amsterdam, Netherlands","Authentic India","ChIJXUDdZ3QJxkcR9vx-oZk0tT8",52.3620862,4.9253137
"1669","De Ruijterkade 30, 1012 AA Amsterdam, Netherlands","MANGO Amsterdam Centraal","ChIJtc6jqrcJxkcRm4M6dHzcpMM",52.3793069,4.9007997
"1672","Veemarkt 177, 1019 CG Amsterdam, Netherlands","Tom's Repair Shop","ChIJXeHtpBMJxkcRWfU73KMiIbI",52.368034,4.939088
"1673","Linnaeusstraat 237A, 1093 EP Amsterdam, Netherlands","MultiVlaai","ChIJUeO-7HAJxkcRUBfLh1kTx9Y",52.3559863,4.9280085
"1678","Christiaan Huygensplein 17, 1098 RA Amsterdam, Netherlands","Minis own","ChIJWQLXFvILxkcR0SOzoT8WW80",52.3496179,4.9386422
"1679","Bijenkorf, Dam 1, 1012 JS Amsterdam, Netherlands","Paperchase","ChIJGTWpP8cJxkcRglRhtSRWNX8",52.3737531,4.8952706
"1694","Gorontalostraat 47Hs, 1095 TN Amsterdam, Netherlands","Iek's Bridal - Bohemian bruidsjurken","ChIJE6kfSGsJxkcROt4t0WRhThk",52.3642044,4.9422358
"1706","Pedro de Medinalaan 5, 1086 XK Amsterdam, Netherlands","AirPods Shop Nederland","ChIJL87XCsoOxkcRDeSJpZ0E7aE",52.3633448,4.9787224
"1714","Zeeburgerpad 74, 1019 AD Amsterdam, Netherlands","Kiteboard Company Amsterdam","ChIJaVQJjG0JxkcRsohpzl35O0g",52.3670332,4.9426507
"1719","Veemarkt 36 A, 1019 DD Amsterdam, Netherlands","T-shirts Shop Eclectix","ChIJ385LtHIJxkcRKUErK36BOY8",52.3682943,4.9348199
"1723","Science Park 608, 1098 XH Amsterdam, Netherlands","The Coffee Virus - Startup Village","ChIJx9bHgEUJxkcRg6Zhe-uO8rI",52.354584,4.9592209
"1724","Lamarckhof 15-2, 1098 TK Amsterdam, Netherlands","Amor Kitchen","ChIJDSfZjGcJxkcRM0fcUg4qY8Y",52.352552,4.944557
"1728","Borneostraat 100, 1094 CR Amsterdam, Netherlands","Quinoa Holland","ChIJD6bd2mwJxkcRwdX0zE3iUik",52.3640857,4.9379968
"1729","31,, Zuiderzeeweg 29, 1095 KZ Amsterdam, Netherlands","Brilman Design","ChIJK9MkFzoJxkcR9EodiWg3F-o",52.3700837,4.9602893
"1733","Sumatrastraat 48, 1094 NE Amsterdam, Netherlands","Joop de Kaasknaller","ChIJf_1La20JxkcRt2nYJj5sh_I",52.3633948,4.9354562
"1739","Dam 1, 1012 JS Amsterdam, Netherlands","Prada Amsterdam Bijenkorf","ChIJv0VkUuMJxkcRwcQEVpOSE4g",52.3737531,4.8952706
"1743","Pedro de Medinalaan 1-c, 1086 XK Amsterdam, Netherlands","Dartli Print & Repro Amsterdam","ChIJDYrjC8oOxkcRHEOuHc732tY",52.363299,4.978199
"1745","CJ, Maria Austriastraat 52, Amsterdam, Netherlands","Boga Paddle Boards Europe","ChIJx06nr74OxkcRXtkQNnXP430",52.3578704,4.9926897
"1746","IJburglaan 567, 1087 BS Amsterdam, Netherlands","Bagels & Beans","ChIJYwQhoLkOxkcRl7c6vqgOUDc",52.3584927,4.9897122
"1747","IJburglaan 1089, 1087 EN Amsterdam, Netherlands","DutchBootFitter","ChIJ9a5Vc5lsxkcRR-PgRhUkPv4",52.3558318,4.9946674
"1751","Bert Haanstrakade 100, 1087 DN Amsterdam, Netherlands","Original Eames Furniture | Joink Amsterdam","ChIJReVcD7YOxkcR0WYB7BQT1oE",52.3604877,4.9932461
"1757","Zwanebloemlaan 222, 1087 GD Amsterdam, Netherlands","Goji Superfoods","ChIJf8RCHL0OxkcRUvsJ4oF4L7o",52.35359,4.995514
"1759","IJburglaan 556, 1087 BT Amsterdam, Netherlands","sadeoyuncak","ChIJcRP3F4oPxkcRAZg1q_nX3XA",52.3580123,4.9892774
"1761","Pedro de Medinalaan 89-91, 1086 XP Amsterdam, Netherlands","Bedaffair","ChIJU4qvbLUOxkcRPNszJtK3Yhg",52.3622286,4.9753854
"1762","Pedro de Medinalaan 53, 1086 XK Amsterdam, Netherlands","Senso Gietvloeren Amsterdam","ChIJV33sd7UOxkcRCVEt7vAgXy0",52.3626931,4.9762192
"1778","IJburg Zuid, Eva Besnyöstraat, Amsterdam, Netherlands","Balloonbar","ChIJP5oa2JoOxkcR7NqhGH7VNX4",52.3485674,5.0100496
"1786","Sanne Sanneshof, 1087 GZ Amsterdam, Netherlands","Custom home baked in Ijburg","ChIJ7-vKJ6sPxkcRWAml2kQP1vA",52.3561193,4.9974167
"1801","Maria Austriastraat 714, 1087 KH Amsterdam, Netherlands","Jansen Bio Kaas","ChIJdWL8pJcOxkcRCkD5kCpm6sE",52.3533794,5.0011618
"1802","IJburglaan 1487, 1087 KM Amsterdam, Netherlands","Sara's Bridal","ChIJuY1lOTkIxkcRbZx3oeU8sSE",52.352023,5.001846
"1803","Lumièrestraat 71, 1087 JA Amsterdam, Netherlands","Le Beau Gateau","ChIJE9BGrZcOxkcRUSEHlTWVN2c",52.3541873,5.0012148
"1806","IJburglaan 1283, 1087 GJ Amsterdam, Netherlands","Vivánt IJburg 4.S","ChIJkSDSl5QPxkcRTY2dz2bYlFE",52.3547406,4.9967358
"1810","Pampuslaan 22, 1087 LA Amsterdam, Netherlands","Butchery Kaddour IJburg","ChIJr-FVmJAOxkcR8sCcGJAejYw",52.3515069,5.0069808
"1811","IJburglaan 1089, 1087 EN Amsterdam, Netherlands","Strolz Amsterdam","ChIJJdgQSLwOxkcReF5MTjFui14",52.3557794,4.99485
"1817","Zwanebloemlaan 49, 1087 EM Amsterdam, Netherlands","IJburg yachting b.v.","ChIJtdZNf6gPxkcRyXEVEynND9c",52.3551578,4.9932731
"1819","Pampuslaan 43, 1087 HP Amsterdam, Netherlands","IJscuypje IJburg","ChIJw9sFXpAOxkcRHAzF6ZLCCaM",52.3523047,5.007641
"1820","Pampuslaan 41, 1087 HN Amsterdam, Netherlands","Luke de Fietsenmaker","ChIJGxyvNcMPxkcRgFDM1p5VhcU",52.3522627,5.0075072
"1821","Pampuslaan 39, 1087 HP Amsterdam, Netherlands","IJburg at Night","ChIJ9aqtiJAOxkcRd1GHo4awzq0",52.3521928,5.0075092
"1824","Peter Martensstraat 4, 1087 NC Amsterdam, Netherlands","Mr. Smartwatch","ChIJe-Ion5wOxkcRL5SmGbxf-cQ",52.3456136,5.0085414
"1825","IJburglaan 1307, 1087 JJ Amsterdam, Netherlands","animal paradise IJburg","ChIJoy-PfL0OxkcRpFnbPvGngOg",52.3539161,4.9982502
"1858","Buikslotermeerplein 135, 1025 ET Amsterdam, Netherlands","Holland & Barrett","ChIJeVB7V_AIxkcRe0y8WbIkYuM",52.398972,4.9371
"1916","Stationsplein 43L, 1017 DA Amsterdam, Netherlands","Victoria's Secret","ChIJpwJUBrcJxkcRz87-UNBYLW4",52.3792784,4.9003245
"1917","Beursplein 2, 1012 JW Amsterdam, Netherlands","Levi's","ChIJdX5ibscJxkcRo58JMX_gyZ4",52.3738643,4.8946291
"1918","Buikslotermeerplein 298, 1025 GB Amsterdam, Netherlands","C&A","ChIJXdY94u8IxkcRXkli53SyE-U",52.3977413,4.9400542
"1919","Damstraat 32, 1012 JM Amsterdam, Netherlands","Volcom Store Amsterdam","ChIJBdnJVMcJxkcReFUEI2TuHE4",52.3720268,4.8951591
"1928","Raasdorperweg 54, 1067 TL Amsterdam, Netherlands","Vitaminstore Servicekantoor","ChIJdcDIfXXkxUcReP3sWS6UIGQ",52.3744997,4.7620044
"1940","Maroastraat 79, 1060 LG Amsterdam, Netherlands","no Excess","ChIJIRoPKlXhxUcR4cYHQq9GX2Q",52.354622,4.763613
"1941","Osdorperweg 721, 1067 SV Amsterdam, Netherlands","Bandenhal Rocky","ChIJe0b_TY3jxUcRvKuTv_eEpCA",52.3718319,4.7750882
"1947","Nachtwachtlaan 504, 1058 ET Amsterdam, Netherlands","Mediagigant.eu","ChIJ3Uw_1xXixUcRTFGeA_hJ8CY",52.3623372,4.7226444
"1948","Dennenlaan 50, 1161 CS Zwanenburg, Netherlands","Primera","ChIJZ2byHW7kxUcRZQHFuP9zOx4",52.3788445,4.7506347
"1957","Osdorperweg 515B, 1067 SR Amsterdam, Netherlands","Kdoos","ChIJnWNU2evjxUcRiK9j2O7VXtQ",52.3662131,4.783752
"1959","Jarmuiden 45, 1046 AE Amsterdam, Netherlands","motoZoom Amsterdam","ChIJeZskMqDjxUcRuUewNXL9Xf8",52.3898303,4.7936168
"1963","Joop van Weezelhof 20, 1063 MK Amsterdam, Netherlands","Specsavers","ChIJeZOe903ixUcRDboasBEnFwI",52.3802993,4.8226389
"1973","Joop van Weezelhof 23, 1063 MK Amsterdam, Netherlands","Vodafone shop","ChIJ25FxClLixUcReBP4iOC6JA8",52.3803624,4.822539
"1975","Dennenlaan 122-A, 1161 CT Zwanenburg, Netherlands","Reus Cyclingsport shop","ChIJyVpKsG3kxUcRptVpg744ivc",52.376055,4.747524
"1977","Haarlemmerstraatweg 117, 1165 MK Halfweg, Netherlands","DVB Shop","ChIJm7E1dlLkxUcR_3KlxEVido4",52.3846703,4.7162565
"1979","Raasdorperweg 96A, 1175 KX Lijnden, Netherlands","DM Garage","ChIJk661sBzkxUcRHBxgBIxhs2k",52.3565753,4.747273
"1980","Jan de Louterstraat 17, 1063 KX Amsterdam, Netherlands","Dazzled Designs Latex","ChIJFQ2eviLixUcRG8t4wV2aToY",52.379914,4.8176556
"1985","Osdorperweg 518 M, 1067 SX Amsterdam, Netherlands","Eumer’s Wheels","ChIJZRRTLN3jxUcR-xvLqazAqH8",52.3665968,4.7849801
"1986","Osdorperweg 518-K, 1067 SX Amsterdam, Netherlands","Garage Express","ChIJHykm0uvjxUcRgYw2xZ4M-sk",52.3665067,4.7849373
"2004","Ma Braunpad 24, 1067 WZ Amsterdam, Netherlands","Ambacht. Meubelstoffeerderij/ Stoelmatterij Schmidt","ChIJXSSS8MPjxUcR8YV5xx_ogDs",52.3647465,4.794108
"2018","Zuidermolenweg 30, 1069 CG Amsterdam, Netherlands","Montenapoleone Amsterdam","ChIJt6_2MObjxUcRu7WXJGGDWLs",52.359785,4.783326
"2026","Hoekenes 1, 1068 ML Amsterdam, Netherlands","Slagerij Aile","ChIJyxSwBWnixUcR6ItEi81V1tM",52.3614876,4.7984384
"2036","Meer en Vaart 114, 1068 ZW Amsterdam, Netherlands","Narlicious","ChIJG5pCKM_jxUcRb-E6pDYOiUE",52.364478,4.8044197
"2040","Kweekhoven 29, 1068 ZT Amsterdam, Netherlands","TuttoCalabrese","ChIJ6Tn3W9jjxUcRsus7pU-W5pY",52.363989,4.803864
"2058","Slotermeerlaan 103, 1063 JN Amsterdam, Netherlands","Coffeemania Slotermeer","ChIJaz_wC03ixUcRkudfP-yERtE",52.3792364,4.8201257
"2066","Ruimzicht 183, 1068 CT Amsterdam, Netherlands","Amstelbooks","ChIJca8pyc3jxUcRNJ0mAT7IYWM",52.3617268,4.8086825
"2074","Meer en Vaart 177B, 1068 LA Amsterdam, Netherlands","Sensemillia CoffeeShop","ChIJv726-s3jxUcRxaKrYdV5HiM",52.3602041,4.8079096
"2086","Burgemeester Röellstraat 32, 1064 BP Amsterdam, Netherlands","Muco Modelbouw Amsterdam","ChIJz0cnl0bixUcRI2aJSwM4a78",52.3736844,4.8339461
"2090","Confuciusplein 10, 1064 LG Amsterdam, Netherlands","Busy Bee Tabakswinkel","ChIJ3XNWirTjxUcRtzJxnBdIbHc",52.3742168,4.8130722
"2091","Eduard Vetermanstraat 2, 1064 BS Amsterdam, Netherlands","Amsterdam wedding cakes","ChIJrSNktUXixUcRNCszZkO-Kq8",52.3759268,4.8329634
"2093","Jan van Galenstraat 404, 1061 AZ Amsterdam, Netherlands","Bike Company Holland","ChIJl21TokHixUcR0hmAS9Wb9Qc",52.3728174,4.8396614
"2095","Jan Evertsenstraat 136, 1056 EK Amsterdam, Netherlands","white label coffee","ChIJ25B742zixUcRkukMA3FMW6s",52.370431,4.851578
"2098","Bos en Lommerplantsoen 1G, 1055 AA Amsterdam, Netherlands","Urban Goddess yoga kleding","ChIJWQ5AyWnixUcRFavJKwSH1rY",52.3763013,4.8445219
"2102","Willem Roelofsstraat 2, 1062 JX Amsterdam, Netherlands","2e Hands","ChIJhV6mHDzixUcR9-E9-seiuM0",52.3636541,4.8357956
"2106","Johan Huizingalaan 82, 1065 JD Amsterdam, Netherlands","H. de Kruijf Sportprijzen","ChIJK4VLuzDixUcRHPdbyqay0YA",52.3632246,4.8265382
"2117","Jan Tooropstraat 39, 1062 BK Amsterdam, Netherlands","Coffee call Amsterdam","ChIJv5d6JDzixUcRXvrcjxKO0eg",52.363297,4.836322
"2120","Johan Huizingalaan 77, 1065 HW Amsterdam, Netherlands","'t Fietshokje","ChIJN_QhHhbixUcRzTo9CB4RDUk",52.363363,4.8274681
"2146","Jan Evertsenstraat 100, 1056 EH Amsterdam, Netherlands","Knotsknetter","ChIJG10YD23ixUcRxXbZOIJCHiQ",52.3706517,4.8531764
"2148","Kinkerstraat 207, 1053 DS Amsterdam, Netherlands","Specsavers","ChIJ-4-PjgrixUcRSsY2OO9tBwk",52.3656236,4.8665093
"2153","Kingsfordweg 151, 1043 GR Amsterdam, Netherlands","Koot lighting and lamp shop","ChIJMx-Z9MQJxkcRNR5u12F9uck",52.3855616,4.8432557
"2155","Hoofdweg 650, 1055 AB Amsterdam, Netherlands","Van Zaane Tweewielers","ChIJ06QBBGnixUcR38pkE7yrKgU",52.3773203,4.8467949
"2158","Wolvenstraat 10, 1016 EP Amsterdam, Netherlands","Rapha Amsterdam","ChIJSVnzsMMJxkcRmrCfR7-rkng",52.370349,4.8860646
"2162","Hoofdweg 226, 1057 DG Amsterdam, Netherlands","Coffeeshop Nieuw","ChIJv7dB6hLixUcR5iFtR0eRNZc",52.3669826,4.8528275
"2163","Van Spilbergenstraat 2H, 1057 RG Amsterdam, Netherlands","IJsmanschap","ChIJc0aYQBLixUcRAQxnomRiRvc",52.3644475,4.8523242
"2165","Postjesweg 95, 1057 DZ Amsterdam, Netherlands","De Kaashut","ChIJKW_mCxLixUcRTSOK3FNXx8g",52.3641005,4.8539722
"2169","Postjesweg 102, 1057 EG Amsterdam, Netherlands","De Buren Op 102","ChIJ1WJHcxLixUcRwZswmAU-8lM",52.3644127,4.8537912
"2173","Kinkerstraat 330-332, 1053 GD Amsterdam, Netherlands","Coffee Company","ChIJe6FqogvixUcRgpzxBgQGwDM",52.3649801,4.8627503
"2176","Hannie Dankbaarpassage 19, 1053 RT Amsterdam, Netherlands","Gathershop","ChIJPS5-SY4JxkcR0Z8jQWNa1SE",52.3669447,4.869693
"2183","Baarsjesweg 208, 1057 HT Amsterdam, Netherlands","Buongiorno Gelato Bar","ChIJfS08ZAzixUcRO10CWMZUsDU",52.3650316,4.8598795
"2186","Piri Reïsplein 33, 1057 KH Amsterdam, Netherlands","Zarganza","ChIJxyETkwzixUcRiYsSRs-DN5c",52.366376,4.859768
"2187","Jan Evertsenstraat 15, 1057 BM Amsterdam, Netherlands","Tattoo Nick","ChIJ45noUHLixUcRl9BdSYrKo-c",52.3711537,4.8582233
"2192","Admiraal de Ruijterweg 81, 1057 JZ Amsterdam, Netherlands","Bike Shop Admiral","ChIJCTvor3PixUcR4oY9PmsZHJY",52.3714003,4.8595709
"2193","Jan Evertsenstraat 123, 1057 BT Amsterdam, Netherlands","Buongiorno Espressobar","ChIJNXS2HW3ixUcRAsCOxQT2PhY",52.3701816,4.8519315
"2195","Ten Katestraat 38II, 1053 CG Amsterdam, Netherlands","Marlboro Cigarette Shop","ChIJqYaHmQrixUcR8gTeIg8xudc",52.3661589,4.8672224
"2196","Kinkerstraat 231, 1053 EP Amsterdam, Netherlands","Hunkemöller","ChIJp3jg9wrixUcR-uM2I3quqB4",52.3653004,4.8652899
"2197","Kinkerstraat 67 HS, 1053 DG Amsterdam, Netherlands","Mount Everest Shop","ChIJ8wm6heAJxkcRs1CqLNGjOOg",52.3670493,4.8718831
"2198","Kinkerstraat 316, 1053 GD Amsterdam, Netherlands","Hola BB","ChIJL6_Mfg_ixUcR2OSEnLLplKw",52.365093,4.863212
"2200","Kinkerstraat 151, 1053 DN Amsterdam, Netherlands","T-Mobile Shop Amsterdam","ChIJPS1rJOAJxkcRp6YMWM0xi7g",52.366039,4.8683832
"2201","Kinkerstraat 90 H, 1053 EB Amsterdam, Netherlands","Berry Shop","ChIJZ799huAJxkcRQ2CVI7lomHg",52.3672416,4.8717432
"2203","Postjesweg 63, 1057 DW Amsterdam, Netherlands","Tabak's Notenbar","ChIJlbBd7A3ixUcRfx5kVow54RQ",52.3641282,4.8554231
"2204","Kinkerstraat 180, 1053 EK Amsterdam, Netherlands","Primera Kinkerstraat","ChIJIQwpIuAJxkcR6n-Vm0Ke6EE",52.3661609,4.8677996
"2205","Ten Katestraat 42, 1053 CG Amsterdam, Netherlands","de koffiesalon ten kate","ChIJQXmZmwrixUcRdnPjWZUTGHM",52.3660152,4.8673655
"2209","Jan Pieter Heijestraat 124, 1054 MH Amsterdam, Netherlands","Asian Food Store - “Toko”","ChIJaWtegAnixUcR2eL2NBIZYN8",52.3625329,4.8639387
"2211","Orteliusstraat 148-3, 1057 BH Amsterdam, Netherlands","omsch","ChIJ4SXzSbDjxUcRNtS5XijWS7s",52.3685706,4.8498442
"2213","Bellamystraat 6, 1053 BL Amsterdam, Netherlands","CBD Oil Shop Store - Highculture","ChIJkfeYcW3jxUcRqy7Mp1Gy4u4",52.3675135,4.8672977
"2219","Reestraat 9, 1016 DM Amsterdam, Netherlands","Champion Amsterdam","ChIJ0Y8e3j8JxkcRFNlZ8JKObJY",52.372284,4.884178
"2222","Kinkerstraat 112, 1053 ED Amsterdam, Netherlands","Lot Sixty One Coffee Roasters","ChIJEfmjb-AJxkcRqdnhOTbEetc",52.366834,4.870301
"2223","Kinkerstraat 110, 1053 EC Amsterdam, Netherlands","Coffee Room","ChIJLWzYfOAJxkcRm7JJT2D7kpo",52.3670623,4.8711191
"2224","Kinkerstraat 69, 1056 DG Amsterdam, Netherlands","Vitaminstore Kinkerstraat","ChIJm-8ShuAJxkcRCmhr1P0SrkA",52.3670319,4.8717916
"2225","Jacob van Lennepstraat 58, 1053 HL Amsterdam, Netherlands","Salon Serpent Tattoo","ChIJ39BEv-AJxkcR91LkaeOAflc",52.3664034,4.8733563
"2226","Kinkerstraat 59, 1053 DE Amsterdam, Netherlands","phone2cover","ChIJ1bsdnOAJxkcR4vJOyDUkD1Q",52.367276,4.872608
"2227","Kinkerstraat 90, 1053 EB Amsterdam, Netherlands","Mr-joy Vape Shop","ChIJKRLhyusJxkcR_ewZYnAYzbo",52.367251,4.871757
"2229","Jacob van Lennepstraat 82, 1053 HM Amsterdam, Netherlands","C-line meubelstoffering","ChIJbx20AQrixUcRZHdavVaL84A",52.3659526,4.8720628
"2230","Kinkerstraat 101-103, 1053 DK Amsterdam, Netherlands","Lowie Kopie B.V.","ChIJe7HzauAJxkcRqsv_JIF6-LY",52.3664411,4.8697998
"2232","Eerste Constantijn Huygensstraat 25-27, 1054 BP Amsterdam, Netherlands","Things I Like Things I Love","ChIJKTFhK-EJxkcRbw-_zKT5WzQ",52.3646169,4.8742138
"2233","Kinkerstraat 134-138, 1053 EE Amsterdam, Netherlands","Boogert Legerdump","ChIJ7RM8FeAJxkcRdBHYrZA6T-c",52.3666267,4.8694706
"2234","Hannie Dankbaarpassage 19, 1053 RT Netherlands","Gathershop","ChIJ7YM9GeAJxkcRC1Tz9jhgKTc",52.3669105,4.8695827
"2236","Hirschgebouw, Leidseplein 25, 1017 PS Amsterdam, Netherlands","Apple Amsterdam","ChIJPSo_6egJxkcRy5XGtB8TmUk",52.3636211,4.8825689
"2237","Bilderdijkstraat 124, 1053 KZ Amsterdam, Netherlands","Dirck III Amsterdam Bilderdijkstraat","ChIJS6aJzd8JxkcR50XBn3vFPI4",52.3682685,4.8711157
"2241","Bilderdijkstraat 131, 1053 KN Amsterdam, Netherlands","Daily Paper Store","ChIJ-V9sy98JxkcR7VEXmModfGE",52.3687212,4.8715199
"2242","Overtoom 101, 1054 HD Amsterdam, Netherlands","Avondverkoop Bon Soir","ChIJ7990qeYJxkcR9XSRbqxDgaY",52.3623174,4.8743919
"2243","Hannie Dankbaarpassage 6, 1053 RT Amsterdam, Netherlands","Qnoop","ChIJT7p2LwnixUcRjIS6ECTIeU8",52.366965,4.8694976
"2248","Tollensstraat 65 F, 1053 RS Amsterdam, Netherlands","La La Ijs","ChIJ1V1xFOAJxkcR6YM-HA0ocHs",52.3667111,4.8693587
"2250","Kinkerstraat 5, 1053 DB Amsterdam, Netherlands","Papier Hier B.V.","ChIJV7cq8N0JxkcR8lvMGBor_Lk",52.3681166,4.875917
"2255","Kinkerstraat 6, 1053 DT Amsterdam, Netherlands","Teleworld Telefoon Reparatie Amsterdam","ChIJoReR5d0JxkcRYgVSMmxow0I",52.3683731,4.8756666
"2256","Kinkerstraat 14, 1053 DV Amsterdam, Netherlands","The Blue Blood Studios","ChIJI1_U5N0JxkcRH6s5KTY8aYk",52.3682585,4.8753822
"2258","Bilderdijkstraat 100, 1053 KX Amsterdam, Netherlands","Spax Vitamin Shop","ChIJQ9u1vt8JxkcR1NP8sxzL4DI",52.3692588,4.8704526
"2259","Eerste Constantijn Huygensstraat 74/W, 1054 BW Amsterdam, Netherlands","Anita Gates Bridal / Bruidsmode","ChIJMyi5yeYJxkcRxTSG-n7SAew",52.363604,4.8744176
"2263","Overtoom 21 25, 1054 HA Amsterdam, Netherlands","Wijnheeren MARQT","ChIJJZBpZ-YJxkcRsJakBM2BMS4",52.3631123,4.8779024
"2269","Overtoom 70 HS, 1054 HL Amsterdam, Netherlands","Copyplaza","ChIJ0Re8luYJxkcRZdzX9xxclE8",52.3631368,4.8758684
"2270","Rozengracht 183, 1016 LZ Amsterdam, Netherlands","Sabina Handicraft Shop","ChIJe5mbdtwJxkcR_KnYKVi_D8w",52.3725059,4.8777497
"2275","Hartenstraat 16, 1016 CB Amsterdam, Netherlands","Dr. Martens Store","ChIJ__ulgMMJxkcRcRPfw7YHRKo",52.372449,4.8860082
"2276","Elandsgracht 59LIV, 1016 TN Amsterdam, Netherlands","Komono Store Amsterdam","ChIJMZs4I90JxkcRe-sAd1u2gFQ",52.3693537,4.8804142
"2277","Hartenstraat 13, 1016 BZ Amsterdam, Netherlands","lululemon","ChIJPZw4Rw0JxkcR0_n0nlrKq3Y",52.3722391,4.8861497
"2280","Wolvenstraat 8, 1016 EP Amsterdam, Netherlands","The North Face Amsterdam - Urban Exploration","ChIJqweflzYJxkcRC9baTJjolIc",52.3703939,4.8861535
"2281","Kalverpassage, Singel 457, 1012 WP Amsterdam, Netherlands","The North Face Store Amsterdam","ChIJI4xu08EJxkcR95K8l0b9xU0",52.3673528,4.8911664
"2282","Muntplein 4, 1012 WR Amsterdam, Netherlands","Vodafone shop","ChIJIRRDGMAJxkcRaV1jVkYYV00",52.3673042,4.8931086
"2283","Reguliersbreestraat 46, 1017 CN Amsterdam, Netherlands","PiercingsWorks Amsterdam","ChIJ-R4pWpUJxkcRjJqITmZZptY",52.36631,4.895471
"2284","Reguliersbreestraat 19, 1012 CL Amsterdam, Netherlands","Yogen Früz Ü","ChIJ-40zAMAJxkcR97JYyEUwoS0",52.3668155,4.8944441
"2285","Singel 457, 1012 WP Amsterdam, Netherlands","Leonidas","ChIJlSn108EJxkcRN896sNYncvE",52.3673528,4.8911664
"2286","Reguliersdwarsstraat 64, 1017 BM Amsterdam, Netherlands","The Shirt Shop","ChIJlTZkl-oJxkcRdHyQ__sp_WI",52.3660971,4.8924873
"2287","Reguliersdwarsstraat 70, 1017 AD Amsterdam, Netherlands","Coffeeshop Free I","ChIJpZfnuuoJxkcRyztIPg4zZ3Y",52.3660191,4.8934144
"2288","Reguliersbreestraat 24 I, 1017 CN Amsterdam, Netherlands","Trial Attic, cheese tasting by Henri Willig","ChIJiYsqVZUJxkcRGflzaAoMye0",52.3665365,4.8945199
"2289","Reguliersbreestraat 40-42, 1017 CN Amsterdam, Netherlands","Bazar 2000","ChIJBSpOV5UJxkcRq3jbqfVf9u4",52.3663323,4.8952874
"2290","Geelvinckssteeg 10, 1017 BE Amsterdam, Netherlands","Pasfoto Amsterdam 020","ChIJwTkp4aMJxkcR551_iZy-BKE",52.366449,4.891513
"2291","Singel 518, 1017 AX Amsterdam, Netherlands","Kaaskelder Henri Willig","ChIJbc2Uf-oJxkcRXder9hRvPwg",52.3667334,4.8911403
"2292","Muntplein 8, 1012 WR Amsterdam, Netherlands","Ship Shop","ChIJk-vKI8AJxkcRM5c5jlA1pQ4",52.3671817,4.8927499
"2294","Reguliersbreestraat 2a, 1017 CN Amsterdam, Netherlands","Tattoo & Piercing Bodycult","ChIJTdcUHcAJxkcRHa3Nyzo2aBg",52.3668249,4.8936355
"2297","Heiligeweg 15, 1012 XN Amsterdam, Netherlands","DIESEL STORE AMSTERDAM HEILIGEWEG","ChIJe74VzMEJxkcRphym6t2gNMU",52.3677908,4.8913577
"2298","Vijzelstraat 69, 1017 HG Amsterdam, Netherlands","Dutch Homemade","ChIJj8wi3XoMxkcRw0fkMAqOnho",52.3647057,4.8928587
"2299","Kalverstraat 178, 1012 XG Amsterdam, Netherlands","Superdry™","ChIJm_NdtcEJxkcRitJ1e5H6mxY",52.3681868,4.8913809
"2300","Halvemaansteeg 9, 1017 CR Amsterdam, Netherlands","3 Floors Coffeeshop","ChIJk-fl4b8JxkcRM6HzS9V53FE",52.366679,4.895857
"2302","Kalverstraat 230, 1012 XJ Amsterdam, Netherlands","Big Bazar","ChIJH0CoI8AJxkcR52OP3kQgzSI",52.3672666,4.8927274
"2304","Kalverstraat 204, 1012 XH Amsterdam, Netherlands","DOGO Amsterdam 204","ChIJj6MTMcAJxkcRhXeTPR6-qTA",52.3676947,4.8919298
"2305","121-123, Kalverstraat, 1012 PA Amsterdam, Netherlands","Lush Kalverstraat - Flagship Store","ChIJR3N3G8EJxkcRqknYDSnBA3Y",52.3692676,4.8911426
"2306","Kalverstraat 151, 1012 XB Amsterdam, Netherlands","TIMBERLAND Amsterdam - Kalverstraat","ChIJjXo0ssEJxkcRyBm1KnEc2jU",52.3688008,4.8912932
"2307","Heiligeweg 14, 1012 XR Amsterdam, Netherlands","Seiko Boutique","ChIJXRmQy8EJxkcRm1JIxi-fv8Q",52.3678809,4.8911338
"2310","Heiligeweg 37, 1012 XN Amsterdam, Netherlands","John Fluevog Shoes","ChIJn6w0zsEJxkcRvNsQH00OWlI",52.3675939,4.8907423
"2311","Kalverstraat 128, 1012 PK Amsterdam, Netherlands","size?","ChIJq1OmB8EJxkcRQbsi0bd11vQ",52.3695853,4.891054
"2313","Rokin 112, 1012 LB Amsterdam, Netherlands","G-Star RAW Store","ChIJRd6_UsAJxkcR2Hn9WnR_rr0",52.3688742,4.8917861
"2314","Kalverstraat 126, 1012 AB Amsterdam, Netherlands","Desigual","ChIJO-ziBsEJxkcRHI_14rSOLUA",52.3696866,4.8911293
"2317","Kalverstraat 103, 1012 PA Amsterdam, Netherlands","Kids Foot Locker","ChIJb21IAcEJxkcR74leFtjFtx8",52.369763,4.8914143
"2318","Kalverstraat 190, 1012 XH Amsterdam, Netherlands","van Wonderen Stroopwafels","ChIJzZ32NMAJxkcRlKlw4eNb_jU",52.3679323,4.8916324
"2319","Kalverstraat 100 - 106, 1012 PK Amsterdam, Netherlands","House Of Hoops","ChIJb21IAcEJxkcRyDqRY7nRTaE",52.3702464,4.891324
"2320","Heiligeweg 26-28, 1012 XR Amsterdam, Netherlands","& Other Stories","ChIJYxkdz8EJxkcRhmt3nGwIRM8",52.3677172,4.8907319
"2321","Vijzelstraat 77, 1017 HG Amsterdam, Netherlands","Independent Outlet Skateboards Amsterdam","ChIJdaqC3uoJxkcRMh5dmli_RzI",52.364441,4.8927301
"2324","Singel 437, 1012 WP Amsterdam, Netherlands","STACH Food","ChIJL0h628EJxkcRzXvzMaKuze0",52.3674053,4.8901408
"2326","Herengracht 493-1, 1017 BT Amsterdam, Netherlands","Hotelgift","ChIJoRUcmwPixUcRWQAIy-xnvUg",52.3656455,4.8911225
"2327","Singel 490, 1017 AW Amsterdam, Netherlands","Old Amsterdam Cheese Store","ChIJE4NU38EJxkcRx8AxuGtG2gM",52.3669518,4.8899794
"2328","Heiligeweg 9, 1012 XN Amsterdam, Netherlands","L’Etoile de Saint Honoré","ChIJDZacy8EJxkcRr7Uk2P3YcDo",52.367818,4.891379
"2330","Kalverstraat 167-169, 1012 XB Amsterdam, Netherlands","Levi's® Store Amsterdam Kalverstraat 167","ChIJq87stsEJxkcRquyfUBlU5QM",52.3683669,4.8914818
"2331","Kalverstraat 117, 1012 PA Amsterdam, Netherlands","Tommy Jeans","ChIJ90egqcEJxkcRbA3Y321sldA",52.369375,4.8911582
"2332","Kalverstraat 80-82, 1012 PH Amsterdam, Netherlands","Clarks","ChIJ8_siH8EJxkcR7nXV_M-ioYU",52.3706901,4.8915723
"2333","Singel 429-435, 1012 WP Amsterdam, Netherlands","PUMA Store Amsterdam","ChIJ07Ye3cEJxkcR-TSoDN-vTtM",52.367503,4.8900093
"2334","Rosmarijnsteeg 12, 1012 RP Amsterdam, Netherlands","The Happy Pig Pancake Shop","ChIJab10ZcEJxkcR8CYO6k5eB4E",52.3703979,4.8892859
"2335","Spui 28, 1012 XA Amsterdam, Netherlands","coffeecompany","ChIJr_vSjcEJxkcRnFQctw8-BJE",52.368571,4.888793
"2337","Vijzelstraat 95, 1017 HH Amsterdam, Netherlands","Impacto Seed Center Amsterdam","ChIJp47IF-sJxkcRTQiY3uZURVE",52.3633068,4.8923754
"2338","Spui 10, 1012 WZ Amsterdam, Netherlands","Esprit","ChIJk6L8pMEJxkcRi_oyBqHTBgY",52.3689218,4.8908149
"2340","Kalverstraat 153-155, 1012 XE Amsterdam, Netherlands","Skechers","ChIJtdF8scEJxkcRDY-9pwX4dx8",52.3686323,4.8911308
"2342","Plantage Muidergracht 69 71, 1018 TM Amsterdam, Netherlands","coffeecompany","ChIJtUPKfZgJxkcRdNPf8fT3PHU",52.3656543,4.9108046
"2343","Plantage Doklaan 8, 1018 CM Amsterdam, Netherlands","Tattoos Nancy","ChIJLxnG_6IJxkcRXXFysPzSS3E",52.3686012,4.9113307
"2344","Roetersstraat 10-b, 1018 WC Amsterdam, Netherlands","Printerette Amsterdam Roetersstraat","ChIJ-XgGVpgJxkcRulfhHOu7wB8",52.3635333,4.9105356
"2345","Muiderstraat 6H, 1011 RA Amsterdam, Netherlands","E-Blow Vape Shop","ChIJDVCmbL0JxkcRqj255tNBMjk",52.3675429,4.9058556
"2346","Sarphatistraat 159, 1018 GD Amsterdam, Netherlands","711rent Amsterdam","ChIJpX0iMZkJxkcRUU58DcNwq0Q",52.36234,4.913109
"2348","Kattenburgerplein 1, 1018 KK Amsterdam, Netherlands","Gift Shop","ChIJDVPyBqQJxkcRrPzPxdon5sk",52.371439,4.9147009
"2352","Jodenbreestraat 50, 1011 NM Amsterdam, Netherlands","FAC Shop","ChIJ27CoXnLixUcRM70SuWCn_qg",52.369065,4.901934
"2358","Sint Antoniesbreestraat 46, 1011 HB Amsterdam, Netherlands","Vinyl Shop","ChIJi9zNt74JxkcRdUmaXa34yDk",52.371271,4.9003918
"2361","Waterlooplein 129, 1011 PG Amsterdam, Netherlands","Coffee Company","ChIJxUM70b0JxkcR1hAp9xuCXSQ",52.3685832,4.9020664
"2362","Prins Hendrikkade 100A, 1011 AH Amsterdam, Netherlands","Mini Shop & Liquor Store Bella Bella","ChIJeVN1H7oJxkcR357vxJ2aKis",52.375762,4.9030121
"2367","Nieuwe Keizersgracht 58, 1018 DT Amsterdam, Netherlands","Diamond Guitars","ChIJE97srTDIwEcRz24sZ6pk8Cw",52.3647288,4.9047749
"2370","Kalkmarkt 1, 1011 BC Amsterdam, Netherlands","Walls and Skin tattoo Shop Amsterdam","ChIJF2MtFbsJxkcRaXxtADUhios",52.3728983,4.9071407
"2371","Damrak 79, 1012 LM Amsterdam, Netherlands","C&A","ChIJ6Q_6dccJxkcR3cNCfAnRnyo",52.3744081,4.8944786
"2375","Dam 1, 1012 JS Amsterdam, Netherlands","CELINE DE BIJENKORF AMSTERDAM LEATHER GOODS","ChIJ9VFEPscJxkcRZYAqq8oQ7e8",52.3737531,4.8952706
"2376","Dam 1 First Floor, 1012 JS Amsterdam, Netherlands","Sunglass Hut","ChIJ09EPfnQJxkcRss2VaB0vLIs",52.37329,4.89372
"2377","Kalverstraat 16, 1012 PD Amsterdam, Netherlands","Under Armour Amsterdam Store","ChIJpwkvK8EJxkcRvEHyWzEf9vY",52.3721204,4.8919057
"2379","Amstel 200, 1017 AH Amsterdam, Netherlands","Canal Company - Shop Blauwbrug","ChIJ1Uir95UJxkcRY_GdoHjtVpE",52.3662946,4.9000632
"2380","Damrak 59, 1012 LL Amsterdam, Netherlands","Oakley Amsterdam","ChIJ-Sp9hMcJxkcRTHu2YgYgtuU",52.3750776,4.8952991
"2382","Nieuwendijk 186, 1012 MS Amsterdam, Netherlands","Foot Locker","ChIJ92HZCccJxkcRZAN1AIZ_HIo",52.3746404,4.8936916
"2389","Kalverstraat 48/52, 1012 PE Amsterdam, Netherlands","Topshop","ChIJzafLJ8EJxkcRvdfqMnE6MAo",52.3714064,4.8918589
"2392","Kalverstraat 152, 1012 XE Amsterdam, Netherlands","Waterstones","ChIJGeC3scEJxkcRCVkL5xh5zGo",52.368779,4.8909465
"2393","Kalverstraat 31-33, 1012 NX Amsterdam, Netherlands","Urban Outfitters","ChIJuZTR18AJxkcRmBmUJ9EsUh8",52.3716274,4.8921479
"2395","1011 PZ Amsterdam, Netherlands","House of Formlab","ChIJS5rwhPIJxkcRuD5j1rIPDTM",52.3679843,4.9035614
"2397","Kloveniersburgwal 62, 1012 CX Amsterdam, Netherlands","Basjoe Coffee Shop","ChIJ07stEL8JxkcRmDhrlpIZTPE",52.3699993,4.8973968
"2398","Koningsplein 13, 1017 BB Amsterdam, Netherlands","Dsquared2 Amsterdam II","ChIJYwrq3FQJxkcRRKxlmjhr-NQ",52.3668302,4.8889275
"2399","Geldersekade 108I, 1012 BN Amsterdam, Netherlands","Canna 420","ChIJ7UcBE7kJxkcRqMxCCS900_U",52.3735995,4.9005571
"2406","C. van Eesterenlaan 301, 1019 KT Amsterdam, Netherlands","Studio PM B.V.","ChIJF7toeREJxkcRScv0sSvy9Es",52.3709377,4.9389112
"2409","Javastraat 5, 1094 GX Amsterdam, Netherlands","Majesteit Taart","ChIJh1Dc63IJxkcR8NGaH4XvPig",52.36361,4.9318287
"2415","Czaar Peterstraat 14, 1018 PR Amsterdam, Netherlands","Het Zwarte Fietsenplan Oostelijke eilanden","ChIJi2KAlwsJxkcRbYQg6rxa9M0",52.3687476,4.92759
"2420","Eerste Van Swindenstraat 547, 1093 LC Amsterdam, Netherlands","Motion Coffee","ChIJnyN8HHMJxkcRPtT5kGIPI0I",52.3633593,4.9299004
"2424","Czaar Peterstraat 53-HS, 1018 PB Amsterdam, Netherlands","Luthier Rene van Reenen (Vioolbouwer)","ChIJ2UYf9QsJxkcRlUH4E-7QLp4",52.3693944,4.9280575
"2425","Zeeburgerpad 75, 1019 AD Amsterdam, Netherlands","KITEZONE kiteshop & repair","ChIJf_WW3bEJxkcRPtjtrn_ovAU",52.36708,4.942759
"2426","C. van Eesterenlaan 314, 1019 KE Amsterdam, Netherlands","Infusabis - Cannabis Lifestyle","ChIJbx-AdQ8JxkcR6OeWqwRZGEo",52.370171,4.938111
"2427","Von Zesenstraat 551, 1093 DM Amsterdam, Netherlands","Ohnana Tents","ChIJA4Z7TnMJxkcRYEbuig3-6jc",52.3649255,4.9284527
"2429","Sumatrastraat 383, 1094 NE Amsterdam, Netherlands","Fred Pereira Studios","ChIJS47Qam0JxkcRHkjPfyT3kDA",52.3635607,4.9353753
"2431","Dapperstraat 145, 1093 BS Amsterdam, Netherlands","Wereldse Kaas Van Klaas","ChIJZTpOpXQJxkcRMzYACaPaT64",52.3646295,4.9265515
"2432","Czaar Peterstraat 118, 1018 PT Amsterdam, Netherlands","Sprezzatura | Enoteca Italiana/Verkerk Wijnimport","ChIJkSWzQuALxkcRBI3wo-kazu8",52.3701542,4.9298304
"2433","Javastraat 51-H, 1094 HA Amsterdam, Netherlands","The Other Guys Amsterdam East","ChIJHzadn3IJxkcRyYo6-Zl_E6o",52.3638044,4.9335965
"2439","Molukkenstraat 85D, 1095 AX Amsterdam, Netherlands","Maziana bridal","ChIJB-4ZilEIxkcREwpNJqSPfYw",52.3628069,4.9398485
"2443","Eerste Van Swindenstraat 467, 1093 GL Amsterdam, Netherlands","Moiz Telecom","ChIJJ9yODnMJxkcRod_65sO0lg4",52.3631973,4.9291993
"2448","Pieter Nieuwlandstraat 29, 1093 XJ Amsterdam, Netherlands","Tabaksspeciaalzaak Maikel Groenteman","ChIJn6NCl3MJxkcRMAY-mbtMxfA",52.3619155,4.9282525
"2449","Dapperstraat 159, 1093 BS Amsterdam, Netherlands","DappermarktGordijnen","ChIJHWwLYnMJxkcRckG4aacryAM",52.3635949,4.9272256
"2450","Javaplein 31, 1095 CJ Amsterdam, Netherlands","Stuff&Stories - vintage designs","ChIJt_o-MRoJxkcRC7PA4UPkaBE",52.3633822,4.9399342
"2451","C. van Eesterenlaan 11, 1019 JK Amsterdam, Netherlands","Groenteboer Borneo","ChIJozhyVhAJxkcRTfGQ9o1NZWE",52.3732291,4.9387706
"2453","Conradstraat 151, 1018 NE Amsterdam, Netherlands","www.velliano.com","ChIJbYNQ7gsJxkcReaY62FV1D_M",52.3697276,4.9274413
"2463","Cruquiusweg 120A, 1019 AK Amsterdam, Netherlands","Camille Dolibeau","ChIJHV7nTTkJxkcR8-Q8osqu1gk",52.36876,4.9550994
"2575","Mosveld 117, 1031 AD Amsterdam, Netherlands","Holland & Barrett","ChIJa5HxQlIIxkcRbp1tM-FZbks",52.390697,4.913877
"2580","Haarlemmerstraat 104, 1013 EW Amsterdam, Netherlands","Carhartt WIP","ChIJQ1h4LskJxkcRQdFTu2dPjR0",52.3807233,4.8908045
"2654","Pampuslaan 23-25, 1087 HN Amsterdam, Netherlands","Stijldepartment","ChIJ6wYx7pkOxkcRhre6E89-yY8",52.3518249,5.0061735
"2704","Dennenlaan 114, 1161 CT Zwanenburg, Netherlands","Halfway Ink","ChIJ81uCqHrkxUcRfMES1CfDquM",52.3764033,4.7474879
"2713","Bolstoen 28A, 1046 AV Amsterdam, Netherlands","call-a-drink","ChIJP-dAup_jxUcRDZ0ceAv7LsQ",52.3905574,4.7901489
"2719","Dillenburg 8, 1165 HM Halfweg, Netherlands","E.J. Zijlstra","ChIJhRwJ4G_kxUcRRgYOolUE-c0",52.3818801,4.7511493
"2723","Kerkhoflaan 24, 1161 JC Zwanenburg, Netherlands","AUTOMOBIELBEDRIJF HDI","ChIJj3sokBDlxUcRi5bUpsxyNBY",52.3802475,4.7502801
"2726","Dennenlaan 61, 1161 CL Zwanenburg, Netherlands","Newfone","ChIJsQLNGm7kxUcRrhXLNucMk18",52.378639,4.749906
"2745","Zekeringstraat 49, 1014 BP Amsterdam, Netherlands","Office Centre Amsterdam Sloterdijk","ChIJPRLXWbbjxUcRDIlX1kMeIt4",52.3960502,4.8479275
"2746","Suikersilo 37, 1165 MP Halfweg, Netherlands","A Fish Named Fred","ChIJ4-ieKZHlxUcR2lr0L2XkSl4",52.3851901,4.7436261
"2752","Leenhofstraat 29, 1016 NV Amsterdam, Netherlands","ATHRTY Amsterdam","ChIJ8ddUt7vjxUcRLvrDqNBI2v4",52.3775984,4.7993994
"2757","Orlyplein 103, 1043 DT Amsterdam, Netherlands","Starbucks","ChIJWWG8uFjixUcRYAZqX1edmLU",52.3892232,4.8375534
"2761","Marga Klompélaan 35, 1067 TV Amsterdam, Netherlands","Rudea Print","ChIJlcBGZb3jxUcRBIXj3jzApYk",52.3796524,4.7913678
"2769","H.J. Algrastraat 16, 1067 WL Amsterdam, Netherlands","Adel Kwaliteit Vlees B.V.","ChIJZU4MGZjjxUcRZdZln1Ddfnw",52.3821336,4.7896895
"2789","Lambertus Zijlplein 1, 1067 JR Amsterdam, Netherlands","Homestar Import Export","ChIJO6UfT7rjxUcRu2FiODBFaWA",52.377372,4.800856
"2798","Humberweg 2, 1043 AC Amsterdam, Netherlands","Boerejongens Coffeeshop Sloterdijk","ChIJX531bnnjxUcR4YM5eurEPuw",52.3912201,4.8296717
"2799","Burgemeester Vening Meineszlaan 163, 1063 AZ Amsterdam, Netherlands","Salem's Fantasy Gifts","ChIJATI3nVHixUcRB86W1q1ykwM",52.3827838,4.8252107
"2802","Dirk Sonoystraat 139, 1067 XV Amsterdam, Netherlands","Eva Rødbro","ChIJP-h1i7DjxUcRs8694i4KeHc",52.3781028,4.8050763
"2812","Pleimuiden 5, 1046 AG Amsterdam, Netherlands","Cihan Tires BV","ChIJz6El1J3jxUcR-fE-3IVmZGE",52.391232,4.7876139
"2814","Oderweg 1, 1043 AG Amsterdam, Netherlands","Channel Pilot Solutions","ChIJLYcNKP7ixUcRKytCmwz_TFY",52.3910486,4.8219085
"2847","Joop van Weezelhof 16, 1063 MK Amsterdam, Netherlands","Muki","ChIJE7Z5ClLixUcRLFT0fF6pcEw",52.380341,4.8225059
"2852","Epicurusstraat 6, 1064 ZN Amsterdam, Netherlands","Partycentrum","ChIJWdDUubTjxUcRaXcBtv0btt0",52.3741799,4.8152605
"2858","Oderweg 3, 1043 AG Amsterdam, Netherlands","Sakelicious Webshop","ChIJw43j870JxkcRgQLFA67lmtE",52.3904494,4.8212353
"2877","Burgemeester de Vlugtlaan 37, 1063 BG Amsterdam, Netherlands","Hajar Paleis","ChIJHZ4egJzjxUcRSR3bJ_KZ_P8",52.3792826,4.8336852
"2884","Burgemeester Fockstraat 49, 1063 CP Amsterdam, Netherlands","De Gouden Koets","ChIJ9ceYtVrixUcRx5frjbja0T0",52.3801268,4.8320755
"2902","Burgemeester de Vlugtlaan 131, 1063 BK Amsterdam, Netherlands","Etçi Göreme","ChIJZ4htUJfjxUcRnKt58Midekk",52.3804774,4.8259304
"2908","Kingsfordweg 151, 1043 GR Amsterdam, Netherlands","MyTrendyPhone","ChIJVY8vaV7ixUcRbYPy8hVZUAk",52.3855894,4.8428311
"2911","Burgemeester de Vlugtlaan 61, 1063 BH Amsterdam, Netherlands","Ado Bike Amsterdam","ChIJjbuRSUXixUcRzkJMc5hwN08",52.379562,4.831934
"2916","Bos en Lommerweg 261 265, 1055 DW Amsterdam, Netherlands","Odin Bos en Lommer - biologische supermarkt","ChIJvQWQUm_ixUcRQck0UiY7UZs",52.3786044,4.8503628
"2918","Bos en Lommerweg 104, 1055 ED Amsterdam, Netherlands","Dogan Tabakshop","ChIJfWot5GTixUcRrzM-fCf-LlI",52.3821499,4.855299
"2925","Erasmusgracht 506, 1061 BL Amsterdam, Netherlands","Fine prints and maps / Decorative Prints","ChIJ1TqynUPixUcRHt9GXP5pEWc",52.376893,4.83768
"2937","Hartenstraat 2, 1016 CB Amsterdam, Netherlands","Nudie Jeans The 9 Streets","ChIJrbjmicMJxkcRxCTrDowCM3o",52.3723423,4.8867209
"2941","Bos en Lommerweg 285, 1055 DX Amsterdam, Netherlands","KAHVEALTI","ChIJXTLVb_cIxkcRxFMLJufehPs",52.3784575,4.849689
"2945","Admiraal de Ruijterweg 389-H, 1055 MC Amsterdam, Netherlands","Tabakspeciaalzaak Admiraal","ChIJWZ12L2TixUcRZ1UCTjfBAKA",52.3823861,4.8513867
"2951","Kijkduinstraat 17, 1055 XP Amsterdam, Netherlands","Centrum Kijkduin Cordaan","ChIJm9kIEkPjxUcRprarkKL6GcA",52.3816294,4.8543978
"2952","Admiraal de Ruijterweg 325, 1055 LX Amsterdam, Netherlands","Bureau Wijn","ChIJ1_TPxW7jxUcRUnjQeZdu-Y4",52.3804932,4.854658
"2953","Admiraal de Ruijterweg 218A, 1056 HC Amsterdam, Netherlands","Tabak & Minimarkt Admiraal","ChIJVTxhOHDixUcR2sqhBxhv0nM",52.3770214,4.8580921
"2957","Pieter van der Doesstraat 126-1, 1056 VC Amsterdam, Netherlands","WW Hippique","ChIJt6ZrkSLjxUcRbTivDXmjbi0",52.3739531,4.8565272
"2958","Krelis Louwenstraat 1, 1055 KA Amsterdam, Netherlands","Cake Delight","ChIJn8dOtDrixUcRiFEib9L5F2s",52.382024,4.846352
"2960","Haarlemmerplein 35, 1013 HR Amsterdam, Netherlands","DIS Dinner Shop","ChIJiX4KQdIJxkcRGtGn-12qHEM",52.3845953,4.8827175
"2962","Van Slingelandtstraat 39, 1051 CG Amsterdam, Netherlands","Kringloopwinkel RataPlan Van Slingelandtstraat","ChIJe8WERnnixUcRSt9ew0Tfb28",52.38327,4.8651818
"2970","Gillis van Ledenberchstraat 135, 1052 LE Amsterdam, Netherlands","Coffee Shop Sensemillia","ChIJJZnZ8tgJxkcR65Kp986XNfs",52.3751139,4.871307
"2971","Jan van Galenstraat 69, 1056 BJ Amsterdam, Netherlands","Combitec","ChIJT4HANnHixUcRiOBm3j-SxNM",52.3749382,4.8622729
"2982","Den Brielstraat 21, 1055 RV Amsterdam, Netherlands","Otterberg Tires","ChIJ1Xi7DHvixUcR7IJf1-DbbS0",52.3827198,4.8603617
"2989","Hartenstraat 15, 1016 BZ Amsterdam, Netherlands","Timberland shoe","ChIJDchBh8MJxkcRDpH4eVurKeY",52.3722378,4.8860822
"3000","Westerstraat 187, 1015 MA Amsterdam, Netherlands","Moooi Amsterdam Brand Store","ChIJARWGCtAJxkcRP3GNRDNXtyE",52.3779337,4.8817701
"3006","Jacob Catskade 22, 1052 BZ Amsterdam, Netherlands","Parallaxe","ChIJ6_2F3gjixUcR7idviE1GPR8",52.3818881,4.8778142
"3011","Rombout Hogerbeetsstraat 136H, 1052 XM Amsterdam, Netherlands","Vape Shop - VAPR","ChIJzRvQ8dgJxkcRpv8LwE0mIXM",52.3749502,4.8717317
"3017","Van Limburg Stirumstraat 48, 1051 BC Amsterdam, Netherlands","Dierenspeciaalzaak De Kanarie","ChIJBVNup9YJxkcRTd0bcroTs54",52.3834179,4.8764374
"3018","Reestraat 27, 1016 DM Amsterdam, Netherlands","Arman Tabak Shop","ChIJMVzvWMMJxkcRF1Ge7v4c548",52.3723658,4.8834291
"3020","Van Boetzelaerstraat 37, 1051 CT Amsterdam, Netherlands","Saxomania","ChIJ7fQcatYJxkcR09BqMSWYNGQ",52.3824102,4.8727893
"3021","Jan van Galenstraat 4, 1051 KM Amsterdam, Netherlands","Profile Car & Tire Service Amsterdam, William Waltz","ChIJJdnodXnixUcREUnknimR8hs",52.376726,4.8669015
"3022","Westermarkt 70, 1016 DL Amsterdam, Netherlands","Kameleon","ChIJT5uawcQJxkcRfNv4Iv1xll0",52.3743919,4.8837195
"3027","Westermarkt 60, 1016 DL Amsterdam, Netherlands","The Smallest Gift Shop","ChIJfUVU3MQJxkcRZs6NMq5aZ7g",52.3746452,4.8840984
"3029","Westerstraat 121, 1015 LZ Amsterdam, Netherlands","Coffeeshop The Spirit","ChIJkRrlA9AJxkcRccMqm4LTbX4",52.3781923,4.8829391
"3030","Lijnbaansgracht 58, 1015 GS Amsterdam, Netherlands","Queen of Arts","ChIJZWjNhtAJxkcRDArnQrbUkHU",52.3783202,4.8797275
"3031","Van Limburg Stirumstraat 1, 1051 BD Amsterdam, Netherlands","Primera","ChIJS-uqO9QJxkcRZXrHHUune74",52.3844032,4.8754319
"3033","Egelantiersstraat 77, 1015 PX Amsterdam, Netherlands","Rebel Wines","ChIJA4R9x9oJxkcR6apeSHPLyFk",52.3765548,4.8819248
"3035","Laurierstraat 168H, 1016 PS Amsterdam, Netherlands","E-Blow","ChIJT1D1idwJxkcRBOIz5wYfOwQ",52.371756,4.878889
"3041","Rozengracht 139, 1016 LV Amsterdam, Netherlands","Coffeeshop 'Flower Power'","ChIJAYqsgNsJxkcRhnmnYVsAKXQ",52.3727163,4.8785989
"3042","Tweede Anjeliersdwarsstraat 17, 1015 NS Amsterdam, Netherlands","Monte Pelmo","ChIJwbMyotoJxkcRBQGegjZ5TKk",52.377516,4.8817
"3046","1016 HN Amsterdam, Netherlands","Antique shop","ChIJMYWmLcMJxkcR087GZJ2Aq1o",52.3704319,4.8821488
"3050","Leliegracht 6, 1015 DE Amsterdam, Netherlands","the Otherist","ChIJa7zTSsQJxkcRR0MHpWU6yRo",52.375012,4.8875538
"3056","Hartenstraat 23, 1016 CA Amsterdam, Netherlands","COS","ChIJmVrbgMMJxkcR_Xs20DewJD0",52.3722413,4.8859099
"3058","Rozengracht 15D, 1016 LP Amsterdam, Netherlands","Fabula Rosa","ChIJSVuWS9sJxkcRCLWPZ2Yev7g",52.3736186,4.8822041
"3059","Eerste Bloemdwarsstraat 13, 1016 KR Amsterdam, Netherlands","Subculture Tattoo","ChIJ_76cOdsJxkcRSSNd9hWi__s",52.3741763,4.8816105
"3060","Nieuwendijk 196, 1012 MV Amsterdam, Netherlands","JD Sports","ChIJ_4aJCMcJxkcRb_0U8L6KxK4",52.374577,4.893558
"3061","Singel 12, 1013 GH Amsterdam, Netherlands","The Bulldog Rock Shop","ChIJn0D3W8gJxkcRI3VmEYVEc_c",52.3790703,4.8938353
"3062","Haarlemmerstraat 30H, 1013 ER Amsterdam, Netherlands","Buddha seed bank & head shop","ChIJVfkp_8gJxkcRvbrcCAhUou8",52.379807,4.893337
"3063","Nieuwendijk 34, 1012 ML Amsterdam, Netherlands","Buddha's Souvenir Shop","ChIJ8RUdEcgJxkcRgRoP3PtNt6o",52.378153,4.8954258
"3064","Haarlemmerstraat 63, 1013 EK Amsterdam, Netherlands","Popeye CoffeeShop","ChIJl-w7_cgJxkcRfHbxmZwXWYA",52.3799574,4.8927885
"3065","Haarlemmerstraat 6, 1013 ER Amsterdam, Netherlands","Coffeeshop Amsterdamned","ChIJ1SWYUMgJxkcRwyLs1zG7tn4",52.3794323,4.8940017
"3066","Haarlemmerstraat 41, 1013 EJ Amsterdam, Netherlands","Bestseller","ChIJDV3C-MgJxkcR80jMjjA7qYs",52.3796308,4.8933299
"3067","Nieuwendijk 17, 1012 LZ Amsterdam, Netherlands","Chills & Thrills","ChIJ15AEFcgJxkcRw2IHs1m6U04",52.3785899,4.8952629
"3069","Prins Hendrikkade 3, 1012 TK Amsterdam, Netherlands","del Gelato","ChIJaVSuQMgJxkcRb_Fx7z217kw",52.3789861,4.8950155
"3070","Haarlemmerstraat 70, 1013 ET Amsterdam, Netherlands","Ace & Tate","ChIJEYXXIckJxkcREcMM_h4MmvE",52.3803498,4.8919719
"3071","Haarlemmerstraat 25, 1013 EJ Amsterdam, Netherlands","It's a Present!","ChIJz2mXV8gJxkcRUcOJCx1FEHk",52.3794397,4.8936196
"3072","Nieuwendijk 26, 1012 ML Amsterdam, Netherlands","Tabak & Souvenir Shop","ChIJh6yJE8gJxkcR7bsBCrAUI2Q",52.3783323,4.8952132
"3073","Haarlemmerstraat 44, 1013 ES Amsterdam, Netherlands","Dampkring","ChIJ8W5A_cgJxkcR5lST5yPutPE",52.3800708,4.8928703
"3074","Haarlemmerstraat 5 HS, 1013 EH Amsterdam, Netherlands","Daily Fresh","ChIJryAXWsgJxkcRmFTaRLCts44",52.379264,4.893907
"3075","Haarlemmerstraat 98, 1013 EW Amsterdam, Netherlands","Barneys Farm Shop","ChIJne0ZPMgJxkcReMQLlAMNufk",52.3806306,4.89098
"3076","Haarlemmerstraat 96, 1013 EV Amsterdam, Netherlands","Sigarenmagazijn Tito","ChIJZZvuJckJxkcRdrdYANKIqBw",52.3805805,4.8912242
"3077","Haarlemmerstraat 38, 1013 ES Amsterdam, Netherlands","The Gift Lab - Amsterdam","ChIJBy7B_cgJxkcRFrTLm_Gojqo",52.3799947,4.8930702
"3078","Nieuwendijk 42, 1012 MN Amsterdam, Netherlands","Fullmoon Smartshop","ChIJoxunGsgJxkcRKhsZdn55IOM",52.3779543,4.8957941
"3079","Nieuwendijk 106, 1012 MR Amsterdam, Netherlands","Holland & Barrett","ChIJSU7mB7gJxkcRUZ2zzTPhp5k",52.376659,4.896393
"3081","Nieuwendijk 48, 1012 MN Amsterdam, Netherlands","Rembrandt Headshop","ChIJS1UhBcgJxkcR5DWlIMRbVQc",52.3779028,4.8957663
"3082","Haringpakkerssteeg 7, 1012 LR Amsterdam, Netherlands","Buddha 3 - Seed Bank & Head Shop","ChIJpy-kBLgJxkcRCrh9eyCgIKs",52.3769057,4.8971111
"3088","Droogbak 9h, 1013 GG Amsterdam, Netherlands","Luggage storage at Paper Fetish shop","ChIJK_6yQy8JxkcREu9keaOqKRw",52.3799379,4.893654
"3089","Haarlemmerstraat 131, 1013 EN Amsterdam, Netherlands","Tweewielercentrum Shop 30","ChIJb_RLzs4JxkcRqLoXJYVVJEs",52.3809603,4.8898977
"3091","Nieuwendijk 103, 1012 MB Amsterdam, Netherlands","Travel Bag Amsterdam","ChIJebBYCLgJxkcRV1an4pfLG9Q",52.3765143,4.8964825
"3095","Nieuwendijk 24, 1012 ML Amsterdam, Netherlands","Army-Shop Amsterdam","ChIJqwYJfb8JxkcR4jy3pIWrws8",52.3761587,4.8956927
"3096","Nieuwendijk 74, 1012 MP Amsterdam, Netherlands","La Canna Headshop","ChIJGzwSALgJxkcR57Pnwo51zOo",52.3772233,4.8964647
"3097","Nieuwendijk 80, 1012 MP Amsterdam, Netherlands","Esmoking Shop","ChIJPYWqAbgJxkcRHry54huBhi0",52.3771185,4.8966036
"3098","Spuistraat 21, 1012 SR Amsterdam, Netherlands","Amsterdam Gay Shop","ChIJP7b1zccJxkcR-y1MjTgX8io",52.3766761,4.8934809
"3100","Damrak 65, 1012 LM Amsterdam, Netherlands","Heinen Delfts Blauw","ChIJ_XYPnccJxkcRLqHVuOR6IvE",52.3748042,4.8949758
"3103","Nieuwezijds Voorburgwal 62, 1012 SC Amsterdam, Netherlands","Dutch Souvenirs Shop","ChIJKa_iy8cJxkcRjE_OeTS9A5s",52.3763738,4.8933455
"3104","Gulden Vlies condom shop, Warmoesstraat 141, Amsterdam, Netherlands","Condom","ChIJd3gQYscJxkcRkwzLwMJtjb0",52.373679,4.8958719
"3105","Nieuwendijk 196, 1012 MV Amsterdam, Netherlands","ZARA Amsterdam Nieuwendijk Store","ChIJhfReD8cJxkcRWGhAAEeHL6k",52.3744151,4.8933763
"3106","68II, MP, Nieuwendijk, Amsterdam, Netherlands","Pabo Erotik","ChIJLTv6_7cJxkcR_4qYxF1513w",52.3773124,4.8964633
"3107","Haarlemmerstraat 150, 1013 EZ Amsterdam, Netherlands","STACH Food","ChIJ6Rszxs4JxkcRH0H-dgFUBt4",52.3814265,4.8896903
"3108","Sint Nicolaasstraat 19, 1012 NJ Amsterdam, Netherlands","ROOR Shop Amsterdam","ChIJQ7GcqccJxkcRRSaeidDuEKg",52.3749079,4.8931415
"3110","Nieuwendijk 143, 1012 MD Amsterdam, Netherlands","Claire's","ChIJdYyIjccJxkcRK_2wiLptvNE",52.375811,4.895298
"3111","Nieuwezijds Kolk 4, 1012 PV Amsterdam, Netherlands","Luggage Repair","ChIJPfAa7McJxkcRyiKU5w1EvZ0",52.3764114,4.8949672
"3114","Hasselaerssteeg 12, 1012 MB Amsterdam, Netherlands","Game Over?","ChIJaXQn-LcJxkcR9nHimpVKB8c",52.3773697,4.8972555
"3115","Nieuwendijk 198, 1012 MV Amsterdam, Netherlands","The Body Shop","ChIJASW9BccJxkcRteEakwrGXV4",52.3743319,4.8932975
"3116","Nieuwendijk 231, 1012 MP Amsterdam, Netherlands","KIKO Milano","ChIJe5XoG8cJxkcRMFq2ohkbWLQ",52.373811,4.892978
"3117","Sint Nicolaasstraat 63, 1012 NJ Amsterdam, Netherlands","Quilt shop","ChIJ_6po-MYJxkcRPIYFFQX4Yfg",52.3747438,4.891968
"3121","Piet Heinkade 29, 1019 BR Amsterdam, Netherlands","Ipo's Coffee Gallery","ChIJicBoR68JxkcR5DeMpl0kL9c",52.3776037,4.9158558
"3144","Tosaristraat 1, 1019 RT Amsterdam, Netherlands","Java-Blend Amsterdam","ChIJcfof1qkJxkcRzq7UtONR8NY",52.3792556,4.9233462
"3146","Stationsplein 39, 1012 AB Amsterdam, Netherlands","Cheese & More by Henri Willig CS","ChIJGwexBrcJxkcRsuzGpGUOb5M",52.379428,4.900467
"3147","Zeedijk 22, 1012 AZ Amsterdam, Netherlands","Stüssy Amsterdam","ChIJ9zbWvrkJxkcRXBD9Nag3uXk",52.375607,4.900723
"3149","Stationsplein 17B, 1012 AB Amsterdam, Netherlands","Chocolate Company","ChIJi2i6obcJxkcRtmTvjglQLPM",52.3786879,4.8998822
"3150","Nieuwe Hoogstraat 22-H, 1011 HG Amsterdam, Netherlands","Diabolo","ChIJux59Vb8JxkcRTGt0EGM6S7o",52.370662,4.899938
"3151","Geldersekade 2HS, 1012 BH Amsterdam, Netherlands","Coffeeshop Voyagers","ChIJO7BT5bkJxkcRr4IpRZY81bo",52.3764191,4.9020592
"3152","Stationsplein 41P, 1012 AB Amsterdam, Netherlands","Lush","ChIJodi_m7cJxkcRVe52QdsWMXg",52.3795188,4.9002609
"3156","Lange Niezel 23, 1012 GS Amsterdam, Netherlands","Hot Stuff Sex Shop","ChIJT3TvU7gJxkcRjLVsWlu_2GY",52.3749419,4.8988811
"3158","Meeuwenlaan 76, 1021 JK Amsterdam, Netherlands","Dirck III Amsterdam Meeuwenlaan","ChIJrcKMhKsJxkcRP3lGQHxbbcA",52.3847896,4.9181326
"3167","Binnen Bantammerstraat 10A, 1011 CK Amsterdam, Netherlands","Basil de Visser Period Bows","ChIJ_Rl5e7kJxkcRQU0E_jbS7CI",52.3738307,4.9019516
"3168","Central Railway Station, Stationsplein, 1012 AB Amsterdam, Netherlands","KIKO Milano","ChIJaVrbDrcJxkcR8yT2UlC-xhk",52.3792333,4.900029
"3169","Zeedijk 73, 1012 AS Amsterdam, Netherlands","BLACK Comme des Garçons","ChIJZeIKobkJxkcRG8VOG1B-8uo",52.3746379,4.9008558
"3170","De Bijenkorf, Dam 1, 1012 JS Amsterdam, Netherlands","COS","ChIJoanfPccJxkcRKq7OH46KPvA",52.373753,4.895271
"3174","1012 hc, Sint Annendwarsstraat 30, 1012 HC Amsterdam, Netherlands","Magic mushrooms","ChIJLfJ5kbgJxkcRdFzrCTjhZHY",52.3737465,4.8969872
"3178","Kalverstraat 11, Rokin 12, 1012 NX Amsterdam, Netherlands","UNIQLO Amsterdam","ChIJTXFh9CUJxkcRggMkcBq07fo",52.3722344,4.8921287
"3179","Oudezijds Kolk 71, 1012 AL Amsterdam, Netherlands","Bordello A Parigi","ChIJmZTxwLkJxkcRDgPiwa-IGZ4",52.3758666,4.900836
"3185","Zesde Vogelstraat 30, 1022 XE Amsterdam, Netherlands","Drukkerij Stetyco","ChIJt2g02AEJxkcRmVd0nJf49mI",52.3864675,4.9288293
"3212","Nieuwendammerdijk 526-A, 1023 BX Amsterdam, Netherlands","Duik- en Bergingsbedrijf J. Drost","ChIJvy_9cx4JxkcR0hLyh7lGH8k",52.3856445,4.9455655
"3218","Zamenhofstraat 112, 1022 AG Amsterdam, Netherlands","Lola Rose Stitchshop","ChIJ1f-p-wEJxkcRwfDbimh-Hvs",52.386065,4.930589
"3235","Buikslotermeerplein 292, 1025 GB Amsterdam, Netherlands","T-Mobile Shop Amsterdam","ChIJxUgbH_AIxkcR7UqGEZLLz9Y",52.398007,4.939663
"3241","Nieuwendammerdijk 532, 1023 BX Amsterdam, Netherlands","Basic-Pro 3 B.V.","ChIJcfgXFB4JxkcRez6X78pGbLg",52.3847045,4.9456742
"3272","Buikslotermeerplein 194, 1025 GA Amsterdam, Netherlands","Foot Locker","ChIJ-eHNQPAIxkcRS_pi0Z_UpBI",52.3985454,4.9382795
"3314","Buikslotermeerplein 245, 1025 XC Amsterdam, Netherlands","Specsavers","ChIJOVq9GPAIxkcRJju3S6V143M",52.3981018,4.9394251
"3359","Dam 1 1012 JS, 1000 AA Amsterdam, Netherlands","Dior","ChIJ_01EPscJxkcRqqLGrrBj_Yw",52.3737531,4.8952706
"3481","IJburglaan 551, 1087 BS Amsterdam, Netherlands","Action","ChIJv2cforkOxkcRlHa7yXy-GeE",52.3588086,4.9892142
"3485","Waterlandplein 221, 1024 LT Amsterdam, Netherlands","Action","ChIJH5mZyd0IxkcRLmTUJYeaAAs",52.3920769,4.9549552
"3486","Ouddiemerlaan 223, 1111 GZ Diemen, Netherlands","Action","ChIJb9d7_f0LxkcR-CWKoZaYn0w",52.342204,4.9641468
"3490","Waldenlaan 36, 1093 NH Amsterdam, Netherlands","Action","ChIJITrb_nAJxkcRwnXSGs6cRxQ",52.3570651,4.9314776
"3500","Bijlmerplein 148, 1102 DB Amsterdam, Netherlands","H&M","ChIJnwUnN44LxkcRIBalWXnZoO4",52.3140894,4.9531233
"3503","Waldenlaan 10, 1093 NH Amsterdam, Netherlands","H&M","ChIJpVM3s3EJxkcR8sH76JWzMX8",52.3567391,4.9293623
"3507","Nieuwendijk 154 A, 1012 MS Amsterdam, Netherlands","H&M","ChIJPW_XkMcJxkcR7baqsGOU0YY",52.3755984,4.8948028
"3511","Buikslotermeerplein 121-A, 1025 ET Amsterdam, Netherlands","Action","ChIJmZef_PAIxkcRP6gPDkTi7lo",52.3993283,4.936185
"3516","Buikslotermeerplein 123-b, 1025 ET Amsterdam, Netherlands","H&M","ChIJDdN-5PAIxkcREUgP6LfBq6c",52.3991877,4.9364095
"3545","Doblijn 7, 1046 BL Amsterdam, Netherlands","Houtkachel-Amsterdam","ChIJ39vPSILjxUcRxQgX5YtPnhU",52.390784,4.774735
"3547","Heining 47, 1047 AZ Amsterdam, Netherlands","Autobalans","ChIJwUIyPX7jxUcRv54-ax_B1-o",52.3970909,4.7678049
"3551","Tijnmuiden 18, 1046 AL Amsterdam, Netherlands","Bol-Expertise Amsterdam","ChIJVVVlOp3jxUcR4w_anXG_vok",52.3909275,4.7801919
"3553","Tijnmuiden 85, 1, 1046 AK Amsterdam, Netherlands","Kozmobox Europe","ChIJwzcJzofjxUcRXxz1aS-1aBA",52.391495,4.779997
"3554","Bolstoen 8, 1046 AT Amsterdam, Netherlands","Verfgroothandel Plug BV","ChIJobDsQ57jxUcRj6Z1nix5uek",52.3906539,4.7878999
"3561","Ankersmidplein 7, 1506 CK Zaandam, Netherlands","Primark","ChIJs2qYKdL8xUcRdE_RMWgeT6U",52.4385389,4.8166552
"3562","Gedempte Gracht 49, 1506 CB Zaandam, Netherlands","ZARA Zaandam Store","ChIJ6yB9qdb8xUcRPftv9KjpDv0",52.4393025,4.8213471
"3565","Abberdaan 114, 1046 AA Amsterdam, Netherlands","Boretti B.V.","ChIJoSYy854IxkcRRMkIxkxrY7A",52.392064,4.787719
"3571","Abberdaan 170, 1046 AB Amsterdam, Netherlands","VOID Acoustics Benelux","ChIJ0_iMpSMIxkcRRm08Xnw5ziU",52.3922198,4.7865272
"3574","Gedempte Gracht 94, 1506 CJ Zaandam, Netherlands","CeX","ChIJnzCl1tP8xUcRMaBl3fPzwHM",52.4389677,4.8179976
"3577","Gedempte Gracht 48-50, 1506 CH Zaandam, Netherlands","Foot Locker","ChIJYbeqWdH8xUcRce3rmTB3Wls",52.4393527,4.8198478
"3582","Gedempte Gracht 46B, 1506 CH Zaandam, Netherlands","Holland & Barrett","ChIJscXLWdH8xUcR_YmyMgC5ffg",52.439337,4.820007
"3589","Staalstraat 10, 1011 JL Amsterdam, Netherlands","Amsterdam Duck Store","ChIJy8KJMsQJxkcRtR_6BY190TQ",52.3682807,4.8969468
"3601","Bolstoen 5D, 1046 AS Amsterdam, Netherlands","Hesselink Koffie West BV","ChIJAVBvWp7jxUcRi1F6YkJXzeA",52.3903634,4.7890939
"3607","Bolstoen 36B, 1046 AA Amsterdam, Netherlands","TT Smyrna BV","ChIJH5rPyJ_jxUcRQQ3Av3W7QJ8",52.3912847,4.7900069
"3609","Abberdaan 6, 1046 AA Amsterdam, Netherlands","Garage Sahin","ChIJP-qo15_jxUcRQRxqIOCS1-c",52.3921662,4.7901419
"3610","Portsmuiden 108D, 1046 AM Amsterdam, Netherlands","Glashandel Kwast","ChIJ7fjrB53jxUcRVY9_4wnOa-8",52.3910637,4.7836488
"3611","Jarmuiden 16, 1046 AD Amsterdam, Netherlands","GLASSOLUTIONS Amsterdam","ChIJeQS_AaDjxUcRzX1V2TzAz3k",52.3919954,4.7928806
"3620","Baionen 10, 1046 CK Amsterdam, Netherlands","Van den Brink Automotive","ChIJ4Umg6HrvxUcRO4B7pBIhZkY",52.391298,4.796952
"3624","Luvernes 1, 1043 AX Amsterdam, Netherlands","Praxis Bouwmarkt Amsterdam Westpoort","ChIJURIKLQjjxUcRKPTediSAJwA",52.39195,4.805211
"3630","Roesiel 29, 1043 BL Amsterdam, Netherlands","Citee Keukens","ChIJJwZ9jafjxUcRwZCy5KqY2GA",52.3910941,4.8040514
"3700","Plimsollweg 4, 1042 AS Amsterdam, Netherlands","Port-U-Palace Exclusive Tiles","ChIJGVe_SvfixUcRNdqjNSE-LpY",52.3964803,4.8345871
"3722","Isarweg 2, 1043 AK Amsterdam, Netherlands","Industrial Tyres Amsterdam B.V.","ChIJ4zkQWPjixUcRUiz2g1lMz54",52.3925827,4.8294938
"3723","Donauweg 23, 1043 AJ Amsterdam, Netherlands","FRAME4U Lijstenmakerij","ChIJQ1ULsfnixUcRVAQ4CZg1Gp4",52.3928,4.8310668
"3745","Transformatorweg 28, 1014 AK Amsterdam, Netherlands","Salmari B.V","ChIJbdQugInixUcRTb7nhKhB2jA",52.3924113,4.8527518
"3765","Radarweg 8, 1042 AA Amsterdam, Netherlands","Stern Schadeherstel Amsterdam West","ChIJcQSMXS0KxkcR7eO6mZ4DEtM",52.4042171,4.8358661
"3776","Gyroscoopweg 84, 1042 AX Amsterdam, Netherlands","Kartell Partner Shop Amsterdam","ChIJs1ARk_LixUcR4GQIJe0-SgM",52.3995302,4.8449814
"3781","Elementenstraat 5, 1014 AR Amsterdam, Netherlands","Hysteria Tattoo Amsterdam","ChIJ55v80YvixUcRbKlVdKSotdI",52.392839,4.851851
"3787","Schakelstraat 15, 1014 AW Amsterdam, Netherlands","LeyWood Warenhuizen","ChIJeTaIforixUcRQY2qvxD07lM",52.3901963,4.8491326
"3788","Contactweg 47, 1014 AN Amsterdam, Netherlands","LOGOnow.nl","ChIJ0aqPlovixUcRpRqkW8D9z5E",52.3942723,4.8546731
"3789","Elektronstraat 12, 1014 AP Amsterdam, Netherlands","De IJsmakerij Amsterdam","ChIJkxZWcInixUcRhdjIxyKAXpc",52.3929067,4.8537507
"3792","Nieuwe Hemweg 7P, 1013 BG Amsterdam, Netherlands","Vandal Com-x Online Comicbook Shop","ChIJk_5VZhIJxkcRKGw9jQsVZ3o",52.3950353,4.8690103
"3796","Contactweg 47, 1014 AN Amsterdam, Netherlands","Calyptra","ChIJtS4ke-bjxUcRv2O76joJIdM",52.3942723,4.8546731
"3811","Spaarndammerdijk 9, 1013 ZM Amsterdam, Netherlands","The Wow Shop (C. Cohen)","ChIJqaV8mSsIxkcRM9WzTKyYBiU",52.3917935,4.8777484
"3817","Barentszstraat 130, 1013 NS Amsterdam, Netherlands","Baba Coffeeshop","ChIJ9dgQxTIIxkcRTNqXLz-cKAY",52.3891121,4.8875773
"3820","Plotterstraat 18-20, 1033 RX Amsterdam, Netherlands","Würth shop Amsterdam Haven","ChIJd5LJVjkIxkcRA-_A-2W79LY",52.4074362,4.8895655
"3838","Haarlemmerdijk 143, 1013 KG Amsterdam, Netherlands","JUTKA & RISKA","ChIJvxtO5c0JxkcRgeIr7KU1CH0",52.3837181,4.8851265
"3844","Haparandaweg 67, 1013 BD Amsterdam, Netherlands","Taart je Taart","ChIJdQOpLcwJxkcRiGGjd65IAAk",52.3951882,4.8771808
"3845","Spaarndammerstraat 636, 1013 TH Amsterdam, Netherlands","Westerpark Computers en Telecom","ChIJfeA9oiwIxkcRzwnP_4ir6fo",52.3899282,4.8792376
"3847","Netherlands, Nieuwe Hemweg 7G, 1013 BG Amsterdam, Netherlands","Laura Dols outlet","ChIJUfsyYIHixUcRQyJFaw6LtoU",52.3944209,4.8680804
"3848","Pazzanistraat 39, 1014 DB Amsterdam, Netherlands","Espressofabriek","ChIJZ161d9UJxkcRHO367_PpTH8",52.3861402,4.8719319
"3849","Spaarndammerstraat 65, 1013 TA Amsterdam, Netherlands","Slagerij Westerpark Halal","ChIJ4R6xpSwIxkcRnadLzDfcQPk",52.3894627,4.8791413
"3862","Haarlemmerdijk 168, 1013 JK Amsterdam, Netherlands","Primera","ChIJSSyj8c0JxkcRv-TFU2eOfvE",52.384005,4.88499
"3863","Haarlemmerdijk 182, 1013 JK Amsterdam, Netherlands","Coffee & Such","ChIJn8AU9M0JxkcRXNB-uoLoLT4",52.3841805,4.8847189
"3879","Brouwersgracht 119, 1015 GD Amsterdam, Netherlands","Oil Shop Amsterdam","ChIJM80vWM4JxkcRy02MxpXf5mc",52.3810565,4.8869484
"3881","Korte Marnixstraat 5, 1013 HT Amsterdam, Netherlands","Demure Couture Hat","ChIJFyVfFNIJxkcRGiMwlFPO6yQ",52.3843413,4.883004
"3893","Marnixstraat 41, 1015 VA Amsterdam, Netherlands","Accu Verkoop Amsterdam","ChIJJXc2itEJxkcRo4Z-VkKZGCA",52.3830745,4.8822043
"3894","Spaarndammerstraat 141, 1013 TG Amsterdam, Netherlands","4Pets' Delight","ChIJrfcHdysIxkcRn4F7IXZWGbQ",52.3912285,4.8779575
"3905","Van Diemenstraat 410, 1013 CR Amsterdam, Netherlands","Boekdrukatelier ""Het Y""","ChIJ1R55kjIIxkcR6XgipHVd5zw",52.3903731,4.8872269
"3907","Van Diemenstraat 410, 1013 CR Amsterdam, Netherlands","Profilex","ChIJhY7AkTIIxkcRapTPl4TZYxc",52.3903731,4.8872269
"3914","Van Noordtstraat 26, 1013 SM Amsterdam, Netherlands","Coffee Shots - specialty coffee","ChIJDRGgIdMJxkcRdjUpu2oFGrs",52.389241,4.879937
"3919","Westerdoksdijk 87, 1013 AD Amsterdam, Netherlands","The Children's Cabinet Shop","ChIJWT5bgc4JxkcR2soRJqHWnT8",52.384009,4.892291
"3929","NDSM-Plein 92-D, 1033 WB Amsterdam, Netherlands","The Pit Shop","ChIJxSatsy8JxkcR3tSL5mWNhH4",52.4006097,4.8952103
"3943","Haarlemmerdijk 158, 1013 JK Amsterdam, Netherlands","Zoet & Hartig Haarlemmerdijk","ChIJtbPo780JxkcRilpleeWtZ98",52.3838462,4.8852789
"3944","Tt. Vasumweg 4, 1033 SC Amsterdam, Netherlands","Inked Rebels","ChIJKUpP7jgIxkcRVro__FBIKuQ",52.4019923,4.8985556
"3948","Haarlemmerdijk 25-A, 1013 KA Amsterdam, Netherlands","Chocolaterie icecreamshop Jordino","ChIJ2cFXkc4JxkcRxuSWkB9VFUM",52.381841,4.888389
"3950","Draaierweg 16, 1032 KS Amsterdam, Netherlands","Beekhoven Bikes","ChIJR9KknhEIxkcRL7Z99Ri2Ynk",52.400967,4.9056441
"3959","Haarlemmerdijk 14I, 1013 JC Amsterdam, Netherlands","IJscuypje Haarlemmerdijk","ChIJ5TsLkc4JxkcRNrQUTogAif8",52.3818645,4.8888182
"3961","Mosveld 103, 1031 AD Amsterdam, Netherlands","Primera Mosveld","ChIJxyHTBFIIxkcRo5FvTvP_ATc",52.3909699,4.9139738
"3963","Papaverhoek, 1032 KB Amsterdam, Netherlands","Tin Can Customs","ChIJsfgJG04IxkcR2Q8V9on51Cg",52.393486,4.9120388
"3964","Mosplein 16, 1031 AA Amsterdam, Netherlands","Noord Bikes & Repair - Snelservice - Fietsenmaker - Fietsverkoop","ChIJsWLSD1IIxkcRd-dPxTpno10",52.3917874,4.9130651
"3965","Mosveld 125, 1031 AD Amsterdam, Netherlands","Samsung Service Center Amsterdam","ChIJVV5qUVIIxkcRz3kC1iQ3vj8",52.3906035,4.9147141
"3967","Van der Pekstraat 53, 1031 CR Amsterdam, Netherlands","Rahtour fietsen & reparaties / Bike rent","ChIJn78P0rIJxkcR672oTPkXutA",52.3885423,4.9091774
"3968","Van der Pekstraat 48HS, 1031 EC Amsterdam, Netherlands","Mina AvondWinkel","ChIJN6ohO00IxkcReyqlmivwdpY",52.3883501,4.9094933
"3969","Van der Pekstraat 40HS, 1031 EB Amsterdam, Netherlands","Fashion & Tea","ChIJKxJ4Ok0IxkcR5AT1Q4ERz_g",52.3880966,4.9093881
"3970","Waddenweg 7, 1025 PR Amsterdam, Netherlands","Avondwinkel La Nuit","ChIJb9m0-FUIxkcRq27vh1_6KiQ",52.3917381,4.9254964
"3975","Banne Buikslootlaan 186, 1034 BE Amsterdam, Netherlands","Smith Stationery Shop","ChIJZxpv70IIxkcR0g8dK-COOSQ",52.4066875,4.9127146
"4017","Kalverstraat 14, 1012 PC Amsterdam, Netherlands","Swatch Amsterdam Kalverstraat","ChIJURS51MYJxkcRL3f5epCSv9o",52.37221,4.8919543
"4027","Nieuwendammerdijk 4, 1025 LN Amsterdam, Netherlands","tattoo North","ChIJGRap9VUIxkcR3Y7JHjTHDkc",52.3908919,4.9252677
"4031","Buikslotermeerplein 201, 1025 XB Amsterdam, Netherlands","Hunkemöller","ChIJ0bsRRvAIxkcRdkxCVDTnyLU",52.3988505,4.9381294
"4038","Bovenover 339, 1025 JS Amsterdam, Netherlands","Sintpak.nu","ChIJ03B0y_AIxkcRU-_7yu7MQbI",52.3986417,4.9335989
"4052","Buikslotermeerplein 531, 1025 XH Amsterdam, Netherlands","MultiVlaai","ChIJB9em6-8IxkcR7hvFcP1TpXk",52.3978742,4.9414157
"4057","Purmerplein 21, 1023 BC Amsterdam, Netherlands","Ritsies","ChIJZ9F2COQIxkcRkMmuRxzHBiE",52.39141,4.9446851
"4066","Nieuwendijk 202, 1012 MX Amsterdam, Netherlands","ONLY","ChIJKR-NsKYJxkcRhFSHNZ2RchQ",52.3741438,4.893106
"4072","Buikslotermeerplein 219, 1025 XB Amsterdam, Netherlands","Portofino","ChIJgQljOvAIxkcR4GDs6RDAmRM",52.3978124,4.9406287
"4077","Buikslotermeerplein 219, 1025 XB Amsterdam, Netherlands","La Chica Fashion","ChIJIwZjOvAIxkcRiFEGePQhA7A",52.3988105,4.9389197
"4079","Buikslotermeerplein 123, 1025 ET Amsterdam, Netherlands","Shop-in-Shop Rituals","ChIJmZef_PAIxkcRtPuHfe9Wevg",52.3985428,4.9381675
"4081","Waterlandplein 272, 1024 LT Amsterdam, Netherlands","Design cadeaushop","ChIJsWR-u90IxkcRZP9SB8p-_0Q",52.3927365,4.9544531
"4082","Waterlandplein 260, 1024 NB Amsterdam, Netherlands","Primera van Vuure Waterlandplein","ChIJKYfgFs47ZUERjJDILY7celM",52.3923628,4.9548229
"4087","Hilversumstraat 44, 1024 KA Amsterdam, Netherlands","Hit Keukens & Houten Vloeren","ChIJz2BvW9kIxkcRAWGiA5WeiFk",52.3901046,4.9597391
"4090","Duinluststraat 3, 1024 VH Amsterdam, Netherlands","Reparatie Shop Amsterdam - Computersall","ChIJh1KH4ZL7xUcRO9SIlqPwtlo",52.395603,4.9542353
"4094","Pettenstraat 45, 1024 CS Amsterdam, Netherlands","From Holland Online","ChIJ5cNaN3UJxkcRoHyK0TOK2sM",52.397843,4.952303
"4097","Waterlandplein 7, 1024 LL Amsterdam, Netherlands","Hunters Coffeeshop/Bros","ChIJowqayd0IxkcR-x_ULpHdmxQ",52.3923027,4.9561821
"4119","Buikslotermeerplein 192, 1025 AG Amsterdam, Netherlands","Rituals","ChIJ-xeR2_AIxkcRrWkz9mZo1lE",52.3985782,4.9380733
"4376","Nieuwendijk 141, 1012 MD Amsterdam, Netherlands","H&M","ChIJt0E7ymAJxkcR_X2F53Wh9FY",52.3758846,4.895476
"4396","Citadel 7, 1315 VK Almere, Netherlands","ZARA","ChIJIatgOuEWxkcR83ezLe6ubQs",52.369658,5.219345
"4399","Stationsstraat 56, 1315 KJ Almere, Netherlands","C&A","ChIJKcMHveEWxkcRExJJVoOyNgA",52.3724277,5.220365
"4404","Citymall Almere, Schutterstraat 1, 1315 VH Almere, Netherlands","G-Star Raw","ChIJGaMMFeEWxkcRDQT7XH-lhxg",52.3702575,5.2191871
"4409","Stationsstraat 56A, 1315 KJ Almere, Netherlands","JD Sports","ChIJcYfxF-EWxkcRerAfnJXae_k",52.372223,5.2204556
"4411","Citadel, 1315 VL Almere, Netherlands","Jd","ChIJb3HTGOEWxkcRiyfigme5QHM",52.370312,5.2187167
"4413","Damrak 77, 1012 LM Amsterdam, Netherlands","Primark","ChIJw4h1dscJxkcR_0_4SG8gK5g",52.374584,4.8944252
"4414","Citadel 12, 1315 UK Almere, Netherlands","Superdry™","ChIJ32LXNuEWxkcRi-45KoFQ9Sc",52.369277,5.219342
"4416","Stadshart, De Diagonaal 29, 1315 XD Almere, Netherlands","Foot Locker","ChIJvaUZbOEWxkcRHdcI8G_Y3yY",52.3705286,5.2204915
"4418","Metropolestraat 11, 1315 KK Almere, Netherlands","Primark","ChIJSUsiJh4XxkcRqZKM3f4HGt8",52.3742286,5.2201527
"4428","Het Rietland 5, 1156 AX Marken, Netherlands","The Cheese Shop","ChIJc7Ca2dMaxkcRoza1RW7n5NE",52.457422,5.1038594
"4431","Stationsstraat 42, 1315 KJ Almere, Netherlands","Claire's","ChIJcXLnxuEWxkcRDv___urP5qg",52.3729156,5.2200278
"4441","Dennenlaan 124-126, 1161 CT Zwanenburg, Netherlands","Action","ChIJM7gkrm3kxUcRA0vo0dGxG9M",52.376035,4.7474622
"4444","Ookmeerweg 404, 1069 CG Amsterdam, Netherlands","Action","ChIJm24-oujjxUcRv9ioO2I3DXo",52.3610202,4.7823132
"4449","Osdorpplein 806, 1068 TD Amsterdam, Netherlands","Action","ChIJsyH9wNHjxUcRmDtexF8uQow",52.3585268,4.8049368
"4451","Behouden Haven 7a, 1506 VA Zaandam, Netherlands","Action","ChIJBeB0uND8xUcRuSD1BV0wuAk",52.4431427,4.8206476
"4457","Plein '40-'45 13, 1063 KR Amsterdam, Netherlands","Action","ChIJZ2LdcFLixUcR1YPbJm9JcZ8",52.379066,4.8216408
"4462","Paul Krugerstraat 39, 2021 XM Haarlem, Netherlands","Dr Martens","ChIJu4c5NHHvxUcRDZfuI6TusQA",52.3926032,4.6424022
"4464","Schipholweg 939, 2143 CE Boesingheliede, Netherlands","www.drukwerkgigant.nl","ChIJ3Uw_1xXixUcR_itvUyzonmA",52.3625543,4.722821
"4468","Suikersilo-West 11, 1165 MP Halfweg, Netherlands","Goeiemode","ChIJN-sgambkxUcRtjW4-DIPaTo",52.385182,4.743635
"4469","Grote Houtstraat 102, 2011 ST Haarlem, Netherlands","Björn Borg Store","ChIJkQxzuGrvxUcROK-reH-cIX8",52.3785646,4.6324514
"4470","Grote Houtstraat 19, 2011 SB Haarlem, Netherlands","Foot Locker","ChIJgXUkpmvvxUcRRLvWgVqsEnM",52.3804908,4.6354795
"4471","Barteljorisstraat 29, 2011 RA Haarlem, Netherlands","Lush Haarlem","ChIJQ2GReGvvxUcRznlvr8WfXUU",52.3820419,4.6354175
"4473","Kepplerstraat 54, 1501 XM Zaandam, Netherlands","Dupon Shops","ChIJ8S6OoS79xUcR6sqsrvHgDi4",52.438736,4.8356039
"4475","Generaal Cronjéstraat 95-97, 2021 JD Haarlem, Netherlands","Holland & Barrett","ChIJYWCSjnbvxUcRN_HPwm5HfjI",52.395102,4.64205
"4477","Grote Houtstraat 99, 2011 SH Haarlem, Netherlands","Apple Haarlem","ChIJO7fKuGrvxUcRFPYKNmePSIA",52.378433,4.6329655
"4479","Gedempte Gracht 78, 1506 CJ Zaandam, Netherlands","Specsavers","ChIJLykB2dP8xUcRxPEJKqUnbjU",52.4390706,4.8185708
"4480","Zijlstraat 70, 2011 TR Haarlem, Netherlands","Suitsupply Haarlem","ChIJZTrpW2vvxUcRVXYoSCaCCVY",52.382079,4.6332952
"4481","Grote Houtstraat 125, 2011 SJ Haarlem, Netherlands","CeX","ChIJn3wurmrvxUcRIWNlCmd2gu8",52.3778473,4.6321321
"4484","Barteljorisstraat 13-17, 2011 RA Haarlem, Netherlands","H&M","ChIJFer2fmvvxUcRse6TdIsPpLQ",52.3824429,4.63535
"4485","Gedempte Gracht 107, 1506 CD Zaandam, Netherlands","C&A","ChIJ56Fg0NP8xUcRuV_jgJHjuO0",52.4386815,4.8182495
"4488","Weerenweg 15C, 1161 AE Zwanenburg, Netherlands","the Ben Plummer sign co.","ChIJiZJTea3lxUcR1BbBrXs6sRY",52.3844649,4.7331819
"4490","Kromme Spieringweg 208, 2141 BR Vijfhuizen, Netherlands","Scooter Shop.nl","ChIJVcFNhs7lxUcR0vptdoW6thw",52.3667095,4.701596
"4491","Venenweg 23, 1161 AK Zwanenburg, Netherlands","Deni Wheel Styling First Stop","ChIJ_fGJiELkxUcRzbljohnVa3c",52.3812896,4.736973
"4492","Barteljorisstraat 14, 2011 RB Haarlem, Netherlands","Superdry™","ChIJoxzvgWzvxUcRrrtadzSchBE",52.3825383,4.6351372
"4498","Weerenweg 26, 1161 AJ Zwanenburg, Netherlands","Keukenlade.nl","ChIJIy2lt0LkxUcRGRbk2rejo5k",52.3836596,4.7362266
"4501","Kopraweg 35, 1047 BP Amsterdam, Netherlands","De Locatie","ChIJpVyQi5zkxUcRfFxpvwe2k-o",52.4064541,4.7634823
"4502","Kopraweg 1, 1047 BP Amsterdam, Netherlands","Fetim Mondial Group bv","ChIJu2T3sITkxUcRX5n4fgUZJrw",52.4036435,4.7605536
"4542","Daam Schijfweg 10, 1507 BD Zaandam, Netherlands","Holland Gift Shop","ChIJ08DCwyzjxUcR3ncHJKNSGgI",52.4328457,4.8175543
"4549","Penningweg 30, 1507 DA Zaandam, Netherlands","Gilex","ChIJ7wZgHtwJxkcRi4UNCu54pI8",52.4294352,4.7964323
"4554","Gedempte Gracht 46, 1506 CH Zaandam, Netherlands","De Koffiezaak Gedempte Gracht","ChIJbbqiWdH8xUcRFRIiW6bTSNY",52.439402,4.819946
"4559","Zuiddijk 18, 1501 CL Zaandam, Netherlands","Tattoo & Piercing Shop Michel-Ink Zaandam","ChIJreoUU8f8xUcRaXD6uuYjoBo",52.438492,4.829246
"4572","Nieuw-Zeelandweg 6M, 1045 AL Amsterdam, Netherlands","Super Halal Slagerij","ChIJNawcBxTjxUcRc5p2c4JWSYg",52.408291,4.8024678
"4606","De Clercqstraat 130, 1052 NP Amsterdam, Netherlands","Misc store","ChIJv-73BHXixUcReMXvxkUdROQ",52.3701172,4.8658246
"4614","Rozengracht 53, 1506 SG Zaandam, Netherlands","B.V. Music Shop","ChIJq3ZX5dP8xUcROkKvcQku2HE",52.4384554,4.8199304
"4622","Nieuw-Zeelandweg 10, 1045 AL Amsterdam, Netherlands","MAN Dealer Amsterdam","ChIJjfWK4RPjxUcRmXtIlKgUnKE",52.406848,4.801862
"4689","Deccaweg 16, 1042 AD Amsterdam, Netherlands","Tangermarkt","ChIJ1_wMrvHixUcR-kp4JZX3pVM",52.3989838,4.8375827
"4709","Gyroscoopweg 120, 1042 AZ Amsterdam, Netherlands","Verfvoordelig.com","ChIJL16UD8XjxUcRpgubmK4QDXc",52.400567,4.843617
"4754","Gyroscoopweg 120, 1042 AZ Amsterdam, Netherlands","Verfvoordelig & Sigma Shop","ChIJS5A1efLixUcRcggLDa_cY4U",52.4005666,4.8436169
"4756","Netwerkweg 33, 1033 MV Amsterdam, Netherlands","Biker Outfit","ChIJK3BQ_jsIxkcRcbU5FE4sTC8",52.411403,4.881284
"4806","Danzigerkade 3c, 1013 AP Amsterdam, Netherlands","Damsko Bikes","ChIJya41I3PixUcRhdb_q9Dyh48",52.3964934,4.877924
"4807","Monitorstraat 9, 1033 RM Amsterdam, Netherlands","Laminaat, Tegel en Bouwmaterialen shop Sobik Bouwmaterialen Amsterdam","ChIJEbnw9CIIxkcRNrt2KDPdvAI",52.4080574,4.8860236
"4816","Disketteweg 17, 1033 NW Amsterdam, Netherlands","Quick Change Banden- En Uitlaatservice","ChIJQ2SflKDixUcRlli0G6FwWJE",52.413962,4.8747302
"4818","Kreeftstraat 5, 1033 EL Amsterdam, Netherlands","Willem's Vintage Bikes","ChIJe7_-5HLixUcRBWJuh29gvQQ",52.4126155,4.8920156
"4833","Oostzanerdijk 143G, 1035 EX Amsterdam, Netherlands","De Ballonnenwinkel","ChIJm3_OVB0IxkcRUEiYOXcm2vA",52.4207429,4.8777829
"4861","Computerweg 9, 1033 RH Amsterdam, Netherlands","Rigid Packaging Printing B.V.","ChIJjxum-jwIxkcRHjJpVkn5leI",52.4062292,4.8907937
"4880","Slijperweg 16, 1032 KV Amsterdam, Netherlands","Engels Verf Amsterdam Noord","ChIJb1BEe0YIxkcRrLyr91r4yS4",52.4005056,4.9064184
"4881","Polijsterweg 5, 1032 KP Amsterdam, Netherlands","CVS tires","ChIJlcArakYIxkcRDDrKVA9tvJw",52.3997999,4.9052947
"4894","NDSM-Plein 92D, 1033 WB Amsterdam, Netherlands","The Pit Shop - HARD KNOX Amsterdam NDSM Streetwear","ChIJ5RNY_xEJxkcRfIRKviY5iSY",52.4000646,4.8959377
"4919","Kalverstraat 10, 1012 PC Amsterdam, Netherlands","Holland & Barrett","ChIJJ-711MYJxkcRWSsdLE9uknA",52.372305,4.891922
"4922","Lucien Gaudinstraat 2, 1034 WB Amsterdam, Netherlands","Avondwinkel Banne","ChIJo0j581wIxkcRgfDlpVclU_Q",52.4047732,4.9174251
"4938","Zus Braunstraat 9, 1034 WX Amsterdam, Netherlands","Camridge","ChIJH0T28FsIxkcR4QWcp5jLw0w",52.4025097,4.9198714
"4987","Diopter 7, 1025 MR Amsterdam, Netherlands","Quin Floors","ChIJWZpvDQkJxkcRDdtC_U8kD0Y",52.4078731,4.9308816
"5008","Buikslotermeerplein 76, 1025 EW Amsterdam, Netherlands","Homy Phone","ChIJx42JXfAIxkcRADeC1ddNbwg",52.3987832,4.936984
"5049","De Dollard 28, 1454 AV Watergang, Netherlands","Le Chic Bruids - Galawereld","ChIJkeuudioHxkcRMdDbc5ndqLE",52.424117,4.953148
"5060","De Dollard 28, 1454 AV Watergang, Netherlands","Trouwjurken-shop.nl","ChIJP67wwJ4IxkcR0bCxqfdu-iw",52.4241167,4.953148
"5217","Buitenweeren 23, 1151 BE Broek in Waterland, Netherlands","Ajax Updates","ChIJORO61voFxkcR4pO-4gjass8",52.4367448,4.9972881
"5261","Zeedijk 67, 1012 AS Amsterdam, Netherlands","Patta","ChIJ07lKX8YJxkcRD1fHSz89E_k",52.3747633,4.9009497
"5267","Kalverstraat 88-90, 1012 AA Amsterdam, Netherlands","Pepe Jeans","ChIJOyCpHsEJxkcRnHrdk9H3Uf8",52.3704832,4.8914352
"5276","Nieuwendijk 120, 1012 MS Amsterdam, Netherlands","Hunkemöller","ChIJw2vx88cJxkcRHfp2bbw6wyk",52.3762442,4.8957048
"5280","Dam 1, 1012 JS Amsterdam, Netherlands","Maje Corner Debijenkorf","ChIJ__8_ZMcJxkcROW2MgB8TorQ",52.3737531,4.8952706
"5341","Rijperweg 4, 1154 PN Uitdam, Netherlands","Schapenhouderij J.C. Lammes / Theetuin Uitdam","ChIJG_Dnx4sPxkcR2iWQuwLiw28",52.4206024,5.0654112
"5348","Zeestraat 21, 1131 ZD Volendam, Netherlands","Action","ChIJuZjzx5YExkcR-oW0SVv6GNA",52.4939654,5.0720751
"5366","Hoogedijk 8, 1145 PM Katwoude, Netherlands","Henri Willig Kaas","ChIJxSAbOKsFxkcR4H3Y0hhi0Ec",52.466591,5.040803
"5398","De Diagonaal 11, 1315 XD Almere, Netherlands","Skechers","ChIJC5FgceEWxkcRKYlaB3n_UGo",52.3710037,5.2205242
"5399","Stationsstraat 37-41, 1315 KG Almere, Netherlands","H&M","ChIJ3wWVleEWxkcRQ0o090yoP9g",52.3724811,5.2205542
"5409","Gedempte Gracht 75, 1506 CC Zaandam, Netherlands","Best Styles Zaandam","ChIJD5pa4tP8xUcRvJ3bdn-fTZk",52.4390389,4.8197906
"5414","Vermiljoenweg 9c, 1503 MN Zaandam, Netherlands","Action","ChIJ1U5uhiX9xUcRqKPyri4elfA",52.4443946,4.8381012
"5430","Gedempte Gracht 49a, 1506 CB Zaandam, Netherlands","H&M","ChIJO_WQpNb8xUcRcuEV4FXPq2E",52.4392565,4.8211068
"5449","Parallelweg 45a, 1948 NK Beverwijk, Netherlands","Office Centre Beverwijk","ChIJX1d66nzwxUcRie4z6U_NjuY",52.479017,4.663137
"5450","Hoofdstraat 177, 2071 EG Santpoort-Noord, Netherlands","The Read Shop Express","ChIJ9zn_N-bvxUcRagBxkGtUjMI",52.4314574,4.6445014
"5452","Anegang 6, 2011 HS Haarlem, Netherlands","C&A","ChIJsfpcqWvvxUcR6FfMp_eD_8Y",52.3799846,4.635513
"5453","Westzijde 174-A, 1506 EK Zaandam, Netherlands","De Koffiezaak Verskade","ChIJtdF8YNr8xUcR72s5dASGOG8",52.445833,4.818926
"5458","Lange Veerstraat 47, 2011 DA Haarlem, Netherlands","Coffee Shop High Times","ChIJG3xa0mvvxUcRqosZzGgI9iU",52.3798942,4.6377383
"5481","Hermitage 11, 1506 TX Zaandam, Netherlands","De Koffiezaak Hermitage","ChIJYUPS8CT9xUcRQhqsXxhf5Eo",52.43836,4.816721
"5492","Rijder 1-C, 1507 DP Zaandam, Netherlands","Brouwer Tires Zaandam","ChIJ85VT_Nv8xUcRqOB4xID0bbo",52.4266541,4.7960361
"5494","Penningweg 67-G, 1507 DE Zaandam, Netherlands","Zaanse Bandencentrum","ChIJKcd_hUnjxUcRMvPpgk8lxyw",52.429007,4.796674
"5495","Peperstraat 58, 1502 AJ Zaandam, Netherlands","CROWN TATTOOS","ChIJH3QuP9b8xUcR-0Y2zO6jfRA",52.4405438,4.8262866
"5496","A.F. de Savornin Lohmanstraat 1, 1501 NG Zaandam, Netherlands","Resolution INK","ChIJFfkznML8xUcRtSO0hvZVOPc",52.4395727,4.8272078
"5499","Rijder 1c, 1507 DP Zaandam, Netherlands","Brouwer Banden Zaandam","ChIJg1iA1a4VxkcRegvf_oLXVKA",52.4266031,4.7963309
"5500","Penningweg 23, 1507 DB Zaandam, Netherlands","De Memorybox","ChIJN-rj7knjxUcRJ8wX2UXuWxc",52.4288209,4.7978962
"5503","Penningweg 23, 1507 DB Zaandam, Netherlands","A New Baby","ChIJqYbi7UnjxUcROrfO9uPiOXc",52.4286537,4.7978791
"5507","Wilhelminastraat 4, 1501 CT Zaandam, Netherlands","Avondwinkel de Brug","ChIJla2kD9b8xUcReUWHxVeTPo0",52.4393415,4.8264619
"5509","Penningweg 79 A, 1507 DG Zaandam, Netherlands","Garage Sefa","ChIJVa9mWUnjxUcR-PALzV1MVUE",52.429327,4.793697
"5511","Hermitage 10, 1506 TX Zaandam, Netherlands","Bleep","ChIJB--0z9P8xUcRq6Kd-_FbkfI",52.4384553,4.8166548
"5512","Westzijde 14, 1506 EE Zaandam, Netherlands","MultiVlaai","ChIJKWsek9b8xUcRVvU0MvFd_i4",52.4402979,4.8234647
"5514","Pieter Ghijsenlaan 16B, 1506 PV Zaandam, Netherlands","Lampenlicht.nl Outlet Zaandam","ChIJkYyB8ynjxUcRGayjY7zpaGU",52.4281901,4.8243901
"5516","Penningweg 67H, 1507 DE Zaandam, Netherlands","Osi-Car Service","ChIJ9_Ucg0njxUcRynuOLl7rWjg",52.428595,4.796367
"5547","Ducaatstraat 38, 1507 BW Zaandam, Netherlands","Autoschadebedrijf Saray","ChIJDeTc_0njxUcR54pbZH7lWEQ",52.4291675,4.7990466
"5564","Zuiddijk 18, 1501 CL Zaandam, Netherlands","Meraki tattoo & piercing Zaandam","ChIJx0ueo7D9xUcR7j4_6w2sL_k",52.4384937,4.829248
"5573","Ronde Tocht 7G, 1507 CC Zaandam, Netherlands","Dis-Order Online metal mailorder","ChIJLWRpiy3jxUcRtmyFBERA1XU",52.4301329,4.8130364
"5581","Elbaweg 2, 1044 AD Amsterdam, Netherlands","Pronk Multiservice bv","ChIJK_cURD3jxUcR-KuJKdkIKnQ",52.4140934,4.8079152
"5587","Ronde Tocht 10, 1507 CC Zaandam, Netherlands","Aranea Offset B.V.","ChIJD_p8HzLjxUcRMr_Dyy0O1Vs",52.4291042,4.8109372
"5608","Cornelis Ouwejanstraat 1, 1506 SX Zaandam, Netherlands","Bedden.nl","ChIJRZxnH5fjxUcRqtqriI4KafQ",52.421947,4.8260075
"5609","Kepplerstraat 82, 1501 XN Zaandam, Netherlands","Wibaut Avondwinkel en Belhuis","ChIJ4VwfJSz9xUcRxa7CoT34eUA",52.4378877,4.8362327
"5622","Gedempte Gracht 34, 1506 CG Zaandam, Netherlands","T-Mobile","ChIJrdfBrNb8xUcRA46KiTSfn68",52.4395393,4.8210636
"5641","Kombuisweg 15, 1041 AV Amsterdam, Netherlands","Worstmakerij Louman Jordaan","ChIJlRzm1t7ixUcRiqwzZl8ofwU",52.4170368,4.8272898
"5650","Zomerdijk 31, 1505 HW Zaandam, Netherlands","mijnzangvogel.nl","ChIJZSDGKc_ixUcRejfHD4HqubU",52.4247379,4.8443935
"5658","Ankersmidplein 5, 1506 CK Zaandam, Netherlands","Flying Tiger Copenhagen","ChIJ3T4ELtL8xUcRzCL4bVk5Y_A",52.4386313,4.8170663
"5673","Vredeweg 1G, 1505 HH Zaandam, Netherlands","Ziana Elegance","ChIJ_-FnVNTjxUcRu2AEE9y15O4",52.4253681,4.8438731
"5714","Meteorenweg 235, 1033 HA Amsterdam, Netherlands","DV Online Shop","ChIJhXpMNakJxkcRP3FWdcoMuc0",52.4139593,4.8827166
"5755","Kalverstraat 139, corner Spui, 1012 WX Amsterdam, Netherlands","Camper","ChIJCbinNcAJxkcRmqpdORIXNOM",52.3689107,4.8911569
"5821","Zuideinde 63A, 1121 DD Landsmeer, Netherlands","JOOF basic leather bags for men and women.","ChIJOQXHsdH8xUcRAc7_pF-bA9A",52.4234212,4.9101831
"6117","Breedstraat 14, 1441 CC Purmerend, Netherlands","The Athlete's Foot","ChIJNw2E8NUGxkcRGcU2eyhn38g",52.5093786,4.9472127
"6132","Marktstraat 15-19, 1521 DW Wormerveer, Netherlands","Action","ChIJuQ5qfYz5xUcRIXh4L5D9VJE",52.4930234,4.7897075
"6135","J.J. Allanstraat 111, 1551 RC Westzaan, Netherlands","Hengelsport Lagerweij","ChIJqZc-jKf8xUcRB4ucrgsk39k",52.4478649,4.7764168
"6136","Breestraat 53, 1941 EE Beverwijk, Netherlands","C&A","ChIJNy_tN2LwxUcRvm2lf4xPVmw",52.4808693,4.6570877
"6152","Dorpsstraat 111, 1566 AD Assendelft, Netherlands","Schoone Auto- en Meubelbeklederij Rene","ChIJxy0d_df6xUcRs0KjPyqZVng",52.4478807,4.7225502
"6157","Breestraat 86, 1941 EL Beverwijk, Netherlands","Holland & Barrett","ChIJtfKyQWLwxUcRCn4okP_nqsI",52.481605,4.65733
"6165","Veenpolderdijk 2-4, 1566 PJ Assendelft, Netherlands","De Tijdgeest Assendelft","ChIJWzTtHiP7xUcRjmGUGIhWAO4",52.455944,4.735471
"6170","56, H. Soeteboomstraat, 1507 RW Zaandam, Netherlands","123kids.nl","ChIJ0QVuRM3ixUcRj8xAhTOrVIw",52.4476348,4.79844
"6175","Stationsplein 1, 1541 LK Koog aan de Zaan, Netherlands","Zaanse koffie","ChIJpx7cNSMHxkcRjvO90nd7W6M",52.4693952,4.8052244
"6178","Krommenieërweg 20, 1521 HJ Wormerveer, Netherlands","Specsavers","ChIJubr4zHX8xUcRl-BuDXA7MHY",52.4947725,4.787122
